{"type":"Feature","properties":{"code":"AL","source":"geofabrik index-v1"},"geometry":{"type":"MultiPolygon","coordinates":[[[[19.37748,42.00058],[19.36718,42.01078],[19.36718,42.03654],[19.37559,42.07198],[19.39619,42.10281],[19.39053,42.10816],[19.27689,42.18096],[19.34538,42.24034],[19.35757,42.25889],[19.37799,42.27921],[19.38177,42.29636],[19.41662,42.32556],[19.41284,42.33469],[19.4113,42.35106],[19.42245,42.37161],[19.43619,42.38594],[19.46571,42.39152],[19.47619,42.40533],[19.4949,42.43359],[19.51275,42.44322],[19.51893,42.45209],[19.5397,42.4778],[19.54451,42.48767],[19.55789,42.49729],[19.55841,42.51324],[19.60201,42.53322],[19.60527,42.57672],[19.66484,42.63282],[19.67806,42.63042],[19.68578,42.63914],[19.69454,42.64292],[19.69591,42.65164],[19.70467,42.65694],[19.72715,42.66313],[19.73694,42.6558],[19.7426,42.64419],[19.75513,42.64128],[19.75943,42.6332],[19.75136,42.62689],[19.75651,42.61527],[19.77299,42.59732],[19.77814,42.59012],[19.77676,42.57887],[19.75479,42.57672],[19.75531,42.56446],[19.74827,42.5441],[19.77247,42.50362],[19.78603,42.49488],[19.79324,42.48501],[19.82929,42.46931],[19.83461,42.48007],[19.85487,42.48552],[19.87118,42.49045],[19.87564,42.49716],[19.88869,42.49577],[19.89624,42.48868],[19.90053,42.49476],[19.90345,42.50779],[19.94207,42.52007],[19.96611,42.51197],[19.98156,42.51387],[20.00061,42.51197],[20.01383,42.54549],[20.05726,42.56244],[20.08747,42.55611],[20.10395,42.53689],[20.16884,42.5083],[20.17433,42.49463],[20.18532,42.48729],[20.18909,42.47615],[20.19939,42.46779],[20.19939,42.45361],[20.22549,42.43182],[20.22926,42.42523],[20.22995,42.40926],[20.21587,42.4009],[20.25117,42.37669],[20.24931,42.3527],[20.25192,42.32809],[20.27087,42.32367],[20.289,42.32657],[20.29758,42.32302],[20.30411,42.31972],[20.3096,42.32048],[20.32299,42.32911],[20.34119,42.33038],[20.3508,42.3253],[20.35938,42.31286],[20.39886,42.29864],[20.41652,42.28869],[20.45343,42.2787],[20.52748,42.21943],[20.54505,42.17357],[20.57039,42.13665],[20.56915,42.06739],[20.59696,42.04496],[20.60325,42.0363],[20.63682,41.97525],[20.63312,41.95271],[20.61936,41.93723],[20.59358,41.92332],[20.58426,41.91326],[20.59627,41.89052],[20.59799,41.87391],[20.57808,41.87109],[20.56263,41.86317],[20.56709,41.82557],[20.57362,41.80459],[20.57825,41.78552],[20.55576,41.78309],[20.53258,41.75904],[20.51834,41.72316],[20.53516,41.70188],[20.52486,41.6606],[20.53173,41.65111],[20.52967,41.63777],[20.55439,41.61159],[20.56194,41.57873],[20.54495,41.57642],[20.5204,41.56088],[20.48538,41.55677],[20.45877,41.55368],[20.47405,41.53878],[20.47302,41.52747],[20.45671,41.52336],[20.4574,41.51359],[20.47955,41.50832],[20.48143,41.49906],[20.4919,41.49482],[20.49929,41.48904],[20.50375,41.47862],[20.50821,41.46884],[20.51439,41.44183],[20.54134,41.43796],[20.56005,41.41621],[20.56612,41.41059],[20.55319,41.39111],[20.55439,41.37668],[20.54512,41.36856],[20.53911,41.35813],[20.53438,41.34889],[20.52933,41.34615],[20.51834,41.33429],[20.50976,41.33944],[20.50049,41.34589],[20.49963,41.3379],[20.50444,41.32488],[20.51748,41.28335],[20.51508,41.27071],[20.52401,41.24684],[20.52177,41.24155],[20.518,41.23238],[20.54186,41.19984],[20.55988,41.19416],[20.56452,41.17956],[20.58426,41.15669],[20.60074,41.12721],[20.58924,41.117],[20.58975,41.10665],[20.59988,41.09216],[20.67713,41.08155],[20.73309,40.91455],[20.76176,40.90417],[20.77395,40.90612],[20.81669,40.90326],[20.84467,40.94088],[20.88141,40.92986],[20.91677,40.92596],[20.93719,40.92635],[20.95264,40.92272],[20.98423,40.90067],[20.98869,40.7938],[20.98526,40.78496],[20.97736,40.77924],[20.96741,40.77352],[20.98045,40.76624],[20.98972,40.76104],[20.98938,40.73659],[21.00826,40.72853],[21.02543,40.71474],[21.06285,40.66892],[21.06045,40.63558],[21.06148,40.61057],[21.05359,40.59756],[21.04465,40.55111],[21.01788,40.5519],[21.0014,40.53233],[20.97153,40.51015],[20.97427,40.49605],[20.96981,40.47881],[20.95058,40.46288],[20.92827,40.45896],[20.9063,40.46941],[20.87265,40.46732],[20.85355,40.47712],[20.843,40.47604],[20.839,40.46837],[20.82493,40.43623],[20.79094,40.42696],[20.79523,40.41206],[20.79128,40.3969],[20.7942,40.3833],[20.79498,40.36596],[20.78115,40.34694],[20.76347,40.3366],[20.76622,40.32077],[20.71472,40.27979],[20.71043,40.26957],[20.71661,40.25857],[20.72519,40.25372],[20.72365,40.23839],[20.72777,40.22293],[20.7181,40.20599],[20.70751,40.19671],[20.68365,40.18832],[20.68005,40.16851],[20.69326,40.15749],[20.69721,40.15277],[20.68726,40.13978],[20.68314,40.11208],[20.67953,40.09291],[20.65962,40.09016],[20.62288,40.08832],[20.62117,40.08188],[20.60314,40.0719],[20.57413,40.06507],[20.56074,40.06362],[20.54701,40.0627],[20.51302,40.07768],[20.49156,40.06112],[20.47628,40.06323],[20.4598,40.07308],[20.43354,40.06599],[20.41912,40.05613],[20.41723,40.03287],[20.40075,40.01434],[20.39732,39.9954],[20.37741,39.98751],[20.32934,39.99133],[20.31458,39.98988],[20.3187,39.98238],[20.32728,39.97304],[20.34891,39.94791],[20.34067,39.92435],[20.36505,39.91072],[20.38582,39.8888],[20.38985,39.86989],[20.4065,39.85289],[20.41989,39.83965],[20.41414,39.81157],[20.40255,39.79911],[20.39131,39.78704],[20.3823,39.78308],[20.36333,39.78869],[20.34608,39.8028],[20.31612,39.8084],[20.30514,39.81447],[20.30145,39.80953],[20.29278,39.80359],[20.29853,39.79522],[20.30531,39.78842],[20.30934,39.77879],[20.29707,39.76672],[20.29664,39.75775],[20.30625,39.75141],[20.32496,39.73491],[20.32205,39.72745],[20.30179,39.71346],[20.28565,39.71115],[20.27922,39.70052],[20.26531,39.69002],[20.26514,39.67614],[20.26583,39.67007],[20.25742,39.67284],[20.23347,39.68374],[20.23055,39.67278],[20.21999,39.66452],[20.23012,39.65249],[20.22789,39.64562],[20.1915,39.64364],[20.11803,39.65566],[20.0909,39.67046],[20.08678,39.67839],[20.07442,39.67839],[20.05657,39.68843],[20.01537,39.69187],[19.99306,39.62738],[19.91718,39.68447],[19.94911,39.73756],[19.97143,39.78664],[19.95358,39.82093],[19.8365,39.88103],[19.73694,39.90974],[19.21509,40.02761],[18.9006,40.45949],[18.89648,40.65772],[19.05166,41.34589],[19.11484,41.65445],[19.36615,41.85013],[19.37233,41.8757],[19.36632,41.88963],[19.33868,41.90637],[19.34297,41.91339],[19.35864,41.91722],[19.36688,41.92064],[19.36945,41.92332],[19.36774,41.92731],[19.36091,41.93035],[19.34847,41.9397],[19.35431,41.96051],[19.37079,41.96306],[19.38589,41.96702],[19.37199,41.97557],[19.37834,41.99088],[19.37748,42.00058]]]]}}
