{"type":"Feature","properties":{"code":"AT","source":"geofabrik index-v1"},"geometry":{"type":"MultiPolygon","coordinates":[[[[15.96205,48.802],[16.0949,48.75043],[16.34018,48.74916],[16.39895,48.74517],[16.45823,48.81096],[16.51004,48.80534],[16.54021,48.81873],[16.61968,48.7888],[16.66113,48.78688],[16.73632,48.74051],[16.77557,48.71796],[16.91582,48.72533],[16.94161,48.62055],[16.95876,48.54549],[16.95003,48.52128],[16.92148,48.49319],[16.86818,48.45311],[16.86356,48.40326],[16.84929,48.38014],[16.8385,48.38292],[16.83555,48.38072],[16.91483,48.32327],[16.90019,48.31199],[16.92493,48.27645],[16.96135,48.26823],[16.95327,48.24222],[16.96392,48.22056],[16.98023,48.18806],[16.97885,48.1733],[17.00929,48.15746],[17.05868,48.1449],[17.07842,48.11591],[17.0973,48.09849],[17.09524,48.09012],[17.08958,48.06512],[17.09129,48.044],[17.14412,48.02304],[17.16408,48.00692],[17.10844,47.96939],[17.12187,47.96152],[17.11979,47.92992],[17.09129,47.87214],[17.03491,47.86025],[17.08072,47.80555],[17.06007,47.7935],[17.10251,47.70674],[16.91277,47.68458],[16.83277,47.6788],[16.74625,47.67833],[16.60737,47.75624],[16.54661,47.7339],[16.55935,47.7209],[16.47544,47.6777],[16.43008,47.66502],[16.51868,47.65056],[16.58626,47.62199],[16.62446,47.63161],[16.65174,47.62709],[16.67509,47.60663],[16.68071,47.56934],[16.71825,47.54049],[16.70715,47.51267],[16.66098,47.49821],[16.67819,47.48318],[16.6669,47.4547],[16.5787,47.4034],[16.5233,47.40482],[16.49769,47.38692],[16.45216,47.40554],[16.46789,47.38408],[16.45907,47.35651],[16.43828,47.35205],[16.46705,47.33745],[16.49272,47.28394],[16.48174,47.25831],[16.44606,47.24606],[16.44102,47.20929],[16.42423,47.20387],[16.45549,47.19132],[16.46869,47.16935],[16.45949,47.14623],[16.51683,47.15459],[16.53892,47.12719],[16.47022,47.09268],[16.53889,47.05445],[16.4661,47.03889],[16.51872,47.00027],[16.48594,46.99213],[16.43599,46.9907],[16.28949,46.99671],[16.27727,46.96157],[16.24655,46.95671],[16.24964,46.94663],[16.22149,46.93398],[16.1984,46.93766],[16.18372,46.908],[16.13196,46.87316],[16.11179,46.86295],[16.0815,46.85303],[16.06064,46.83824],[16.0324,46.83195],[15.98983,46.82796],[15.99978,46.80928],[15.99189,46.77784],[15.9912,46.75944],[15.99438,46.73286],[16.01858,46.71574],[16.03111,46.71344],[16.04416,46.68672],[16.04073,46.65297],[16.00811,46.66422],[15.99729,46.68001],[15.98227,46.6836],[15.94219,46.68854],[15.90408,46.70927],[15.84539,46.71858],[15.80864,46.71491],[15.77307,46.69654],[15.70939,46.69411],[15.6565,46.70419],[15.65818,46.69008],[15.63048,46.67741],[15.59438,46.68144],[15.56334,46.67294],[15.54569,46.62641],[15.50707,46.612],[15.46617,46.61042],[15.4122,46.64976],[15.23546,46.63647],[15.15615,46.65235],[15.08186,46.64313],[15.0403,46.64659],[14.97831,46.59567],[14.95597,46.62892],[14.92372,46.59933],[14.8754,46.60386],[14.84469,46.56699],[14.81998,46.50874],[14.78677,46.49769],[14.72632,46.48873],[14.71667,46.49249],[14.70534,46.46561],[14.67035,46.44519],[14.59022,46.42758],[14.59284,46.39936],[14.57886,46.37275],[14.55997,46.36979],[14.51929,46.42378],[14.49354,46.41171],[14.47775,46.41159],[14.43827,46.42224],[14.42273,46.44419],[14.38179,46.43738],[14.32926,46.43017],[14.30763,46.42827],[14.28257,46.44046],[14.23742,46.43005],[14.15503,46.43241],[14.13305,46.45051],[14.11657,46.47298],[14.04928,46.49024],[14.01323,46.47712],[13.9389,46.50973],[13.88843,46.51859],[13.81462,46.50489],[13.79265,46.50359],[13.66939,46.52237],[13.63884,46.53348],[13.57412,46.5369],[13.52177,46.54505],[13.40401,46.56004],[13.32098,46.55025],[13.27166,46.55815],[13.2399,46.55036],[13.2272,46.5526],[13.16128,46.58459],[13.04403,46.59355],[12.94704,46.60134],[12.85074,46.60322],[12.82826,46.60936],[12.8298,46.62586],[12.728,46.63353],[12.56784,46.64944],[12.47601,46.67736],[12.42983,46.69055],[12.37941,46.71289],[12.3497,46.77174],[12.27869,46.78018],[12.27914,46.81664],[12.29428,46.8401],[12.2613,46.88123],[12.21461,46.87155],[12.19257,46.88984],[12.14143,46.91219],[12.11847,47.01369],[12.23347,47.0735],[12.1868,47.08527],[11.74395,46.96545],[11.66407,46.99124],[11.62118,47.00267],[11.53932,46.98191],[11.50469,47.00339],[11.48161,47.00589],[11.46482,46.97869],[11.40395,46.96151],[11.31843,46.98227],[11.17309,46.94142],[11.10435,46.90095],[11.08809,46.82023],[11.0277,46.76278],[10.88618,46.76019],[10.72762,46.78539],[10.7208,46.79832],[10.74861,46.82526],[10.70401,46.84069],[10.66931,46.86781],[10.55132,46.83351],[10.4644,46.8522],[10.45976,46.88503],[10.48203,46.93464],[10.42068,46.95649],[10.38916,46.99593],[10.31154,46.91565],[10.25077,46.92534],[10.23878,46.86318],[10.11058,46.8371],[9.864168,46.93453],[9.871334,47.00204],[9.670363,47.05382],[9.624504,47.05046],[9.603802,47.05961],[9.60736,47.08034],[9.630754,47.08638],[9.601922,47.14683],[9.561625,47.1704],[9.577475,47.20636],[9.54873,47.22297],[9.563506,47.24139],[9.52678,47.27044],[9.546581,47.28223],[9.555715,47.29954],[9.580161,47.31211],[9.587146,47.31885],[9.598429,47.34853],[9.623682,47.36836],[9.64974,47.37],[9.668545,47.37909],[9.670188,47.38933],[9.650585,47.40376],[9.643626,47.43845],[9.652597,47.44515],[9.657001,47.45192],[9.642144,47.45491],[9.622475,47.45612],[9.614635,47.46217],[9.609683,47.46933],[9.604731,47.46031],[9.593577,47.46229],[9.581624,47.4789],[9.557769,47.49771],[9.552611,47.54679],[9.733247,47.53553],[9.734075,47.54719],[9.740522,47.55778],[9.747315,47.57102],[9.761369,47.58736],[9.775602,47.59688],[9.788018,47.59533],[9.806501,47.59848],[9.827778,47.58678],[9.828852,47.57692],[9.828637,47.56039],[9.823188,47.5504],[9.852278,47.54241],[9.871835,47.5324],[9.874199,47.54415],[9.879787,47.54966],[9.906651,47.54603],[9.92191,47.53356],[9.969675,47.5492],[10.00798,47.48769],[10.04269,47.49132],[10.09487,47.46272],[10.11286,47.42786],[10.08323,47.40833],[10.09866,47.37182],[10.17924,47.39571],[10.24739,47.38713],[10.20708,47.27987],[10.33014,47.31402],[10.41269,47.39916],[10.46696,47.43529],[10.4619,47.47773],[10.44007,47.48312],[10.42832,47.5024],[10.45098,47.55427],[10.43042,47.56758],[10.42781,47.57908],[10.43387,47.5853],[10.47398,47.58865],[10.48562,47.58565],[10.47616,47.5693],[10.45848,47.55557],[10.56881,47.53863],[10.57848,47.55658],[10.59567,47.57126],[10.69193,47.55979],[10.7934,47.52393],[10.85277,47.53572],[10.89233,47.53786],[10.92909,47.51494],[10.87536,47.48709],[10.91397,47.49077],[10.94126,47.48226],[10.9379,47.46921],[10.99183,47.42552],[10.9754,47.40061],[11.10775,47.40086],[11.11877,47.41293],[11.2043,47.43636],[11.25152,47.43601],[11.25755,47.42774],[11.23473,47.40335],[11.27503,47.40022],[11.28848,47.42908],[11.33281,47.4502],[11.40736,47.45225],[11.37881,47.47245],[11.40568,47.49878],[11.44462,47.52157],[11.53158,47.5124],[11.57358,47.52168],[11.58029,47.55048],[11.60514,47.58288],[11.63478,47.59578],[11.8439,47.59035],[11.85498,47.60462],[11.91106,47.61458],[12.00811,47.62635],[12.02423,47.6182],[12.06318,47.62046],[12.13068,47.60915],[12.18062,47.61739],[12.18371,47.60597],[12.20403,47.60835],[12.20249,47.62557],[12.18809,47.65337],[12.16617,47.68102],[12.15913,47.70162],[12.25269,47.74609],[12.27644,47.74362],[12.25773,47.69616],[12.44185,47.69983],[12.46313,47.66065],[12.51121,47.6268],[12.60235,47.67521],[12.68955,47.68619],[12.78431,47.68007],[12.83323,47.61079],[12.78997,47.57537],[13.01176,47.47301],[13.02773,47.53297],[13.03751,47.58266],[13.08558,47.62884],[13.07218,47.68561],[13.01674,47.719],[12.99187,47.70445],[12.92438,47.70807],[12.901,47.72516],[12.91707,47.7445],[12.92936,47.7459],[12.93365,47.75791],[12.94205,47.76958],[12.92481,47.76906],[12.9362,47.78495],[12.96121,47.7988],[12.98176,47.8271],[13.0023,47.84879],[12.96608,47.89415],[12.9449,47.91864],[12.93717,47.93785],[12.91821,47.93843],[12.86774,47.96234],[12.84954,48.01266],[12.75702,48.07246],[12.74356,48.0972],[12.74938,48.12599],[12.7668,48.13047],[12.78508,48.12497],[12.79186,48.13333],[12.79727,48.14702],[12.81289,48.15286],[12.82551,48.15349],[12.83169,48.15681],[12.83383,48.16047],[12.83358,48.16506],[12.83778,48.16797],[12.84499,48.16677],[12.8652,48.20303],[12.9523,48.21282],[13.01211,48.2586],[13.03356,48.2624],[13.07298,48.27816],[13.17529,48.29771],[13.27341,48.30225],[13.33952,48.33784],[13.41322,48.39928],[13.43693,48.43378],[13.4251,48.45659],[13.43527,48.47611],[13.45398,48.5112],[13.44325,48.52296],[13.44009,48.54407],[13.43569,48.55155],[13.43651,48.55811],[13.45109,48.56503],[13.46416,48.55574],[13.47214,48.55729],[13.47269,48.56284],[13.47888,48.56575],[13.4874,48.56412],[13.49061,48.57059],[13.50211,48.57774],[13.4991,48.58359],[13.51053,48.59392],[13.52759,48.58871],[13.57561,48.56161],[13.58535,48.57094],[13.60348,48.57072],[13.62631,48.5565],[13.65437,48.55002],[13.70836,48.51933],[13.72544,48.51595],[13.73176,48.52604],[13.74552,48.53382],[13.74116,48.54183],[13.74385,48.55583],[13.75761,48.56828],[13.7697,48.55827],[13.79933,48.57673],[13.79791,48.59782],[13.8194,48.6218],[13.81,48.64954],[13.81403,48.67327],[13.79246,48.71483],[13.8147,48.73577],[13.81772,48.75569],[13.83754,48.77495],[13.86474,48.77473],[13.89081,48.7612],[14.00913,48.70763],[14.06286,48.67505],[14.05969,48.65359],[14.01788,48.63921],[14.05749,48.62535],[14.11155,48.59316],[14.12834,48.60049],[14.19248,48.59471],[14.2724,48.58272],[14.32815,48.56516],[14.33285,48.55472],[14.35626,48.57654],[14.3902,48.57679],[14.38147,48.59588],[14.42922,48.59427],[14.44911,48.62737],[14.43659,48.64515],[14.4697,48.65237],[14.56203,48.61427],[14.6104,48.63486],[14.69151,48.58724],[14.70828,48.651],[14.72246,48.69528],[14.75577,48.71117],[14.79295,48.73173],[14.80595,48.78141],[14.83099,48.78769],[14.87763,48.78344],[14.95677,48.76151],[14.97563,48.77254],[14.97477,48.77976],[14.94724,48.79161],[14.96848,48.84614],[14.97335,48.96965],[14.99015,49.02403],[15.05992,49.01914],[15.16145,48.99495],[15.18257,48.95889],[15.25275,48.96449],[15.27767,48.99806],[15.3708,48.98343],[15.46918,48.95501],[15.5774,48.90072],[15.61741,48.90201],[15.74858,48.85715],[15.76957,48.87743],[15.84434,48.87959],[15.96303,48.82584],[15.96205,48.802]]]]}}
