{"type":"Feature","properties":{"code":"BA","source":"geofabrik index-v1"},"geometry":{"type":"MultiPolygon","coordinates":[[[[17.43075,43.17789],[17.42449,43.18759],[17.42706,43.21737],[17.34109,43.25185],[17.31488,43.28982],[17.29214,43.31956],[17.26416,43.36488],[17.24699,43.40467],[17.27257,43.42787],[17.28415,43.46039],[17.2772,43.46768],[17.22356,43.49733],[17.17548,43.48934],[17.14992,43.49067],[17.12159,43.51619],[17.01662,43.5646],[16.961,43.61781],[16.92925,43.63396],[16.85715,43.70263],[16.74076,43.77109],[16.43108,44.02763],[16.31676,44.11335],[16.25951,44.17577],[16.20981,44.20928],[16.16844,44.20313],[16.16192,44.21642],[16.20346,44.22651],[16.18681,44.2693],[16.18389,44.30653],[16.20552,44.3511],[16.12965,44.37626],[16.12278,44.39491],[16.13119,44.47826],[16.01377,44.56149],[16.0124,44.589],[16.04502,44.6143],[15.90614,44.72442],[15.82546,44.70478],[15.77602,44.74625],[15.7156,44.82179],[15.75371,44.8813],[15.73311,44.9354],[15.73894,44.9699],[15.77516,44.97816],[15.73774,45.06224],[15.781,45.11666],[15.758,45.16352],[15.7731,45.18627],[15.80091,45.20925],[15.84126,45.22872],[15.92211,45.23452],[15.97824,45.23332],[16.01789,45.21893],[16.0324,45.20121],[16.05042,45.17901],[16.08244,45.14161],[16.25118,45.0204],[16.26766,45.01931],[16.30277,45.00404],[16.35186,45.00796],[16.35381,45.03298],[16.37375,45.0526],[16.38516,45.07025],[16.38388,45.08255],[16.39323,45.11345],[16.40422,45.12048],[16.46421,45.14936],[16.47254,45.16994],[16.47091,45.18343],[16.4831,45.19226],[16.48988,45.21131],[16.50988,45.22304],[16.52679,45.22736],[16.53515,45.22809],[16.54438,45.22591],[16.54914,45.22268],[16.56408,45.2244],[16.59743,45.23271],[16.6212,45.22431],[16.64566,45.21077],[16.69999,45.20036],[16.72714,45.20913],[16.75527,45.20381],[16.77758,45.19341],[16.81269,45.18591],[16.83586,45.1896],[16.84153,45.19928],[16.8296,45.2179],[16.83981,45.23471],[16.88418,45.26003],[16.89199,45.25954],[16.9059,45.25507],[16.91491,45.26728],[16.91637,45.27259],[16.92367,45.27803],[16.93697,45.27772],[16.9519,45.26021],[17.02495,45.23694],[17.03997,45.22667],[17.06743,45.19825],[17.1361,45.16836],[17.18107,45.14936],[17.20416,45.15108],[17.22073,45.14694],[17.23369,45.14803],[17.24257,45.14682],[17.24755,45.14863],[17.25437,45.15617],[17.26021,45.17502],[17.27128,45.19238],[17.31214,45.1772],[17.33368,45.16515],[17.33316,45.15226],[17.35419,45.14125],[17.41427,45.13707],[17.43874,45.16189],[17.45238,45.16159],[17.45496,45.15662],[17.45727,45.14694],[17.45693,45.1404],[17.49118,45.13858],[17.50727,45.11477],[17.51399,45.10948],[17.5294,45.10986],[17.54239,45.13394],[17.5837,45.11648],[17.61263,45.11606],[17.65606,45.13683],[17.67271,45.13549],[17.71597,45.11491],[17.73854,45.09958],[17.78506,45.08522],[17.84454,45.04703],[17.86197,45.0466],[17.90325,45.06467],[17.92737,45.08419],[17.92497,45.10648],[17.93767,45.11363],[17.95956,45.11491],[17.97389,45.13446],[17.98307,45.14536],[17.99767,45.15275],[18.00874,45.1539],[18.02247,45.15008],[18.03552,45.13822],[18.05586,45.14536],[18.06839,45.14476],[18.07629,45.1384],[18.11525,45.08546],[18.2095,45.09291],[18.20177,45.12344],[18.24245,45.14222],[18.2646,45.14197],[18.27782,45.13598],[18.28614,45.12054],[18.31215,45.11666],[18.33069,45.10576],[18.41549,45.11291],[18.4318,45.10903],[18.4627,45.07764],[18.47368,45.06582],[18.48591,45.06249],[18.49287,45.06328],[18.50673,45.06018],[18.53909,45.06794],[18.52857,45.08604],[18.52801,45.08979],[18.53947,45.0964],[18.62818,45.09788],[18.63929,45.09201],[18.67607,45.098],[18.68955,45.08243],[18.6892,45.07522],[18.68491,45.07091],[18.67049,45.06376],[18.71684,45.03914],[18.74027,45.01785],[18.79752,44.99522],[18.79967,44.99],[18.81134,44.932],[18.7686,44.93151],[18.78164,44.90501],[18.85025,44.86171],[18.97098,44.85441],[19.05235,44.86633],[19.17097,44.92385],[19.17955,44.92543],[19.24976,44.91692],[19.29543,44.91218],[19.31414,44.91012],[19.36066,44.89297],[19.37868,44.88567],[19.37954,44.85417],[19.35156,44.7889],[19.34812,44.74222],[19.33439,44.72259],[19.30916,44.68965],[19.28461,44.66035],[19.25921,44.63287],[19.24221,44.61485],[19.22642,44.59163],[19.22067,44.57922],[19.21251,44.57298],[19.18616,44.57451],[19.18385,44.56485],[19.19629,44.55323],[19.19071,44.54485],[19.18136,44.53941],[19.17397,44.52399],[19.16247,44.52025],[19.13956,44.52319],[19.13011,44.51928],[19.12737,44.50973],[19.13484,44.4864],[19.14187,44.47391],[19.1508,44.43801],[19.14951,44.42728],[19.14857,44.41257],[19.13166,44.40626],[19.11385,44.3989],[19.10917,44.39408],[19.10765,44.3822],[19.10368,44.37481],[19.10338,44.37117],[19.1066,44.36867],[19.1102,44.37044],[19.12033,44.36908],[19.12248,44.36503],[19.11484,44.35829],[19.13158,44.3427],[19.13956,44.33932],[19.13595,44.31445],[19.14737,44.31267],[19.16024,44.30045],[19.17518,44.28712],[19.18427,44.28638],[19.19972,44.29283],[19.20736,44.2932],[19.21637,44.29074],[19.22041,44.28613],[19.2235,44.27194],[19.23328,44.26456],[19.24599,44.26364],[19.26367,44.26887],[19.27972,44.27821],[19.29972,44.27175],[19.31285,44.27428],[19.32332,44.27421],[19.32959,44.26942],[19.33147,44.25147],[19.34255,44.24483],[19.35104,44.23229],[19.34658,44.22011],[19.35662,44.21414],[19.36152,44.20737],[19.3574,44.19956],[19.36083,44.18522],[19.37937,44.18307],[19.41027,44.17075],[19.42563,44.14828],[19.44606,44.13535],[19.45172,44.14261],[19.46958,44.1513],[19.47464,44.15148],[19.48485,44.14545],[19.48425,44.13799],[19.4737,44.12918],[19.47464,44.11896],[19.49498,44.11631],[19.51163,44.08413],[19.54794,44.0755],[19.55961,44.07186],[19.56674,44.06243],[19.57266,44.04935],[19.57961,44.0504],[19.58073,44.06785],[19.58262,44.07137],[19.58777,44.07402],[19.59995,44.07217],[19.62639,44.05225],[19.62527,44.04694],[19.61566,44.03534],[19.62476,44.02072],[19.62287,44.0156],[19.61982,44.01328],[19.59137,44.00245],[19.56579,43.99849],[19.56965,43.98843],[19.56854,43.98349],[19.54974,43.97849],[19.53875,43.97064],[19.52966,43.95575],[19.52485,43.9547],[19.48443,43.95433],[19.44649,43.95835],[19.4349,43.95724],[19.42237,43.95785],[19.40495,43.96434],[19.39301,43.95841],[19.37482,43.96144],[19.34898,43.97935],[19.33173,43.98164],[19.24221,44.00417],[19.27139,43.94661],[19.37628,43.83688],[19.40117,43.80146],[19.42383,43.79923],[19.46777,43.76514],[19.52219,43.71491],[19.53369,43.6675],[19.53086,43.64875],[19.50125,43.6165],[19.4955,43.60146],[19.51382,43.58633],[19.50073,43.57666],[19.48236,43.56932],[19.43069,43.57803],[19.43138,43.55962],[19.42829,43.54531],[19.41456,43.53598],[19.39259,43.5534],[19.37645,43.60265],[19.36834,43.60566],[19.33791,43.5863],[19.26281,43.58748],[19.25406,43.5249],[19.15552,43.531],[19.12325,43.51694],[19.04085,43.49826],[19.03433,43.5269],[19.00961,43.53946],[18.96309,43.51495],[18.96601,43.4599],[19.01356,43.45192],[19.04566,43.39769],[19.08857,43.31881],[19.08239,43.2972],[19.00703,43.23983],[18.94455,43.29532],[18.94429,43.3303],[18.91202,43.35889],[18.89537,43.35321],[18.88327,43.3552],[18.84825,43.34828],[18.85631,43.32355],[18.70045,43.25521],[18.72379,43.23095],[18.65891,43.14734],[18.66714,43.03151],[18.52364,43.01118],[18.49274,42.94687],[18.51231,42.88666],[18.49548,42.86313],[18.48072,42.84501],[18.47918,42.75924],[18.57204,42.72104],[18.55248,42.67638],[18.57256,42.65909],[18.57857,42.64305],[18.55823,42.57925],[18.54415,42.57236],[18.50321,42.585],[18.4742,42.56206],[18.4463,42.56023],[18.44257,42.55482],[18.43772,42.55239],[18.34803,42.61312],[18.28983,42.61021],[18.24778,42.60023],[18.22117,42.6183],[18.1901,42.65366],[18.15508,42.65214],[18.13877,42.67701],[18.10616,42.6837],[18.06976,42.7218],[17.89012,42.80856],[17.69863,42.91772],[17.64241,42.88056],[17.6098,42.89691],[17.53349,42.92765],[17.54757,42.94109],[17.58379,42.94185],[17.70378,42.97953],[17.68378,43.01001],[17.66117,43.04731],[17.65679,43.05876],[17.64799,43.07415],[17.63851,43.08851],[17.61804,43.0986],[17.56087,43.12473],[17.4741,43.16124],[17.43075,43.17789]]]]}}
