{"type":"Feature","properties":{"code":"BE","source":"geofabrik index-v1"},"geometry":{"type":"MultiPolygon","coordinates":[[[[6.244869,50.59016],[6.236737,50.56567],[6.225772,50.55462],[6.198564,50.53644],[6.224098,50.50142],[6.288643,50.50851],[6.352672,50.4893],[6.342716,50.46308],[6.374988,50.45543],[6.379623,50.43991],[6.374255,50.40746],[6.3482,50.38086],[6.363745,50.37076],[6.371298,50.36003],[6.382885,50.35576],[6.400738,50.34606],[6.410265,50.33593],[6.407385,50.32272],[6.385116,50.31949],[6.363487,50.30332],[6.330325,50.31816],[6.312675,50.31872],[6.294222,50.27744],[6.280231,50.26575],[6.23555,50.2601],[6.209593,50.24956],[6.201696,50.23853],[6.193628,50.23535],[6.186333,50.23634],[6.17569,50.22041],[6.190538,50.20531],[6.194229,50.18146],[6.185388,50.17706],[6.160583,50.17102],[6.144104,50.16832],[6.148996,50.16156],[6.145563,50.15639],[6.154661,50.15034],[6.156721,50.13995],[6.138353,50.12867],[6.130457,50.12872],[6.110102,50.1359],[6.113119,50.15573],[6.117926,50.16293],[6.085719,50.17104],[6.081791,50.17041],[6.082306,50.16211],[6.079988,50.15595],[6.063766,50.15199],[6.044025,50.15634],[6.027031,50.16425],[6.023941,50.18124],[6.002998,50.17497],[5.96652,50.17173],[5.968838,50.15469],[5.962231,50.13077],[5.8988,50.11199],[5.896912,50.10164],[5.887206,50.07697],[5.861339,50.06743],[5.872879,50.04562],[5.862064,50.02875],[5.856886,50.02329],[5.823526,50.01066],[5.825243,49.99985],[5.841542,49.98969],[5.839001,49.97858],[5.807457,49.96171],[5.788675,49.95976],[5.764791,49.91506],[5.738983,49.89767],[5.776663,49.88656],[5.784988,49.87937],[5.785932,49.87168],[5.775633,49.86615],[5.764046,49.86648],[5.760269,49.84651],[5.744219,49.83472],[5.751512,49.81985],[5.754734,49.79514],[5.7909,49.79765],[5.811767,49.7673],[5.835444,49.74713],[5.827023,49.72616],[5.86996,49.72777],[5.888166,49.70952],[5.863722,49.68213],[5.902748,49.66854],[5.909314,49.66593],[5.911589,49.66268],[5.904336,49.65129],[5.908763,49.63876],[5.898757,49.63331],[5.891168,49.63469],[5.877771,49.60771],[5.84979,49.59575],[5.87142,49.59057],[5.874939,49.5839],[5.873737,49.57382],[5.842757,49.553],[5.818583,49.5461],[5.795039,49.55029],[5.760972,49.56079],[5.758552,49.53847],[5.70508,49.53813],[5.681133,49.54498],[5.660276,49.55139],[5.641479,49.54548],[5.624142,49.51863],[5.608864,49.50281],[5.592384,49.51763],[5.55788,49.52565],[5.543289,49.51351],[5.467071,49.49489],[5.445442,49.5173],[5.462133,49.53677],[5.440292,49.55038],[5.413856,49.60281],[5.354461,49.62584],[5.3409,49.61494],[5.305538,49.60882],[5.302603,49.63608],[5.325346,49.6575],[5.272236,49.68862],[5.24374,49.68318],[5.163574,49.69206],[5.125359,49.71241],[5.069142,49.75946],[4.954762,49.79197],[4.905886,49.78055],[4.848269,49.78972],[4.865994,49.81918],[4.842659,49.86913],[4.856589,49.86973],[4.879606,49.91078],[4.788267,49.95679],[4.789013,49.9805],[4.818706,50.06667],[4.836919,50.09354],[4.877601,50.13223],[4.877417,50.15095],[4.831689,50.1526],[4.824455,50.15967],[4.765714,50.13436],[4.75217,50.11158],[4.708619,50.09446],[4.695293,49.99521],[4.630736,49.98584],[4.569764,49.96912],[4.541988,49.9669],[4.525468,49.94822],[4.445882,49.93656],[4.428736,49.94156],[4.349205,49.95202],[4.193687,49.95401],[4.137043,49.97691],[4.159958,49.99544],[4.136835,50.00786],[4.132723,50.01973],[4.161737,50.05032],[4.174584,50.04772],[4.228574,50.06873],[4.195285,50.10571],[4.197636,50.13411],[4.15448,50.12716],[4.136559,50.12909],[4.125684,50.13511],[4.156608,50.19514],[4.148197,50.21349],[4.158668,50.21596],[4.21669,50.25906],[4.208708,50.27047],[4.176521,50.27464],[4.165672,50.28779],[4.154892,50.27908],[4.169374,50.26848],[4.168511,50.25626],[4.135151,50.25632],[4.132282,50.26754],[4.120989,50.27393],[4.12219,50.29707],[4.109573,50.30135],[4.098673,50.31226],[4.079189,50.30842],[4.066572,50.32568],[4.035673,50.34311],[4.027375,50.35491],[3.986113,50.34137],[3.964822,50.34012],[3.96355,50.34742],[3.902234,50.3257],[3.873453,50.32749],[3.844271,50.35291],[3.812084,50.34212],[3.807707,50.35061],[3.740244,50.34623],[3.731754,50.30705],[3.70986,50.30239],[3.683081,50.31982],[3.664284,50.34743],[3.655872,50.37117],[3.668446,50.38592],[3.673124,50.40264],[3.667765,50.42262],[3.667432,50.43635],[3.657537,50.44591],[3.610639,50.49356],[3.581618,50.48917],[3.569956,50.49836],[3.498802,50.48607],[3.495197,50.4994],[3.517084,50.52047],[3.474199,50.53204],[3.447394,50.50415],[3.438721,50.50682],[3.374048,50.48993],[3.359499,50.50387],[3.328342,50.50731],[3.30519,50.51928],[3.287337,50.52575],[3.275486,50.53872],[3.275213,50.59196],[3.243284,50.64037],[3.239551,50.65866],[3.240188,50.67023],[3.260965,50.67707],[3.251996,50.69059],[3.259249,50.6932],[3.24518,50.71225],[3.238006,50.71097],[3.220282,50.70961],[3.205647,50.71111],[3.189527,50.72603],[3.199253,50.73521],[3.187183,50.7403],[3.182688,50.75033],[3.170886,50.75869],[3.145094,50.78931],[3.127842,50.78611],[3.124859,50.78642],[3.112263,50.79411],[3.106727,50.78209],[3.089476,50.77292],[3.081279,50.77213],[3.058834,50.78027],[3.039951,50.77446],[3.03691,50.77003],[3.028235,50.76857],[3.019455,50.77263],[2.995358,50.76043],[2.974576,50.7504],[2.939619,50.74441],[2.946021,50.73167],[2.933221,50.72765],[2.930131,50.70915],[2.923179,50.70246],[2.911677,50.7035],[2.911162,50.69404],[2.907423,50.69209],[2.899446,50.69265],[2.885456,50.706],[2.879491,50.70244],[2.868545,50.70242],[2.846455,50.72043],[2.817049,50.7145],[2.790012,50.72461],[2.765894,50.75378],[2.755766,50.7622],[2.761173,50.77099],[2.737913,50.77989],[2.722378,50.79563],[2.718344,50.8125],[2.679377,50.81288],[2.634573,50.81244],[2.596078,50.8499],[2.603931,50.86058],[2.602901,50.90498],[2.587108,50.91754],[2.624792,50.94743],[2.601356,50.98815],[2.571949,51.00151],[2.557543,51.07103],[2.340725,51.31453],[3.01078,51.59839],[3.330574,51.43561],[3.389281,51.33628],[3.359222,51.31491],[3.378897,51.30251],[3.38548,51.27571],[3.422413,51.25826],[3.43091,51.24784],[3.450306,51.24219],[3.527004,51.24651],[3.514331,51.28799],[3.58991,51.30625],[3.658204,51.29056],[3.752689,51.27067],[3.798008,51.25961],[3.790026,51.24572],[3.788738,51.22708],[3.790798,51.21516],[3.860321,51.21339],[3.888903,51.22355],[3.894224,51.21871],[3.88607,51.20086],[3.926465,51.22083],[3.950872,51.21823],[4.015511,51.24825],[4.055103,51.24402],[4.165098,51.2938],[4.228344,51.34384],[4.216947,51.37435],[4.300826,51.37708],[4.334836,51.37783],[4.340844,51.36029],[4.386377,51.35517],[4.397964,51.35688],[4.424572,51.36642],[4.423087,51.37577],[4.381465,51.41805],[4.395776,51.44243],[4.378352,51.44647],[4.382343,51.45165],[4.476499,51.4786],[4.538641,51.48272],[4.548855,51.47336],[4.530659,51.44951],[4.535808,51.42367],[4.574346,51.43352],[4.639578,51.42485],[4.651422,51.42726],[4.668846,51.42677],[4.665842,51.44454],[4.691677,51.45358],[4.702578,51.46727],[4.728842,51.48438],[4.745407,51.48956],[4.749452,51.49905],[4.758274,51.50302],[4.776604,51.50625],[4.816658,51.49552],[4.82318,51.48441],[4.84355,51.48177],[4.845286,51.45817],[4.83716,51.44759],[4.82521,51.44674],[4.831035,51.42488],[4.876385,51.41762],[4.929085,51.457],[4.957668,51.4548],[4.941342,51.42928],[4.937752,51.40655],[4.960068,51.42194],[4.999545,51.44324],[5.008156,51.47134],[5.029678,51.48839],[5.04093,51.4876],[5.047218,51.47217],[5.080323,51.47226],[5.106434,51.43135],[5.072699,51.39365],[5.116623,51.36118],[5.132251,51.3472],[5.135807,51.31594],[5.155917,51.31278],[5.200394,51.32325],[5.243256,51.3057],[5.227423,51.26844],[5.237997,51.26255],[5.262161,51.26778],[5.334999,51.26474],[5.344928,51.27681],[5.415511,51.2639],[5.440655,51.28246],[5.482146,51.30064],[5.516281,51.29599],[5.558165,51.26613],[5.562835,51.22287],[5.652534,51.19899],[5.661306,51.18704],[5.710316,51.18623],[5.746193,51.19086],[5.78001,51.18031],[5.78104,51.15825],[5.825937,51.16827],[5.857091,51.14477],[5.84168,51.13078],[5.81435,51.11524],[5.835548,51.10842],[5.833797,51.09577],[5.822909,51.09124],[5.811902,51.0943],[5.798156,51.09023],[5.806117,51.07955],[5.800309,51.05826],[5.777309,51.05804],[5.760274,51.03223],[5.773833,51.02859],[5.778288,51.02399],[5.767586,51.00526],[5.768464,50.9985],[5.751171,50.98253],[5.721741,50.96128],[5.73469,50.95683],[5.742597,50.96113],[5.74604,50.96209],[5.75542,50.95986],[5.760698,50.95259],[5.732234,50.9221],[5.724907,50.90823],[5.702848,50.90563],[5.697355,50.89805],[5.680514,50.88068],[5.64516,50.86533],[5.643369,50.84974],[5.640493,50.84701],[5.645764,50.83961],[5.644913,50.83768],[5.650921,50.83432],[5.655682,50.82591],[5.702959,50.80821],[5.702588,50.78396],[5.692037,50.75629],[5.721802,50.76538],[5.737618,50.75842],[5.739122,50.76522],[5.764757,50.7837],[5.777479,50.78344],[5.792696,50.77138],[5.80759,50.75681],[5.845249,50.76609],[5.849009,50.75975],[5.886669,50.77108],[5.896888,50.75501],[5.958963,50.76308],[6.020014,50.75521],[6.042083,50.74557],[6.039528,50.7295],[6.116234,50.72364],[6.149104,50.68465],[6.16312,50.67169],[6.166184,50.66242],[6.194916,50.66546],[6.197576,50.65787],[6.187105,50.65118],[6.184359,50.64481],[6.185796,50.6414],[6.191676,50.64003],[6.197684,50.6415],[6.202426,50.63977],[6.223154,50.64143],[6.227102,50.65096],[6.266499,50.64285],[6.273751,50.63182],[6.275189,50.62922],[6.270018,50.62537],[6.270533,50.61914],[6.244869,50.59016]]]]}}
