{"type":"Feature","properties":{"code":"BG","source":"geofabrik index-v1"},"geometry":{"type":"MultiPolygon","coordinates":[[[[25.28508,41.22681],[25.22763,41.24011],[25.21192,41.27481],[25.11429,41.32949],[25.08173,41.32939],[25.05075,41.35531],[24.93887,41.378],[24.91141,41.39675],[24.88147,41.3833],[24.83346,41.38891],[24.82246,41.34738],[24.8035,41.33777],[24.7412,41.37487],[24.72205,41.40748],[24.65823,41.40736],[24.64531,41.42246],[24.60903,41.41645],[24.52165,41.55497],[24.48128,41.54353],[24.45227,41.51345],[24.39908,41.52808],[24.37118,41.50916],[24.34107,41.51515],[24.30578,41.50206],[24.28742,41.53921],[24.25833,41.55918],[24.18528,41.50675],[24.09649,41.53765],[24.07143,41.51691],[24.08114,41.46362],[24.05028,41.44285],[24.01478,41.44942],[23.96753,41.43011],[23.92294,41.46209],[23.89518,41.44266],[23.80589,41.42723],[23.77064,41.39239],[23.67777,41.40231],[23.6352,41.36702],[23.54782,41.38402],[23.52338,41.39473],[23.44448,41.39612],[23.40757,41.39561],[23.34045,41.35864],[23.31831,41.39561],[23.24059,41.37336],[23.22891,41.3286],[23.185,41.31083],[23.09596,41.30816],[22.92163,41.33226],[22.92275,41.34787],[22.95405,41.36575],[22.94375,41.41944],[22.96595,41.44545],[22.94965,41.49195],[22.96086,41.55783],[22.94306,41.58859],[22.94017,41.63624],[23.02043,41.71278],[23.01481,41.73877],[23.00234,41.75757],[22.95654,41.76925],[22.91819,41.85779],[22.89536,41.87134],[22.86605,41.93243],[22.85437,42.0134],[22.73562,42.03739],[22.71206,42.05621],[22.67426,42.05628],[22.52669,42.13074],[22.50467,42.14791],[22.49127,42.18708],[22.46266,42.1952],[22.43794,42.23835],[22.35129,42.31306],[22.3633,42.33212],[22.44886,42.34277],[22.47021,42.39883],[22.51084,42.40698],[22.54693,42.48295],[22.5196,42.51608],[22.42979,42.56661],[22.46122,42.67048],[22.45032,42.692],[22.48721,42.73794],[22.43333,42.8012],[22.43368,42.82972],[22.50169,42.85908],[22.53443,42.89052],[22.56114,42.88126],[22.58002,42.89967],[22.61876,42.90478],[22.67952,42.88344],[22.73989,42.89655],[22.76458,42.92673],[22.76012,42.94871],[22.77834,42.98814],[22.8404,43.011],[22.88824,43.04396],[22.91294,43.08668],[22.97334,43.11779],[22.98796,43.18691],[22.9372,43.19547],[22.89085,43.22056],[22.83928,43.27348],[22.8173,43.32372],[22.75659,43.37128],[22.67481,43.38707],[22.65044,43.41841],[22.59752,43.4263],[22.57153,43.45219],[22.52694,43.46582],[22.48076,43.55643],[22.47832,43.63977],[22.40332,43.68773],[22.34875,43.80827],[22.37913,43.87903],[22.38378,43.92943],[22.40175,43.9587],[22.40576,43.9712],[22.40593,44.00627],[22.44267,44.02084],[22.5218,44.02269],[22.53014,44.05946],[22.61639,44.06637],[22.60832,44.10509],[22.61038,44.16607],[22.64351,44.21236],[22.67767,44.21777],[22.69552,44.20817],[22.75716,44.20259],[22.92092,44.11074],[23.00256,44.10386],[23.05399,44.07579],[23.05285,44.05048],[23.01258,44.01022],[22.97207,44.00356],[22.92932,43.99862],[22.8919,43.98577],[22.85096,43.8752],[22.8664,43.84952],[22.90263,43.83651],[23.0583,43.80569],[23.13432,43.81403],[23.2659,43.85478],[23.42988,43.85908],[23.51192,43.84616],[23.618,43.80148],[23.70287,43.8147],[23.77467,43.80992],[23.85798,43.76595],[23.97714,43.75143],[24.17463,43.69136],[24.34529,43.70699],[24.40458,43.73935],[24.50449,43.76973],[24.6236,43.75097],[24.7383,43.69366],[24.81073,43.72074],[24.8806,43.71169],[24.90086,43.71392],[24.91922,43.72472],[24.95253,43.73327],[25.00025,43.73253],[25.09913,43.6896],[25.17002,43.70511],[25.25946,43.68767],[25.34589,43.63564],[25.36039,43.62756],[25.39275,43.62315],[25.48442,43.65224],[25.55924,43.65418],[25.66778,43.69759],[25.76929,43.71243],[25.80034,43.74809],[25.86816,43.7818],[25.94799,43.86226],[26.04938,43.91466],[26.09806,43.97306],[26.13841,43.99266],[26.20052,43.996],[26.37792,44.0509],[26.54915,44.06181],[26.63515,44.06206],[26.69935,44.08154],[26.76008,44.08684],[26.91509,44.14712],[27.04302,44.15044],[27.14069,44.14465],[27.19966,44.12681],[27.27293,44.1354],[27.28661,44.11027],[27.29622,44.07698],[27.35922,44.06132],[27.40213,44.01529],[27.46943,44.02516],[27.60847,44.01566],[27.64349,44.05145],[27.67748,44.0317],[27.71627,43.95946],[27.84107,43.96885],[27.91798,44.01109],[27.94922,43.98577],[27.999,43.84517],[28.23478,43.76852],[28.44944,43.74034],[29.18819,43.74437],[28.66395,41.97519],[27.97978,41.97503],[27.91309,41.96417],[27.86874,41.98855],[27.83336,41.98163],[27.8456,41.95569],[27.83904,41.93999],[27.81247,41.93396],[27.71448,41.96628],[27.59982,41.92924],[27.57805,41.89884],[27.55985,41.8965],[27.50892,41.94376],[27.44236,41.96028],[27.38716,42.0003],[27.36202,42.04627],[27.33179,42.05251],[27.28602,42.08655],[27.2353,42.09872],[27.20284,42.04725],[27.06774,42.08357],[27.02705,42.07669],[27.03289,42.06115],[27.01418,42.04139],[26.96285,41.98731],[26.86518,41.9831],[26.84192,41.96382],[26.79528,41.97917],[26.75088,41.95448],[26.66914,41.96268],[26.63412,41.9697],[26.56597,41.92514],[26.5888,41.90419],[26.58331,41.87109],[26.53919,41.82097],[26.37543,41.8179],[26.33818,41.76132],[26.33423,41.7375],[26.36204,41.71521],[26.36178,41.70656],[26.33835,41.71041],[26.30779,41.7065],[26.27312,41.71201],[26.22869,41.72871],[26.16865,41.73689],[26.11628,41.70585],[26.08097,41.70327],[26.0804,41.65557],[26.10382,41.63636],[26.14204,41.64],[26.16155,41.60967],[26.15897,41.56529],[26.18336,41.56009],[26.19286,41.5274],[26.16963,41.47895],[26.20988,41.43892],[26.17382,41.41844],[26.13442,41.34646],[26.035,41.33976],[25.98223,41.31156],[25.88708,41.29575],[25.82689,41.33352],[25.78044,41.31178],[25.72857,41.30763],[25.71274,41.28246],[25.65631,41.30282],[25.61021,41.29498],[25.568,41.30809],[25.52802,41.26882],[25.48053,41.27793],[25.28508,41.22681]]]]}}
