{"type":"Feature","properties":{"code":"BY","source":"geofabrik index-v1"},"geometry":{"type":"MultiPolygon","coordinates":[[[[30.62782,51.27781],[30.49324,51.23441],[30.13687,51.4848],[29.88762,51.43903],[29.50004,51.39065],[29.32079,51.37285],[29.14364,51.64295],[29.01009,51.57109],[28.81645,51.54377],[28.77388,51.4067],[28.67981,51.43304],[28.62625,51.57003],[28.44704,51.57046],[28.36086,51.52904],[28.21289,51.64679],[28.10234,51.56341],[27.94132,51.54804],[27.89635,51.6097],[27.84039,51.59883],[27.85892,51.54527],[27.76897,51.45957],[27.65362,51.5128],[27.7216,51.59947],[27.49706,51.58347],[27.21382,51.5984],[27.18223,51.75552],[26.95084,51.73298],[26.7905,51.75233],[26.68922,51.81668],[26.54675,51.79036],[26.45851,51.79651],[26.26831,51.86632],[26.15501,51.85614],[26.10214,51.89726],[25.97134,51.91717],[25.92911,51.91103],[25.79899,51.92479],[25.77324,51.91801],[25.70492,51.91314],[25.40932,51.91547],[25.22427,51.95569],[24.9345,51.88815],[24.73709,51.87755],[24.56234,51.88518],[24.34673,51.84956],[24.32751,51.74935],[24.27189,51.71129],[24.08237,51.61844],[23.99826,51.576],[23.87054,51.59072],[23.87913,51.63677],[23.78506,51.63592],[23.78059,51.66084],[23.71468,51.64785],[23.61752,51.6178],[23.6697,51.58411],[23.6812,51.50426],[23.67313,51.4979],[23.61494,51.50388],[23.59777,51.52519],[23.56293,51.53149],[23.55915,51.5458],[23.56499,51.56331],[23.53563,51.60192],[23.53992,51.62324],[23.53289,51.64455],[23.54851,51.69608],[23.51761,51.73532],[23.55778,51.76338],[23.62713,51.79545],[23.59417,51.83705],[23.60928,51.92204],[23.6237,51.95442],[23.67828,51.99186],[23.65219,52.01764],[23.61958,52.08584],[23.54576,52.10714],[23.48362,52.15171],[23.42337,52.16962],[23.39693,52.17604],[23.36363,52.19614],[23.19643,52.22538],[23.19111,52.23957],[23.19763,52.27583],[23.1748,52.28234],[23.21651,52.33628],[23.27763,52.39666],[23.29737,52.40567],[23.31058,52.4264],[23.35608,52.47316],[23.40671,52.51445],[23.46371,52.55078],[23.52653,52.57896],[23.63708,52.61097],[23.88531,52.68564],[23.93251,52.713],[23.92067,52.82932],[23.91277,52.90849],[23.9217,53.0185],[23.87878,53.06371],[23.86848,53.08268],[23.8829,53.11391],[23.90556,53.14945],[23.86145,53.19554],[23.85527,53.20973],[23.85235,53.22988],[23.81596,53.24334],[23.79725,53.27271],[23.76137,53.33784],[23.74626,53.37165],[23.70232,53.44155],[23.65786,53.52123],[23.62301,53.59852],[23.60121,53.66],[23.58267,53.70545],[23.57992,53.74292],[23.54319,53.77094],[23.53924,53.85303],[23.52173,53.86154],[23.50782,53.91101],[23.51109,53.958],[23.52791,53.9576],[23.63605,53.93426],[23.70953,53.94144],[23.78042,53.92304],[23.79639,53.9379],[23.84016,53.95725],[23.86385,53.95422],[23.87561,53.94497],[23.90453,53.95437],[23.90496,53.96654],[23.91234,53.97118],[23.9641,53.95568],[23.98659,53.92567],[24.11259,53.95992],[24.20099,53.97245],[24.31329,53.92936],[24.43634,53.90616],[24.50775,53.96538],[24.62242,54.01362],[24.70533,54.02159],[24.70911,54.00989],[24.69521,53.96992],[24.70997,53.96719],[24.75391,54.00151],[24.83786,54.03086],[24.81863,54.04326],[24.76542,54.11185],[24.77348,54.12161],[24.79923,54.1201],[24.81571,54.13197],[24.80833,54.14595],[24.83391,54.15258],[24.97003,54.1754],[25.01003,54.14364],[25.06102,54.13901],[25.10599,54.16042],[25.15972,54.20071],[25.21345,54.2574],[25.26752,54.27715],[25.39867,54.27986],[25.41035,54.29018],[25.44468,54.3002],[25.50957,54.31512],[25.56639,54.27615],[25.59591,54.22691],[25.53394,54.15932],[25.65823,54.14122],[25.702,54.17218],[25.77393,54.16414],[25.76706,54.18404],[25.7729,54.19438],[25.74148,54.22139],[25.77427,54.23413],[25.69393,54.27986],[25.69891,54.2998],[25.54716,54.31332],[25.52725,54.34035],[25.62098,54.4372],[25.59814,54.46206],[25.63419,54.47692],[25.65617,54.51122],[25.67865,54.53732],[25.75161,54.57495],[25.74234,54.63162],[25.72792,54.68167],[25.74217,54.75415],[25.72929,54.80148],[25.74955,54.82611],[25.7789,54.85734],[25.80603,54.86989],[25.81255,54.87947],[25.84877,54.89843],[25.85203,54.92872],[25.88259,54.93799],[25.98593,54.96027],[26.11502,54.99042],[26.20462,54.99889],[26.20548,55.01297],[26.22677,55.02911],[26.23535,55.04917],[26.22522,55.10784],[26.32187,55.14788],[26.35878,55.15249],[26.4525,55.14533],[26.51773,55.1623],[26.59326,55.15514],[26.653,55.16298],[26.67292,55.19857],[26.74201,55.2554],[26.79617,55.27472],[26.8269,55.2796],[26.82947,55.30609],[26.81265,55.30873],[26.80098,55.31596],[26.71909,55.32123],[26.63764,55.32211],[26.60846,55.31879],[26.58786,55.3184],[26.55456,55.32118],[26.49623,55.33351],[26.44735,55.3394],[26.43602,55.34906],[26.47379,55.37121],[26.54743,55.39072],[26.54417,55.40865],[26.53456,55.43992],[26.55035,55.46669],[26.53421,55.48498],[26.52151,55.51017],[26.53112,55.5262],[26.62399,55.5734],[26.62914,55.59697],[26.62691,55.6802],[26.64322,55.70574],[26.65455,55.70961],[26.78226,55.69655],[26.86586,55.71435],[26.87222,55.73484],[26.92474,55.79675],[27.01246,55.83147],[27.13108,55.85383],[27.15958,55.85325],[27.29227,55.79424],[27.36643,55.81749],[27.42376,55.79926],[27.44213,55.79539],[27.4696,55.79568],[27.57019,55.78652],[27.60933,55.78864],[27.63542,55.84805],[27.61997,55.89283],[27.64967,55.93064],[27.74837,55.98119],[27.8052,56.03734],[27.90579,56.06265],[27.93703,56.09311],[27.96673,56.12173],[28.08912,56.14603],[28.12414,56.17385],[28.15384,56.17308],[28.33614,56.06648],[28.37253,56.11302],[28.54557,56.11934],[28.69903,56.10613],[28.67672,56.07549],[28.73749,55.97418],[29.07944,56.04232],[29.16698,56.02928],[29.45641,55.96323],[29.48696,55.92035],[29.40319,55.84043],[29.36954,55.76653],[29.52541,55.7186],[29.61296,55.78237],[29.74857,55.80611],[29.81312,55.79839],[29.85981,55.85142],[29.89483,55.86568],[29.95096,55.85672],[29.97422,55.8731],[29.99748,55.87156],[30.0531,55.85759],[30.11352,55.83851],[30.15644,55.88301],[30.28158,55.87107],[30.3408,55.83571],[30.48243,55.81488],[30.52139,55.7981],[30.53015,55.75397],[30.58886,55.75591],[30.63538,55.73223],[30.73391,55.66423],[30.77579,55.59396],[30.84738,55.6374],[30.93664,55.62266],[30.96394,55.54165],[30.96256,55.49733],[30.93784,55.38594],[30.84892,55.30433],[30.94471,55.23235],[31.04118,55.11176],[31.02573,55.02783],[30.94265,54.9514],[30.87055,54.92675],[30.77047,54.81374],[31.20598,54.66668],[31.2204,54.62616],[31.11122,54.50354],[31.24718,54.47343],[31.33575,54.33615],[31.32683,54.2576],[31.65985,54.14997],[31.91597,54.09001],[31.89743,53.94639],[31.81091,53.81241],[31.9194,53.79132],[31.9891,53.80876],[32.12814,53.82498],[32.21603,53.80085],[32.46563,53.741],[32.51301,53.70321],[32.50339,53.67963],[32.4361,53.60045],[32.52228,53.54745],[32.65308,53.50581],[32.7602,53.46128],[32.76947,53.42488],[32.7396,53.33087],[32.58202,53.288],[32.41688,53.18464],[32.23869,53.09609],[32.09553,53.07175],[31.93382,53.07876],[31.81778,53.11051],[31.69212,53.20562],[31.54587,53.18649],[31.43223,53.20254],[31.39206,53.09237],[31.30279,53.01065],[31.35807,52.98999],[31.54072,52.8625],[31.61316,52.7658],[31.57745,52.59909],[31.6832,52.56112],[31.6135,52.46856],[31.64303,52.39802],[31.62758,52.33324],[31.71856,52.26606],[31.78585,52.18783],[31.79993,52.11241],[31.71959,52.09237],[31.39995,52.12105],[31.30451,52.05038],[31.21971,52.03327],[31.20358,52.06832],[31.15654,52.07613],[31.1174,52.09027],[30.96668,52.07233],[30.9454,52.01363],[30.89493,51.96796],[30.80635,51.89493],[30.7037,51.83196],[30.62748,51.70767],[30.58216,51.6438],[30.59898,51.5442],[30.67383,51.36428],[30.65735,51.33619],[30.62782,51.27781]]]]}}
