{"type":"Feature","properties":{"code":"CH","source":"geofabrik index-v1"},"geometry":{"type":"MultiPolygon","coordinates":[[[[9.016428,45.81642],[8.99085,45.82114],[8.994198,45.83209],[8.986645,45.83669],[8.968964,45.82988],[8.951025,45.84154],[8.930597,45.83311],[8.910245,45.82821],[8.912056,45.84451],[8.934444,45.86567],[8.927082,45.88968],[8.920383,45.89525],[8.920555,45.90446],[8.904762,45.91641],[8.888969,45.93348],[8.894119,45.94506],[8.893829,45.95609],[8.877854,45.95554],[8.874378,45.95843],[8.867683,45.95995],[8.858457,45.96663],[8.844852,45.97528],[8.830543,45.98497],[8.78402,45.98766],[8.790281,46.00796],[8.850854,46.07359],[8.801815,46.09266],[8.784613,46.09187],[8.758843,46.099],[8.743103,46.11908],[8.715844,46.09596],[8.683662,46.10073],[8.65551,46.11073],[8.647466,46.121],[8.608646,46.11966],[8.605041,46.13262],[8.58839,46.14381],[8.594055,46.15189],[8.572699,46.16316],[8.551998,46.18589],[8.539598,46.19653],[8.526249,46.2156],[8.464794,46.23187],[8.463768,46.24284],[8.442086,46.24898],[8.440966,46.25602],[8.452715,46.26615],[8.423252,46.29642],[8.44162,46.32097],[8.461189,46.33519],[8.460117,46.35435],[8.463421,46.3801],[8.456898,46.38685],[8.463592,46.41407],[8.453358,46.42235],[8.446124,46.46165],[8.409321,46.45664],[8.39498,46.45022],[8.366422,46.44917],[8.339306,46.42978],[8.295392,46.4099],[8.31921,46.40465],[8.322723,46.38665],[8.315171,46.3753],[8.269609,46.35362],[8.264953,46.34402],[8.234367,46.3344],[8.215202,46.30828],[8.205724,46.30257],[8.16627,46.29319],[8.139924,46.29972],[8.085318,46.26056],[8.112681,46.25286],[8.118654,46.24021],[8.142656,46.22856],[8.157184,46.19413],[8.169682,46.1828],[8.168449,46.17613],[8.154069,46.16256],[8.157028,46.14516],[8.145518,46.13486],[8.125478,46.13089],[8.109054,46.10719],[8.036897,46.09853],[8.026487,46.07073],[8.038624,46.04368],[8.020875,46.02554],[8.01539,46.01072],[7.992566,45.99281],[7.917933,45.99383],[7.885976,45.9697],[7.87983,45.92597],[7.863667,45.91372],[7.799129,45.91421],[7.749536,45.93763],[7.736803,45.92079],[7.720654,45.92168],[7.704959,45.93312],[7.707889,45.94787],[7.681002,45.95544],[7.664172,45.97348],[7.640698,45.96828],[7.578641,45.96809],[7.577377,45.9847],[7.549411,45.98323],[7.550099,45.9626],[7.542351,45.95184],[7.501282,45.95596],[7.475733,45.94714],[7.476746,45.93392],[7.446415,45.92959],[7.425852,45.91153],[7.387613,45.89465],[7.323472,45.90724],[7.292965,45.91802],[7.270316,45.88654],[7.21893,45.88623],[7.203583,45.86203],[7.192356,45.8567],[7.165681,45.86152],[7.155891,45.87623],[7.137706,45.87037],[7.118827,45.85658],[7.095966,45.85654],[7.088965,45.87097],[7.033597,45.92172],[7.032134,45.94941],[6.996746,45.96905],[7.018507,45.97878],[6.981983,46.00424],[6.960655,46.02862],[6.948834,46.04823],[6.933659,46.05319],[6.929143,46.06334],[6.912852,46.04912],[6.892236,46.03924],[6.865885,46.04772],[6.875309,46.06776],[6.887118,46.075],[6.879714,46.09589],[6.893169,46.11953],[6.849565,46.12388],[6.838999,46.13075],[6.814317,46.12625],[6.793889,46.13741],[6.787423,46.15311],[6.788943,46.1633],[6.808813,46.18255],[6.801101,46.2059],[6.819692,46.23346],[6.858565,46.26728],[6.856214,46.28872],[6.847315,46.28842],[6.827882,46.30007],[6.798366,46.31789],[6.783457,46.33075],[6.76778,46.35444],[6.772556,46.36553],[6.791439,46.3692],[6.803347,46.3812],[6.800108,46.38625],[6.803026,46.3946],[6.811611,46.42529],[6.423404,46.41197],[6.260833,46.35759],[6.22324,46.31356],[6.24959,46.30289],[6.25474,46.28866],[6.240406,46.28088],[6.250877,46.26374],[6.269159,46.25015],[6.298412,46.26895],[6.297269,46.25763],[6.311045,46.25691],[6.31216,46.24406],[6.296926,46.22569],[6.277742,46.21539],[6.246586,46.20354],[6.23487,46.20556],[6.216674,46.19504],[6.199293,46.1831],[6.188307,46.17823],[6.19041,46.1664],[6.176848,46.15802],[6.159553,46.15237],[6.145906,46.14437],[6.136808,46.1412],[6.128483,46.13917],[6.09724,46.14279],[6.090803,46.15076],[6.075182,46.14803],[6.052952,46.14987],[6.048574,46.14077],[6.0357,46.13274],[6.022139,46.14018],[5.989437,46.14166],[5.97476,46.13036],[5.955706,46.12733],[5.954418,46.13251],[5.964374,46.13899],[5.9624,46.14455],[5.980511,46.17478],[5.987549,46.17415],[5.992098,46.18328],[5.961885,46.19733],[5.972443,46.21672],[5.98403,46.21851],[5.991368,46.22376],[6.000724,46.22257],[6.011324,46.23163],[6.033059,46.2415],[6.043543,46.23703],[6.047502,46.2411],[6.063037,46.24712],[6.069689,46.24347],[6.087112,46.24908],[6.101575,46.23917],[6.119519,46.25151],[6.115142,46.26298],[6.100666,46.27717],[6.099477,46.28581],[6.117,46.29855],[6.117187,46.31399],[6.133261,46.33163],[6.135798,46.34083],[6.153852,46.35109],[6.166257,46.36728],[6.15799,46.37493],[6.14861,46.37473],[6.11631,46.39484],[6.104739,46.39677],[6.095271,46.40657],[6.061044,46.41535],[6.0832,46.44351],[6.07182,46.45203],[6.0702,46.467],[6.09474,46.48334],[6.110583,46.51179],[6.13659,46.53365],[6.143269,46.53144],[6.151334,46.5453],[6.108853,46.57399],[6.108283,46.57847],[6.124787,46.59239],[6.1752,46.61747],[6.197984,46.63693],[6.225741,46.65061],[6.264815,46.67814],[6.277505,46.69255],[6.350224,46.7176],[6.358786,46.72579],[6.366935,46.72628],[6.366388,46.73183],[6.38711,46.73708],[6.385733,46.74486],[6.394036,46.75111],[6.428819,46.75925],[6.449106,46.77619],[6.454212,46.78742],[6.432866,46.79901],[6.428279,46.8124],[6.437499,46.81777],[6.44062,46.83432],[6.457169,46.8526],[6.461458,46.88959],[6.433429,46.9199],[6.430797,46.93104],[6.447881,46.93846],[6.495368,46.97689],[6.505552,46.96919],[6.571352,46.98499],[6.592295,46.99455],[6.617483,46.99461],[6.638431,47.00508],[6.657711,47.02989],[6.678199,47.03859],[6.695423,47.04008],[6.707191,47.04769],[6.710661,47.05097],[6.70689,47.05498],[6.688618,47.06626],[6.702394,47.07638],[6.701027,47.08449],[6.725736,47.09504],[6.740054,47.09342],[6.743542,47.09799],[6.737729,47.10514],[6.738961,47.11207],[6.763439,47.12318],[6.801637,47.13226],[6.847801,47.15893],[6.850821,47.16227],[6.838496,47.1671],[6.838666,47.17413],[6.869327,47.18827],[6.877978,47.20305],[6.926911,47.23164],[6.939239,47.2343],[6.950066,47.2444],[6.943387,47.25381],[6.9484,47.26944],[6.937841,47.28398],[6.938784,47.28899],[6.950285,47.29506],[6.995558,47.29906],[7.006713,47.30453],[7.012973,47.3146],[7.00642,47.31936],[7.008125,47.32684],[7.044559,47.32937],[7.058083,47.3426],[7.047316,47.34647],[7.047133,47.35934],[7.016007,47.36943],[6.99733,47.36073],[6.975025,47.35726],[6.923866,47.35208],[6.903369,47.35639],[6.884576,47.3495],[6.876438,47.3514],[6.88163,47.37511],[6.893628,47.38435],[6.909573,47.38819],[6.90632,47.39629],[6.913339,47.40131],[6.911333,47.40691],[6.936466,47.40894],[6.938997,47.43573],[6.957899,47.43706],[6.969112,47.44989],[6.996087,47.45381],[6.996998,47.46395],[6.989623,47.46428],[6.983589,47.47556],[6.981256,47.49702],[7.021377,47.50745],[7.072788,47.49536],[7.111808,47.49805],[7.128109,47.50668],[7.162518,47.49304],[7.201873,47.49714],[7.205678,47.48999],[7.189606,47.48097],[7.17557,47.44593],[7.199986,47.43804],[7.230016,47.44292],[7.248631,47.4254],[7.28247,47.43806],[7.329923,47.44482],[7.355053,47.43706],[7.400167,47.43847],[7.418722,47.44804],[7.42861,47.4621],[7.443078,47.46448],[7.451224,47.4719],[7.418249,47.47877],[7.4318,47.49986],[7.463304,47.49192],[7.472194,47.48347],[7.486613,47.485],[7.506785,47.49911],[7.506732,47.50734],[7.496797,47.51437],[7.495715,47.52336],[7.504691,47.5179],[7.520144,47.51864],[7.528064,47.52797],[7.508469,47.52653],[7.49543,47.52948],[7.498255,47.54258],[7.555145,47.56753],[7.554764,47.57458],[7.565564,47.58053],[7.581601,47.57919],[7.588061,47.59264],[7.606011,47.58756],[7.608103,47.58101],[7.619034,47.58006],[7.645154,47.59991],[7.67322,47.59499],[7.682228,47.60141],[7.69642,47.60188],[7.676445,47.58697],[7.692257,47.57247],[7.686141,47.56498],[7.676654,47.56306],[7.640948,47.5586],[7.650347,47.54933],[7.662663,47.54652],[7.668242,47.53748],[7.693262,47.53366],[7.720385,47.54398],[7.788277,47.55626],[7.808246,47.57071],[7.814569,47.58656],[7.82247,47.59099],[7.841144,47.58511],[7.864151,47.58996],[7.886553,47.59071],[7.902431,47.58475],[7.91419,47.57004],[7.910239,47.56019],[7.91625,47.54965],[7.948007,47.54641],[7.951183,47.55573],[7.95908,47.56002],[7.998733,47.55811],[8.023624,47.55295],[8.060274,47.56477],[8.070145,47.56576],[8.082075,47.55933],[8.098211,47.5646],[8.10173,47.57641],[8.110142,47.58498],[8.133144,47.58527],[8.136336,47.59292],[8.149366,47.598],[8.184042,47.60738],[8.195543,47.62028],[8.20404,47.62259],[8.219919,47.61988],[8.223524,47.61531],[8.226099,47.60593],[8.231077,47.60802],[8.236227,47.61403],[8.26026,47.61722],[8.265254,47.6124],[8.281288,47.61264],[8.291759,47.61027],[8.299141,47.60668],[8.297939,47.59216],[8.301029,47.58799],[8.311672,47.58434],[8.329096,47.57184],[8.349094,47.57189],[8.381796,47.56772],[8.393297,47.57739],[8.401194,47.57826],[8.42926,47.56778],[8.456383,47.5738],[8.489591,47.5827],[8.465824,47.58278],[8.457928,47.58805],[8.454838,47.60281],[8.465361,47.60577],[8.47724,47.61658],[8.504915,47.62032],[8.51552,47.63619],[8.55423,47.62983],[8.577223,47.61306],[8.565886,47.60078],[8.580761,47.5992],[8.601976,47.6144],[8.594148,47.62936],[8.593545,47.64513],[8.607825,47.65539],[8.616219,47.64926],[8.614782,47.64055],[8.6259,47.651],[8.60713,47.66082],[8.603,47.66951],[8.577404,47.65966],[8.552148,47.66629],[8.53223,47.64273],[8.495223,47.64142],[8.471397,47.63557],[8.463946,47.64084],[8.461767,47.65134],[8.444808,47.65088],[8.422649,47.66378],[8.410209,47.66423],[8.402874,47.67545],[8.416313,47.68483],[8.402089,47.69658],[8.405663,47.70385],[8.415339,47.71261],[8.451649,47.72566],[8.446894,47.7384],[8.454332,47.75095],[8.48755,47.77598],[8.495249,47.77381],[8.510394,47.77911],[8.518954,47.7747],[8.525074,47.7808],[8.552392,47.78744],[8.56591,47.78131],[8.573011,47.78322],[8.558858,47.79185],[8.560621,47.80601],[8.567121,47.81126],[8.5782,47.80297],[8.601162,47.8058],[8.620555,47.80042],[8.624955,47.79426],[8.618013,47.78427],[8.625764,47.77843],[8.622474,47.76904],[8.630785,47.76156],[8.64576,47.77193],[8.643778,47.79474],[8.647696,47.80113],[8.656287,47.80343],[8.668912,47.79046],[8.683488,47.78827],[8.691276,47.77443],[8.687982,47.76943],[8.693044,47.75946],[8.714367,47.76834],[8.728896,47.76504],[8.743734,47.75346],[8.741151,47.74401],[8.724533,47.74231],[8.715409,47.73273],[8.719476,47.72447],[8.73904,47.71748],[8.729687,47.69584],[8.756724,47.69266],[8.789409,47.67835],[8.797828,47.69402],[8.795525,47.69954],[8.766918,47.70635],[8.767948,47.71935],[8.783998,47.72859],[8.7955,47.72986],[8.794384,47.73511],[8.806812,47.74141],[8.81485,47.73157],[8.813509,47.72668],[8.831485,47.71572],[8.874967,47.70606],[8.876641,47.69262],[8.860249,47.69134],[8.855085,47.68385],[8.868667,47.67898],[8.874807,47.67079],[8.877554,47.65646],[8.894977,47.65024],[8.938494,47.65753],[8.971796,47.66984],[8.977718,47.67412],[9.022522,47.68879],[9.069557,47.68192],[9.091959,47.68203],[9.13805,47.66539],[9.150238,47.6692],[9.158306,47.66706],[9.170751,47.65643],[9.26225,47.66597],[9.452705,47.60223],[9.568245,47.54237],[9.565311,47.49657],[9.583522,47.48582],[9.59775,47.46532],[9.609656,47.47366],[9.623248,47.46031],[9.66071,47.45464],[9.661527,47.44702],[9.647669,47.434],[9.654854,47.40735],[9.674973,47.39439],[9.676794,47.38336],[9.662989,47.368],[9.624784,47.36253],[9.607655,47.34935],[9.588454,47.31299],[9.558091,47.29574],[9.549161,47.27871],[9.533489,47.2695],[9.532795,47.26121],[9.504446,47.21901],[9.488935,47.1825],[9.494312,47.16387],[9.514632,47.13311],[9.522277,47.09611],[9.515156,47.08312],[9.474704,47.06309],[9.476499,47.05781],[9.484286,47.05834],[9.485192,47.05347],[9.49083,47.05921],[9.511608,47.0598],[9.539792,47.06815],[9.553406,47.06125],[9.558734,47.05144],[9.602887,47.06472],[9.633085,47.05495],[9.64473,47.06323],[9.681312,47.06588],[9.689906,47.05877],[9.708678,47.05658],[9.719523,47.04726],[9.742197,47.04619],[9.749419,47.04044],[9.786122,47.04206],[9.837007,47.01626],[9.859677,47.02664],[9.877088,47.02473],[9.883816,47.0179],[9.875096,47.01069],[9.891027,47.00331],[9.89546,46.99083],[9.875189,46.96415],[9.881644,46.95827],[9.878977,46.94966],[9.882657,46.93803],[9.93835,46.91674],[9.978544,46.91928],[9.991468,46.90596],[10.00514,46.90246],[10.01961,46.9051],[10.05426,46.87927],[10.05562,46.86524],[10.08899,46.86447],[10.10578,46.84444],[10.12249,46.85148],[10.16782,46.85372],[10.1937,46.86929],[10.22735,46.86915],[10.2312,46.88394],[10.22274,46.89688],[10.23839,46.91944],[10.23887,46.93377],[10.29571,46.92388],[10.31344,46.92828],[10.30396,46.93783],[10.30451,46.94855],[10.30823,46.95325],[10.32523,46.9567],[10.32754,46.96789],[10.34378,46.99153],[10.35474,46.99545],[10.37042,46.99375],[10.38399,47.00289],[10.39957,46.99995],[10.4289,46.97732],[10.42816,46.95967],[10.4566,46.9558],[10.49194,46.93876],[10.48881,46.91407],[10.46952,46.88491],[10.47398,46.87276],[10.47255,46.84745],[10.46187,46.82918],[10.46179,46.81594],[10.45114,46.79986],[10.43267,46.79491],[10.42946,46.7901],[10.44563,46.77341],[10.44651,46.75394],[10.40636,46.73328],[10.42164,46.72056],[10.42138,46.71411],[10.41622,46.70557],[10.40559,46.70317],[10.39032,46.68178],[10.40549,46.6399],[10.44758,46.64491],[10.49584,46.61746],[10.48832,46.60473],[10.48952,46.58571],[10.47879,46.56629],[10.48134,46.55724],[10.47478,46.54132],[10.46362,46.539],[10.45263,46.52713],[10.41792,46.54817],[10.39682,46.54102],[10.35344,46.55247],[10.33852,46.5399],[10.32572,46.5484],[10.31211,46.54387],[10.29548,46.54713],[10.28514,46.56782],[10.26869,46.57435],[10.25404,46.56851],[10.24398,46.57336],[10.23746,46.59292],[10.25406,46.61086],[10.23711,46.63135],[10.22607,46.62663],[10.21568,46.61448],[10.18916,46.62247],[10.12817,46.60229],[10.10428,46.60773],[10.1003,46.59453],[10.10306,46.58087],[10.09672,46.57456],[10.08425,46.57249],[10.08787,46.56562],[10.07421,46.55703],[10.07015,46.54818],[10.04691,46.53911],[10.05612,46.53297],[10.05679,46.51879],[10.05391,46.51153],[10.04582,46.50749],[10.05178,46.49968],[10.04579,46.47977],[10.05386,46.47383],[10.05715,46.4642],[10.04389,46.44501],[10.05792,46.44331],[10.06339,46.42981],[10.07762,46.43119],[10.08316,46.42464],[10.09853,46.42442],[10.10689,46.43118],[10.11559,46.42884],[10.12922,46.43484],[10.14446,46.43101],[10.15135,46.41673],[10.16197,46.41813],[10.16856,46.4087],[10.16418,46.38567],[10.1428,46.38299],[10.13077,46.37618],[10.13179,46.35943],[10.11175,46.34952],[10.10817,46.33705],[10.11902,46.3161],[10.13999,46.3075],[10.14242,46.30096],[10.15699,46.29407],[10.17941,46.25899],[10.14773,46.22838],[10.13325,46.2222],[10.09469,46.2256],[10.07031,46.21418],[10.04204,46.22736],[10.04199,46.23264],[10.05124,46.23772],[10.05715,46.24997],[10.05323,46.26388],[9.993526,46.283],[9.988696,46.29607],[9.996499,46.3025],[9.996337,46.3109],[9.977296,46.32287],[9.992149,46.34932],[9.98391,46.34908],[9.962863,46.36131],[9.952891,46.37625],[9.935632,46.37203],[9.932814,46.36561],[9.925194,46.363],[9.906541,46.37753],[9.869326,46.35955],[9.834166,46.35794],[9.821065,46.3478],[9.777525,46.3319],[9.737432,46.34756],[9.727196,46.34089],[9.729796,46.33139],[9.720634,46.32408],[9.728976,46.32017],[9.727222,46.30883],[9.715754,46.29086],[9.710104,46.28905],[9.688016,46.29064],[9.675687,46.29948],[9.670548,46.29348],[9.634027,46.28322],[9.617791,46.28462],[9.608367,46.29133],[9.578475,46.29228],[9.557763,46.30348],[9.548402,46.29966],[9.516129,46.32519],[9.494331,46.36207],[9.458488,46.37477],[9.463587,46.39664],[9.45144,46.42054],[9.457177,46.44301],[9.456353,46.46422],[9.462119,46.46902],[9.460635,46.47741],[9.448212,46.47736],[9.446125,46.48434],[9.458001,46.4876],[9.45818,46.50447],[9.436941,46.49582],[9.428244,46.48815],[9.426506,46.47422],[9.409544,46.46382],[9.388385,46.47051],[9.382465,46.47981],[9.374412,46.48244],[9.365526,46.49326],[9.370222,46.50165],[9.363269,46.50613],[9.355661,46.5013],[9.311349,46.50104],[9.284334,46.49389],[9.277932,46.48275],[9.276819,46.46671],[9.280879,46.46019],[9.267423,46.44879],[9.252829,46.4464],[9.250948,46.4356],[9.283557,46.41444],[9.285434,46.40438],[9.27962,46.39443],[9.287417,46.3854],[9.280019,46.36952],[9.284388,46.3607],[9.298813,46.35713],[9.302889,46.34309],[9.295225,46.33606],[9.302878,46.32617],[9.297138,46.31558],[9.285381,46.30909],[9.287026,46.29508],[9.262438,46.27683],[9.255164,46.26546],[9.251019,46.23241],[9.224499,46.22661],[9.221,46.21232],[9.204479,46.20606],[9.197359,46.17826],[9.185391,46.16798],[9.162664,46.16803],[9.158572,46.15975],[9.136728,46.15092],[9.122415,46.13204],[9.07627,46.11663],[9.092628,46.08737],[9.081595,46.07398],[9.078476,46.06164],[9.050129,46.05945],[9.021443,46.04873],[9.012299,46.0357],[9.012167,46.02862],[9.0252,46.01803],[9.031479,45.99247],[9.014172,45.98492],[9.009438,45.97767],[8.998826,45.97716],[8.996138,45.96899],[9.016357,45.9622],[9.020121,45.94896],[9.016799,45.94369],[9.024888,45.93935],[9.023447,45.93206],[9.061309,45.92347],[9.06245,45.91818],[9.078418,45.91356],[9.089899,45.90339],[9.091272,45.89736],[9.078913,45.88242],[9.067583,45.87459],[9.05797,45.87334],[9.053078,45.85158],[9.040675,45.84396],[9.038701,45.83565],[9.035826,45.82001],[9.016428,45.81642]]]]}}
