{"type":"Feature","properties":{"code":"EE","source":"geofabrik index-v1"},"geometry":{"type":"MultiPolygon","coordinates":[[[[26.61469,57.5047],[26.58588,57.51295],[26.55831,57.50903],[26.4983,57.51976],[26.46701,57.57043],[26.40182,57.56724],[26.32764,57.57453],[26.27128,57.59355],[26.24342,57.61788],[26.22716,57.64596],[26.20907,57.66184],[26.17494,57.68523],[26.19624,57.71501],[26.14036,57.72891],[26.13363,57.74647],[26.07579,57.76312],[26.05871,57.75978],[26.04996,57.76111],[26.02361,57.76788],[26.01811,57.77186],[26.0249,57.77493],[26.02335,57.78399],[26.05285,57.84374],[25.88673,57.84224],[25.81759,57.86064],[25.73689,57.91895],[25.70766,57.89971],[25.67539,57.90299],[25.64511,57.91596],[25.57549,57.94256],[25.58094,57.95361],[25.48373,57.97029],[25.43678,57.99809],[25.45394,58.00727],[25.36153,58.02698],[25.29453,58.07647],[25.30666,58.03992],[25.30837,57.98516],[25.25458,57.98914],[25.21465,58.0241],[25.1914,58.07102],[25.07879,58.06138],[25.02172,58.01303],[24.83974,57.96952],[24.69322,57.94154],[24.6277,57.93692],[24.46767,57.9211],[24.4635,57.87686],[24.40716,57.86211],[24.40613,57.86996],[24.35716,57.87398],[23.23031,57.49764],[22.67558,57.82371],[21.66951,57.69501],[20.85166,59.01126],[23.21828,59.56751],[26.45342,59.99705],[27.82958,59.61906],[28.11155,59.45067],[28.14163,59.42363],[28.19842,59.40175],[28.21311,59.38583],[28.21426,59.36772],[28.13395,59.2868],[28.06781,59.28867],[27.95935,59.26718],[27.89151,59.18068],[27.86741,59.15659],[27.81233,59.12574],[27.8143,59.1051],[27.77258,59.03137],[27.75455,59.02934],[27.75083,58.98401],[27.72557,58.96435],[27.51016,58.7429],[27.57565,58.33422],[27.51513,58.30815],[27.49466,58.22503],[27.60555,58.11942],[27.63869,58.09982],[27.61076,58.05393],[27.62064,58.01336],[27.63645,58.01286],[27.64933,58.02115],[27.66332,58.01974],[27.70168,58.00337],[27.70118,57.98574],[27.68652,57.97598],[27.68843,57.95698],[27.73664,57.90827],[27.81856,57.89986],[27.82397,57.89104],[27.81957,57.85871],[27.79798,57.8368],[27.74194,57.82283],[27.68648,57.83022],[27.6347,57.83578],[27.55929,57.8266],[27.55843,57.81171],[27.53973,57.7906],[27.51761,57.77457],[27.5299,57.7608],[27.55033,57.73447],[27.52886,57.70563],[27.50035,57.70148],[27.46181,57.70223],[27.38277,57.66828],[27.38986,57.6563],[27.40531,57.6354],[27.40959,57.61128],[27.37956,57.59142],[27.32998,57.5761],[27.35767,57.52696],[27.35206,57.51293],[27.27946,57.53256],[27.25786,57.54563],[27.19381,57.5456],[27.10042,57.561],[27.08362,57.5718],[27.03159,57.5806],[27.02915,57.5874],[26.97226,57.60002],[26.9444,57.59793],[26.93519,57.60743],[26.94011,57.61494],[26.9238,57.62829],[26.90774,57.62812],[26.86818,57.6116],[26.86456,57.58796],[26.83481,57.57792],[26.8034,57.5784],[26.77837,57.55529],[26.75118,57.55803],[26.67447,57.55027],[26.64983,57.54875],[26.61992,57.52694],[26.62174,57.50798],[26.61469,57.5047]]]]}}
