{"type":"Feature","properties":{"code":"FI","source":"geofabrik index-v1"},"geometry":{"type":"MultiPolygon","coordinates":[[[[27.96852,70.09959],[28.00005,70.01638],[28.16218,69.9324],[28.35262,69.88127],[28.35466,69.84885],[29.13509,69.69689],[29.35237,69.47794],[29.25448,69.40423],[28.85697,69.22181],[28.824,69.11071],[28.86932,69.08132],[28.95502,69.05731],[28.43475,68.90842],[28.82205,68.87493],[28.72393,68.71912],[28.64422,68.66493],[28.53859,68.61127],[28.5404,68.6031],[28.45037,68.5409],[28.65979,68.19511],[29.33467,68.07471],[30.02734,67.68238],[29.95903,67.52222],[29.65965,67.33378],[29.0966,66.99938],[29.07257,66.95023],[29.06845,66.8716],[29.34036,66.66549],[29.48387,66.54772],[29.72351,66.28012],[29.93294,66.13358],[30.084,65.89885],[30.12108,65.79489],[30.15404,65.66195],[29.74411,65.63506],[29.88122,65.56409],[29.74367,65.45104],[29.76858,65.3341],[29.62257,65.2524],[29.88968,65.21817],[29.90616,65.19254],[29.84436,65.14727],[29.92882,65.1025],[29.63974,65.05244],[29.65416,64.87111],[29.71596,64.83726],[29.69879,64.81915],[30.0634,64.79753],[30.1094,64.76476],[30.05007,64.74339],[30.18763,64.63528],[30.01828,64.59172],[30.08669,64.38943],[30.14401,64.35876],[30.22821,64.35039],[30.49078,64.26305],[30.51318,64.21944],[30.47767,64.20281],[30.57495,64.12598],[30.53993,64.04096],[30.27351,63.81765],[29.98095,63.75448],[30.60933,63.44322],[30.82755,63.40467],[31.2484,63.22168],[31.51153,63.01386],[31.6159,62.91023],[31.48269,62.77421],[31.40854,62.66595],[31.19568,62.43997],[30.96908,62.30497],[30.71777,62.19498],[30.08056,61.75883],[29.62463,61.49256],[29.34723,61.33749],[29.19342,61.23721],[28.9682,61.14721],[28.83774,61.11472],[28.67157,60.94311],[28.53973,60.93844],[28.24585,60.7833],[27.88193,60.59236],[27.85721,60.55728],[27.80365,60.53702],[27.74872,60.403],[27.58456,60.19694],[26.93167,60.12657],[26.49195,60.01982],[25.05929,59.85189],[20.58302,59.28783],[19.77823,59.58238],[19.02427,60.19461],[20.21816,63.32559],[21.9662,64.01502],[24.05456,65.51069],[24.1452,65.71821],[24.11636,65.79208],[24.14658,65.81473],[24.13799,65.84004],[24.11602,65.8517],[23.85263,66.15631],[23.65661,66.20359],[23.60333,66.44617],[23.76337,66.52647],[23.7922,66.54678],[23.85696,66.56527],[23.85954,66.78413],[23.95573,66.81811],[23.51618,67.16778],[23.56148,67.20033],[23.50987,67.25386],[23.73043,67.3143],[23.70731,67.37351],[23.66714,67.43281],[23.45698,67.44613],[23.35894,67.47496],[23.45383,67.54402],[23.44287,67.56249],[23.53184,67.62351],[23.47168,67.67181],[23.4644,67.87481],[23.6002,67.94881],[23.36941,68.045],[23.28242,68.1465],[23.12838,68.12342],[23.1251,68.24256],[22.63853,68.38915],[22.03224,68.47117],[21.37244,68.68511],[20.76941,68.91464],[20.88396,68.9619],[20.5739,69.0445],[20.54372,69.05889],[20.71324,69.12914],[21.03375,69.0578],[21.06311,69.08854],[20.92111,69.21513],[21.26343,69.32624],[21.65294,69.28345],[22.34722,68.86254],[22.3811,68.72605],[22.56263,68.75961],[23.04156,68.69703],[23.16948,68.63344],[23.68529,68.75528],[23.76792,68.82236],[23.91756,68.85773],[24.1684,68.79333],[24.16791,68.76065],[24.77721,68.65861],[24.90807,68.61078],[25.07194,68.64142],[25.1131,68.80094],[25.35262,68.88978],[25.64375,68.9297],[25.73396,69.02895],[25.66624,69.23225],[25.79398,69.40465],[25.77574,69.41674],[25.81803,69.4475],[25.85414,69.52605],[25.82378,69.5464],[25.95765,69.61431],[25.87357,69.66782],[26.5118,69.97025],[27.28905,69.9633],[27.25479,69.98337],[27.58438,70.07817],[27.96852,70.09959]]]]}}
