{"type":"Feature","properties":{"code":"FR","source":"geofabrik index-v1"},"geometry":{"type":"MultiPolygon","coordinates":[[[[9.9,42.43788],[9.9,41.41346],[9.328765,41.32062],[9.286847,41.28319],[8.798805,41.23866],[3.176237,42.43371],[3.083413,42.42015],[3.026463,42.46648],[2.837709,42.4449],[2.78853,42.40826],[2.708677,42.41289],[2.663866,42.37779],[2.691517,42.33398],[2.559084,42.34963],[2.548566,42.32755],[2.480866,42.33811],[2.402161,42.39066],[2.25449,42.42562],[2.204567,42.41458],[2.131985,42.40938],[2.103023,42.35347],[2.015824,42.34351],[1.967745,42.3693],[1.930762,42.44482],[1.897025,42.44444],[1.715368,42.49186],[1.721935,42.51842],[1.733308,42.54018],[1.733994,42.54989],[1.73996,42.5862],[1.726074,42.5869],[1.7051,42.61127],[1.596991,42.62443],[1.537782,42.64797],[1.482483,42.64068],[1.48028,42.60966],[1.458178,42.59845],[1.436179,42.59784],[1.333942,42.71582],[1.278561,42.71122],[1.15799,42.70307],[1.063964,42.77432],[0.941806,42.78718],[0.929862,42.78272],[0.851898,42.82326],[0.685407,42.8488],[0.664481,42.75647],[0.68917,42.71239],[0.681699,42.68734],[0.413077,42.68797],[0.355418,42.71399],[0.305323,42.66539],[0.192003,42.72941],[0.009936,42.67894],[-0.064511,42.69136],[-0.110437,42.71887],[-0.204079,42.7902],[-0.342241,42.83365],[-0.381432,42.79723],[-0.44148,42.79259],[-0.506315,42.81662],[-0.537093,42.77334],[-0.56961,42.7792],[-0.686815,42.87147],[-0.73235,42.88842],[-0.756054,42.96415],[-0.809467,42.94895],[-0.951265,42.94996],[-1.120291,43.01295],[-1.139513,43.00476],[-1.227202,43.05215],[-1.250002,43.03704],[-1.314324,43.06835],[-1.296915,43.11313],[-1.328943,43.10377],[-1.346643,43.02447],[-1.447267,43.0455],[-1.479677,43.08436],[-1.415645,43.15543],[-1.388447,43.24896],[-1.547573,43.28599],[-1.571828,43.24545],[-1.617394,43.24945],[-1.634897,43.28298],[-1.633187,43.30369],[-1.692238,43.30744],[-1.731377,43.28945],[-1.74511,43.31444],[-1.751805,43.32992],[-1.774807,43.34128],[-1.79163,43.35299],[-1.782704,43.363],[-1.791115,43.36756],[-1.792231,43.37667],[-1.777023,43.39261],[-6.937207,48.50183],[-2.790533,49.40025],[-2.02149,48.95137],[-1.873172,49.26781],[-2.191778,49.4717],[-2.062684,49.95917],[1.263308,50.92504],[2.338938,51.4288],[2.565332,51.06589],[2.583292,51.00078],[2.612142,50.9923],[2.637097,50.94448],[2.610007,50.91976],[2.631189,50.83253],[2.724426,50.81543],[2.785034,50.75253],[2.811623,50.72165],[2.848185,50.72487],[2.900805,50.70449],[2.936352,50.74634],[3.004094,50.77965],[3.05609,50.78272],[3.112746,50.79655],[3.151858,50.79197],[3.201828,50.7358],[3.212998,50.7159],[3.247236,50.71366],[3.2657,50.70288],[3.270985,50.67452],[3.247681,50.66492],[3.285786,50.59875],[3.293582,50.53136],[3.383281,50.50011],[3.477201,50.53878],[3.527813,50.52325],[3.502235,50.49618],[3.570041,50.50262],[3.611669,50.49798],[3.672405,50.4527],[3.675957,50.4037],[3.680763,50.33713],[3.702368,50.31903],[3.745572,50.3571],[3.847269,50.35704],[3.907037,50.33462],[4.019507,50.36707],[4.099844,50.31431],[4.208602,50.27597],[4.229065,50.25562],[4.167066,50.20974],[4.150909,50.13764],[4.203708,50.13668],[4.236622,50.06639],[4.149156,50.02673],[4.205988,49.96177],[4.309461,49.97151],[4.430317,49.94678],[4.671075,50.0073],[4.67542,50.06663],[4.695282,50.09427],[4.758854,50.13708],[4.824017,50.17007],[4.880676,50.15491],[4.901517,50.13981],[4.875612,50.08635],[4.843484,50.07472],[4.846397,50.04192],[4.815237,49.98043],[4.899263,49.9095],[4.864919,49.86129],[4.886018,49.80282],[4.99809,49.8034],[5.010602,49.78463],[5.095318,49.76647],[5.130979,49.72719],[5.166264,49.71575],[5.172503,49.69729],[5.269212,49.69903],[5.330195,49.66086],[5.34221,49.63741],[5.418881,49.61136],[5.464153,49.55985],[5.473374,49.50552],[5.5573,49.53101],[5.60362,49.52331],[5.648722,49.55716],[5.699646,49.54849],[5.771656,49.56579],[5.838375,49.54381],[5.867901,49.50504],[5.941887,49.50169],[5.973558,49.4923],[5.976176,49.47978],[5.977464,49.46416],[5.989265,49.46394],[5.988972,49.45838],[6.043339,49.45518],[6.055183,49.46723],[6.09621,49.46628],[6.101789,49.47248],[6.119814,49.4756],[6.126766,49.49444],[6.168823,49.51145],[6.242466,49.51585],[6.26976,49.50565],[6.280489,49.50381],[6.282334,49.50074],[6.28963,49.49458],[6.30023,49.48853],[6.353059,49.46768],[6.364946,49.46087],[6.367092,49.47069],[6.39121,49.466],[6.420994,49.47794],[6.430521,49.47761],[6.455069,49.46595],[6.466141,49.46818],[6.486826,49.45395],[6.499958,49.45133],[6.538238,49.43654],[6.562271,49.41957],[6.540213,49.41136],[6.552915,49.40025],[6.565189,49.39109],[6.58184,49.39249],[6.589565,49.38416],[6.587505,49.37729],[6.604156,49.36717],[6.590595,49.34923],[6.573257,49.34386],[6.592398,49.33704],[6.596861,49.32982],[6.591625,49.32205],[6.6257,49.30408],[6.651449,49.28925],[6.671533,49.28102],[6.669989,49.26988],[6.666298,49.2645],[6.694021,49.24865],[6.6893,49.24366],[6.695652,49.21709],[6.720886,49.22365],[6.734762,49.20596],[6.713848,49.18799],[6.724834,49.17564],[6.73994,49.167],[6.782341,49.17037],[6.835384,49.15398],[6.844997,49.15712],[6.843195,49.16335],[6.843023,49.17323],[6.859252,49.17885],[6.856842,49.1849],[6.848688,49.19309],[6.847143,49.20218],[6.833668,49.21266],[6.856204,49.22345],[6.939411,49.22399],[6.958809,49.20526],[6.973743,49.21143],[7.014341,49.19477],[7.037086,49.19225],[7.035284,49.1803],[7.029447,49.17205],[7.034855,49.16431],[7.048931,49.13719],[7.045841,49.1218],[7.048588,49.11624],[7.055712,49.11326],[7.065668,49.11557],[7.06747,49.1222],[7.082062,49.13175],[7.078714,49.14854],[7.081032,49.15381],[7.101116,49.15684],[7.107639,49.15606],[7.113819,49.1528],[7.128067,49.14314],[7.137337,49.12933],[7.166519,49.13051],[7.18317,49.13231],[7.206087,49.12534],[7.245312,49.13124],[7.300157,49.12355],[7.312603,49.13893],[7.329855,49.14663],[7.359896,49.14522],[7.360496,49.17323],[7.447786,49.18653],[7.448387,49.1835],[7.439632,49.17783],[7.4471,49.17048],[7.496624,49.17082],[7.510271,49.15297],[7.497911,49.13759],[7.507439,49.12529],[7.518511,49.12332],[7.533102,49.09882],[7.603397,49.08466],[7.629604,49.07796],[7.641334,49.05576],[7.696609,49.05992],[7.762356,49.05452],[7.794199,49.06746],[7.812567,49.06189],[7.863636,49.03967],[7.88784,49.05058],[7.933797,49.05955],[7.946634,49.05604],[7.95114,49.04769],[7.967405,49.04338],[7.979164,49.02982],[7.999206,49.02937],[8.049717,49.01536],[8.064694,49.00635],[8.071046,48.99776],[8.12366,48.98712],[8.135805,48.98154],[8.138165,48.97993],[8.169966,48.97968],[8.184986,48.97879],[8.196405,48.97762],[8.226226,48.97706],[8.235465,48.96555],[8.195738,48.94824],[8.137092,48.88063],[8.124046,48.81851],[8.074952,48.7889],[8.017317,48.75802],[7.977616,48.73705],[7.966976,48.71237],[7.907307,48.6582],[7.860343,48.64026],[7.805786,48.57558],[7.813511,48.52479],[7.808018,48.50762],[7.783813,48.48601],[7.780554,48.47652],[7.746219,48.38795],[7.752914,48.32179],[7.730419,48.30298],[7.699444,48.23911],[7.609234,48.15406],[7.602402,48.13405],[7.581696,48.11462],[7.595516,48.09649],[7.575647,48.03242],[7.616648,47.99853],[7.628959,47.97058],[7.584643,47.89773],[7.567523,47.84391],[7.533792,47.77697],[7.55191,47.74231],[7.554834,47.72587],[7.522382,47.70202],[7.522266,47.67038],[7.568069,47.63648],[7.599707,47.60269],[7.586918,47.57479],[7.568657,47.57537],[7.559186,47.5645],[7.537093,47.55492],[7.518425,47.54467],[7.499885,47.53772],[7.503405,47.5307],[7.525206,47.53743],[7.533359,47.52856],[7.52409,47.51361],[7.51276,47.5099],[7.512245,47.49633],[7.490101,47.48136],[7.458,47.46802],[7.399463,47.42727],[7.324276,47.43761],[7.244453,47.41798],[7.166175,47.44156],[7.180611,47.48424],[7.123379,47.49519],[7.073582,47.48623],[7.017036,47.50156],[6.99012,47.49177],[7.008271,47.45709],[6.996815,47.44629],[6.923513,47.39414],[6.886725,47.35942],[7.045077,47.37892],[7.071103,47.33632],[6.955017,47.26808],[6.959622,47.24318],[6.859946,47.16892],[6.863693,47.15944],[6.762511,47.10584],[6.724583,47.05046],[6.636254,46.99539],[6.477084,46.94731],[6.450383,46.92278],[6.477536,46.87973],[6.447514,46.80017],[6.480897,46.7811],[6.122464,46.5755],[6.166862,46.54304],[6.07533,46.41927],[6.177486,46.37396],[6.126079,46.31516],[6.133713,46.30227],[6.133461,46.2505],[6.109857,46.22902],[6.097746,46.22131],[6.059406,46.23123],[6.052694,46.22646],[6.034452,46.23721],[5.99411,46.21453],[5.965748,46.19712],[5.992552,46.18791],[5.997395,46.17999],[5.967121,46.14517],[5.987793,46.14547],[6.044961,46.14189],[6.050575,46.15224],[6.091467,46.15266],[6.111574,46.14398],[6.14891,46.15088],[6.187448,46.16634],[6.183071,46.17846],[6.20573,46.19278],[6.23311,46.20752],[6.294291,46.2264],[6.30744,46.24599],[6.291475,46.25745],[6.266756,46.24356],[6.234226,46.27501],[6.245384,46.30206],[6.211309,46.31398],[6.264181,46.38458],[6.624293,46.49704],[6.836175,46.45196],[6.804248,46.38968],[6.808963,46.38216],[6.793157,46.34152],[6.869543,46.28553],[6.858857,46.25292],[6.810446,46.20361],[6.822936,46.13691],[6.904849,46.12709],[6.940736,46.06656],[7.094688,45.91969],[6.940965,45.83551],[6.82003,45.81591],[6.829337,45.71123],[7.012493,45.64465],[7.009821,45.52013],[7.110975,45.47131],[7.19206,45.40674],[7.139578,45.30455],[7.144923,45.25531],[7.080046,45.20884],[6.980034,45.20287],[6.951246,45.16805],[6.895852,45.13346],[6.847371,45.1246],[6.78635,45.15017],[6.639546,45.09804],[6.664861,45.07298],[6.681253,45.02691],[6.753322,45.02224],[6.787871,44.89831],[6.90921,44.85059],[6.930832,44.86853],[7.027325,44.83719],[7.043637,44.72277],[7.069489,44.71579],[7.082193,44.67768],[6.984578,44.68155],[6.954428,44.65258],[6.976129,44.62322],[6.929081,44.56146],[6.859932,44.5298],[6.954603,44.4281],[6.901817,44.37246],[7.001151,44.28406],[7.00962,44.24643],[7.100105,44.22949],[7.188148,44.20436],[7.296657,44.14937],[7.347362,44.14755],[7.360254,44.12652],[7.623408,44.16728],[7.628561,44.17919],[7.689757,44.18558],[7.680372,44.1235],[7.731295,44.07925],[7.651235,43.96522],[7.580754,43.94251],[7.565829,43.89753],[7.503786,43.8704],[7.534675,43.77821],[9.810986,43.20419],[9.9,42.43788]]]]}}
