{"type":"Feature","properties":{"code":"GB","source":"geofabrik index-v1"},"geometry":{"type":"MultiPolygon","coordinates":[[[[0.932608,50.57032],[0.257806,50.21031],[-7.068725,49.523],[-5.002163,53.51157],[-4.15973,54.34817],[-4.339602,54.45887],[-5.009768,54.33575],[-6.208707,55.33747],[-6.604158,55.43057],[-7.148041,55.66455],[-14.86751,57.46894],[-14.9907,57.68017],[-12.08287,58.53333],[-1.637515,61.13564],[-0.240451,61.10237],[0.142394,59.93252],[0.097816,59.42198],[0.799897,55.79959],[2.133265,53.84908],[2.513672,52.68668],[1.951517,51.1862],[0.932608,50.57032]]]]}}
