{"type":"Feature","properties":{"code":"HR","source":"geofabrik index-v1"},"geometry":{"type":"MultiPolygon","coordinates":[[[[18.51463,42.43746],[18.53434,42.42769],[18.55029,42.38946],[18.48013,42.244],[18.45226,42.20671],[16.33616,42.16483],[16.21414,42.17832],[16.07264,42.21859],[16.01734,42.26613],[15.97795,42.31885],[15.89082,42.72786],[14.97115,42.96964],[13.08916,44.97599],[13.14916,45.47259],[13.32665,45.57209],[13.46271,45.62532],[13.5779,45.5049],[13.59077,45.47795],[13.64167,45.46091],[13.66339,45.45224],[13.67429,45.44532],[13.70579,45.45893],[13.77754,45.47169],[13.80981,45.46133],[13.81857,45.43894],[13.87865,45.42882],[13.91178,45.45568],[13.95727,45.4582],[13.9698,45.45044],[13.98843,45.47554],[13.96276,45.49558],[13.95899,45.50923],[14.00276,45.52812],[14.07692,45.48902],[14.13631,45.48072],[14.15726,45.48517],[14.19777,45.47939],[14.22146,45.50346],[14.23636,45.51575],[14.26743,45.48592],[14.2793,45.49365],[14.32707,45.48331],[14.39758,45.50454],[14.48402,45.53926],[14.50401,45.58906],[14.49818,45.60815],[14.54058,45.6252],[14.56787,45.67572],[14.601,45.67068],[14.61336,45.66145],[14.60718,45.63877],[14.60066,45.62844],[14.68855,45.5887],[14.70348,45.56298],[14.69095,45.53714],[14.72923,45.53557],[14.79996,45.50442],[14.82639,45.46483],[14.90656,45.48156],[14.9093,45.5197],[14.91978,45.52992],[14.92853,45.53317],[14.98604,45.50165],[15.01385,45.50009],[15.02964,45.48818],[15.0523,45.49696],[15.08852,45.48529],[15.08663,45.46976],[15.10637,45.46398],[15.17092,45.42725],[15.19512,45.43906],[15.20542,45.42882],[15.22104,45.42858],[15.23546,45.45255],[15.27409,45.4682],[15.32644,45.45549],[15.34816,45.46495],[15.35786,45.47807],[15.37923,45.48746],[15.36017,45.49437],[15.32704,45.51122],[15.31305,45.52277],[15.2958,45.5384],[15.29743,45.57584],[15.2734,45.60407],[15.30447,45.63373],[15.33039,45.63769],[15.34344,45.64897],[15.3994,45.64657],[15.38704,45.66625],[15.37056,45.68124],[15.35236,45.66709],[15.34584,45.67021],[15.34876,45.68592],[15.35889,45.68832],[15.36181,45.69611],[15.35511,45.69695],[15.35648,45.7093],[15.33588,45.70198],[15.32318,45.69323],[15.32867,45.67416],[15.31683,45.67284],[15.28662,45.69107],[15.25417,45.71757],[15.25383,45.72967],[15.29898,45.75734],[15.4133,45.79769],[15.4624,45.79769],[15.46326,45.82019],[15.47476,45.82892],[15.49158,45.83406],[15.52969,45.82844],[15.53793,45.84937],[15.55733,45.84459],[15.57432,45.85702],[15.64299,45.82796],[15.66496,45.84327],[15.69981,45.85152],[15.67509,45.8691],[15.67732,45.90578],[15.70032,45.92262],[15.70444,45.9385],[15.70496,45.96845],[15.69586,45.99923],[15.7204,46.0475],[15.61792,46.08621],[15.60059,46.11228],[15.60831,46.13274],[15.59252,46.14595],[15.60282,46.16735],[15.64041,46.19076],[15.63835,46.20989],[15.64505,46.21833],[15.67698,46.23068],[15.75697,46.22177],[15.76332,46.21049],[15.77705,46.21512],[15.79079,46.2321],[15.78976,46.26154],[15.84967,46.2689],[15.86975,46.27982],[15.89773,46.29085],[15.92228,46.29109],[15.98906,46.31765],[16.00948,46.31267],[16.03352,46.33875],[16.07334,46.34622],[16.04879,46.38093],[16.05594,46.40333],[16.09016,46.39608],[16.13857,46.40626],[16.15402,46.40567],[16.18389,46.38992],[16.2299,46.38957],[16.29993,46.38033],[16.30251,46.39726],[16.26972,46.41526],[16.25565,46.46884],[16.23865,46.48445],[16.23831,46.4991],[16.26766,46.52049],[16.30062,46.516],[16.33581,46.54481],[16.36808,46.55756],[16.38491,46.55272],[16.38267,46.54528],[16.43864,46.533],[16.44396,46.52474],[16.46713,46.5232],[16.52533,46.49248],[16.53339,46.48315],[16.60446,46.47913],[16.66609,46.46128],[16.67905,46.45081],[16.70523,46.41052],[16.83655,46.37797],[16.86762,46.35546],[16.88255,46.33579],[16.87758,46.32524],[16.89423,46.28646],[16.94916,46.24694],[16.97473,46.24362],[16.98474,46.23438],[17.06606,46.20419],[17.1615,46.17353],[17.18332,46.15116],[17.19498,46.11501],[17.21621,46.11661],[17.23732,46.09669],[17.22847,46.09062],[17.27588,46.05661],[17.2687,46.03539],[17.30067,46.03195],[17.29825,46.02134],[17.27514,46.0154],[17.37229,45.99427],[17.3941,45.96404],[17.40097,45.94602],[17.43582,45.95306],[17.46157,45.94888],[17.57109,45.94148],[17.63463,45.90507],[17.66849,45.84674],[17.74246,45.83947],[17.7618,45.82411],[17.78245,45.82737],[17.80938,45.81434],[17.83022,45.81918],[17.86393,45.78185],[17.90716,45.80256],[17.92894,45.79632],[17.99782,45.80554],[18.08349,45.77454],[18.1229,45.79947],[18.16905,45.78675],[18.1912,45.79787],[18.27756,45.76624],[18.33959,45.76231],[18.36694,45.78256],[18.39773,45.76982],[18.41058,45.74965],[18.43797,45.74847],[18.43751,45.76706],[18.45464,45.77939],[18.47264,45.77637],[18.48647,45.80379],[18.51474,45.79558],[18.54914,45.80448],[18.59135,45.83097],[18.61972,45.87932],[18.65027,45.90462],[18.65526,45.92628],[18.70761,45.92781],[18.79446,45.88845],[18.80288,45.89179],[18.79874,45.90842],[18.8184,45.92392],[18.83362,45.91618],[18.85472,45.91936],[18.86275,45.93065],[18.89982,45.92928],[18.91753,45.9068],[18.88621,45.89402],[18.91059,45.879],[18.91517,45.8644],[18.89569,45.84997],[18.87156,45.84914],[18.85931,45.81898],[18.87102,45.81688],[18.88687,45.83514],[18.92208,45.82854],[18.93721,45.80491],[18.93449,45.77877],[18.89842,45.76595],[18.90393,45.7503],[18.96923,45.77609],[18.98926,45.74429],[18.98653,45.70602],[18.96703,45.68556],[18.98428,45.65118],[18.95603,45.63627],[18.96149,45.62602],[18.94972,45.59546],[18.91794,45.5908],[18.90791,45.57872],[18.9382,45.56946],[18.95092,45.54328],[18.98392,45.54619],[19.01961,45.56561],[19.04309,45.54172],[19.08424,45.53625],[19.11133,45.51632],[19.10538,45.49083],[19.084,45.47778],[19.04756,45.47441],[19.00616,45.48746],[18.9959,45.45162],[19.03094,45.432],[19.0401,45.40928],[19.02754,45.39408],[18.98195,45.38076],[19.0982,45.34374],[19.11247,45.30662],[19.18677,45.27615],[19.22188,45.27509],[19.26065,45.29144],[19.28516,45.27327],[19.26659,45.2454],[19.42306,45.23684],[19.45997,45.17996],[19.41837,45.16384],[19.38567,45.16938],[19.34862,45.16285],[19.32865,45.17554],[19.31061,45.19734],[19.29784,45.19608],[19.30506,45.17244],[19.29695,45.16247],[19.23331,45.16927],[19.20399,45.18209],[19.19484,45.1595],[19.1462,45.12094],[19.09606,45.13285],[19.08739,45.12046],[19.11163,45.08892],[19.10819,44.98461],[19.14507,44.98889],[19.17099,44.94393],[19.06213,44.8957],[19.03296,44.91632],[18.99382,44.90708],[18.99811,44.89699],[19.023,44.8583],[19.02317,44.85222],[18.96721,44.84735],[18.87091,44.84978],[18.84275,44.8538],[18.8213,44.87528],[18.81048,44.87941],[18.79486,44.88282],[18.76087,44.90465],[18.75469,44.92641],[18.74559,44.94269],[18.76053,44.94791],[18.79297,44.93722],[18.77907,44.97524],[18.79297,44.99042],[18.74783,44.99169],[18.73409,44.98993],[18.72741,44.99194],[18.72474,44.9988],[18.71693,45.0301],[18.69238,45.03817],[18.6686,45.05145],[18.60681,45.06218],[18.59272,45.07418],[18.57428,45.06425],[18.55848,45.07292],[18.54123,45.06473],[18.54321,45.05139],[18.5354,45.04169],[18.529,45.04314],[18.52704,45.05123],[18.47716,45.05979],[18.44004,45.08316],[18.43223,45.10049],[18.41626,45.10709],[18.32545,45.09879],[18.31584,45.09897],[18.30588,45.11169],[18.2761,45.11369],[18.27361,45.13174],[18.24666,45.1364],[18.21525,45.12326],[18.22452,45.09722],[18.21156,45.08498],[18.20306,45.0797],[18.18641,45.07346],[18.16152,45.07746],[18.1416,45.08461],[18.12427,45.07825],[18.10856,45.08067],[18.09165,45.098],[18.06925,45.10533],[18.06813,45.11048],[18.08281,45.1183],[18.06951,45.14028],[18.04693,45.13876],[18.0417,45.12399],[18.03157,45.12211],[18.01509,45.14984],[18.00573,45.14972],[17.99106,45.14585],[17.98067,45.13658],[17.97492,45.11927],[17.9623,45.11024],[17.93681,45.10703],[17.94119,45.08455],[17.93853,45.07922],[17.90497,45.05891],[17.86514,45.04333],[17.84944,45.04199],[17.83244,45.04642],[17.78266,45.07619],[17.75837,45.08304],[17.72824,45.09922],[17.71039,45.112],[17.69099,45.11587],[17.66241,45.13186],[17.6261,45.11297],[17.60345,45.10503],[17.5922,45.10515],[17.55589,45.10697],[17.53208,45.10779],[17.48131,45.10733],[17.47582,45.11321],[17.49126,45.1292],[17.485,45.13168],[17.47453,45.12411],[17.4462,45.12429],[17.44775,45.15311],[17.41693,45.13217],[17.34466,45.13846],[17.31282,45.16213],[17.29274,45.17218],[17.26871,45.17974],[17.25995,45.15771],[17.25369,45.15021],[17.24785,45.14536],[17.23068,45.14367],[17.17506,45.14512],[17.06726,45.18857],[17.03568,45.20817],[17.01473,45.21071],[16.98538,45.22219],[16.93439,45.22558],[16.93036,45.2396],[16.93594,45.24728],[16.94761,45.25719],[16.91963,45.26969],[16.91912,45.26613],[16.91251,45.25169],[16.89672,45.24728],[16.88092,45.21911],[16.84599,45.19486],[16.84032,45.18942],[16.82608,45.18452],[16.81518,45.18331],[16.7993,45.18573],[16.77321,45.1919],[16.73655,45.20412],[16.69767,45.1945],[16.66952,45.19946],[16.62463,45.21385],[16.60558,45.22649],[16.55726,45.21826],[16.54447,45.2199],[16.53159,45.22606],[16.50799,45.21597],[16.48473,45.18845],[16.48009,45.15989],[16.46361,45.14082],[16.43675,45.12484],[16.40456,45.11612],[16.40508,45.09182],[16.3916,45.06946],[16.38431,45.0597],[16.38512,45.05185],[16.38212,45.04994],[16.38014,45.04994],[16.37735,45.05136],[16.37478,45.05097],[16.37379,45.04712],[16.37126,45.04211],[16.36396,45.0335],[16.3607,45.00365],[16.34989,45.00025],[16.28775,44.99175],[16.28105,45.00268],[16.2359,45.01239],[16.19003,45.0272],[16.15711,45.07219],[16.07969,45.10188],[16.08154,45.1292],[16.04916,45.15237],[16.03985,45.17384],[16.01068,45.18022],[16.01652,45.2078],[15.98133,45.22413],[15.92503,45.20551],[15.90992,45.21542],[15.85576,45.21512],[15.84229,45.22123],[15.82744,45.20581],[15.81628,45.2075],[15.80212,45.1968],[15.78941,45.19147],[15.7695,45.16183],[15.79937,45.11569],[15.75748,45.05072],[15.79088,45.00596],[15.7945,44.98313],[15.78543,44.95926],[15.75893,44.96064],[15.75177,44.93538],[15.76813,44.87071],[15.80212,44.84565],[15.77122,44.82495],[15.74306,44.81959],[15.79473,44.75344],[15.83133,44.72881],[15.8901,44.7564],[15.90733,44.75284],[15.93698,44.72293],[15.96211,44.71772],[15.97965,44.68055],[16.03593,44.66273],[16.06272,44.63168],[16.06062,44.58664],[16.02558,44.58005],[16.03858,44.56176],[16.09738,44.54369],[16.12094,44.52228],[16.15064,44.48284],[16.15079,44.43247],[16.18179,44.40581],[16.1783,44.39489],[16.15528,44.38601],[16.20978,44.36952],[16.22828,44.35255],[16.19629,44.30344],[16.22166,44.24028],[16.24123,44.20411],[16.31683,44.15128],[16.31968,44.13148],[16.38353,44.11261],[16.44808,44.07969],[16.44241,44.0322],[16.5243,44.03405],[16.563,43.95887],[16.72138,43.85372],[16.73237,43.80017],[16.75589,43.78193],[16.80878,43.76711],[16.83203,43.73756],[16.90074,43.70097],[16.94275,43.64243],[17.00416,43.59205],[17.12999,43.52605],[17.15682,43.50271],[17.2248,43.50759],[17.28475,43.47968],[17.30426,43.44129],[17.26923,43.40131],[17.2944,43.33636],[17.34955,43.26765],[17.43368,43.22572],[17.45009,43.2018],[17.44361,43.18918],[17.63699,43.10064],[17.67938,43.05703],[17.72006,42.97551],[17.7143,42.96401],[17.61688,42.93195],[17.57025,42.92721],[17.63957,42.89519],[17.66399,42.92052],[17.6981,42.93226],[17.79318,42.904],[17.81334,42.9252],[17.83975,42.91743],[17.86614,42.89896],[17.86857,42.87033],[17.90661,42.83696],[17.90514,42.81848],[17.95677,42.80739],[18.00425,42.7824],[18.01438,42.76485],[18.04549,42.75811],[18.10754,42.71808],[18.27826,42.62713],[18.3549,42.62644],[18.39086,42.59571],[18.4114,42.59477],[18.44712,42.56278],[18.44613,42.52349],[18.45497,42.50935],[18.44582,42.48915],[18.51463,42.43746]]]]}}
