{"type":"Feature","properties":{"code":"HU","source":"geofabrik index-v1"},"geometry":{"type":"MultiPolygon","coordinates":[[[[17.24184,48.02644],[17.3366,47.9967],[17.40973,47.94797],[17.46414,47.88861],[17.53195,47.86903],[17.57641,47.82272],[17.61383,47.82457],[17.70309,47.77164],[17.87064,47.74787],[17.9714,47.76137],[18.08933,47.76102],[18.16933,47.74636],[18.23868,47.7466],[18.39815,47.75456],[18.45411,47.77244],[18.57565,47.7736],[18.62286,47.76333],[18.70525,47.78064],[18.72362,47.79275],[18.73255,47.81892],[18.79709,47.82699],[18.84396,47.82076],[18.7904,47.85602],[18.75967,47.87111],[18.75349,47.8969],[18.754,47.91991],[18.75263,47.9759],[18.76671,47.98751],[18.8134,48.01048],[18.81117,48.02862],[18.82181,48.04733],[18.84516,48.05514],[18.874,48.05089],[18.88533,48.06168],[18.94541,48.06133],[18.96944,48.05973],[18.98111,48.05835],[18.99262,48.0689],[19.00875,48.07923],[19.01888,48.08118],[19.05836,48.0634],[19.08342,48.07579],[19.13767,48.07556],[19.22264,48.0642],[19.25182,48.07269],[19.29628,48.09035],[19.38864,48.09402],[19.43378,48.10136],[19.48734,48.11385],[19.49009,48.14238],[19.50554,48.15475],[19.50056,48.17639],[19.52373,48.2042],[19.54176,48.21278],[19.63325,48.25371],[19.67394,48.2432],[19.69729,48.20694],[19.72389,48.20855],[19.73299,48.22044],[19.76801,48.21667],[19.81367,48.19138],[19.80063,48.16815],[19.8571,48.18108],[19.90242,48.16837],[19.92714,48.13459],[19.97177,48.16918],[20.02636,48.18257],[20.09863,48.21095],[20.13227,48.25783],[20.24059,48.28422],[20.29415,48.27085],[20.3508,48.31574],[20.38393,48.36035],[20.41019,48.42168],[20.46032,48.46723],[20.50049,48.49352],[20.4998,48.53945],[20.54907,48.54934],[20.58495,48.54207],[20.65687,48.56513],[20.72039,48.57558],[20.85325,48.58705],[20.87866,48.55764],[20.92604,48.56548],[20.96603,48.5307],[21.02491,48.53673],[21.09478,48.52252],[21.16396,48.52536],[21.24052,48.54468],[21.29597,48.52536],[21.31433,48.56468],[21.41407,48.56945],[21.41733,48.58581],[21.44548,48.58921],[21.51484,48.55786],[21.52754,48.53457],[21.54676,48.51433],[21.61594,48.51672],[21.62693,48.49431],[21.63963,48.45471],[21.65955,48.43558],[21.6695,48.41154],[21.67156,48.39337],[21.68564,48.39342],[21.70967,48.38157],[21.72478,48.35671],[21.82777,48.34096],[21.8288,48.36834],[21.85833,48.37142],[21.86365,48.36218],[21.88597,48.37267],[21.95652,48.38191],[22.02227,48.39468],[22.0772,48.38852],[22.09505,48.38065],[22.13488,48.39809],[22.16114,48.41849],[22.20715,48.42897],[22.2686,48.41302],[22.25933,48.38749],[22.26585,48.36674],[22.32422,48.35602],[22.35031,48.276],[22.38567,48.24091],[22.40147,48.25417],[22.43614,48.2552],[22.45537,48.24617],[22.49159,48.25748],[22.52506,48.23839],[22.57502,48.19756],[22.60403,48.14375],[22.60403,48.1103],[22.6236,48.10651],[22.67578,48.09574],[22.70642,48.11362],[22.74822,48.12519],[22.82324,48.12416],[22.8344,48.11018],[22.8344,48.09723],[22.86495,48.07567],[22.88796,48.05537],[22.8883,48.02908],[22.85105,47.98877],[22.90186,47.96843],[22.90649,47.95062],[22.85293,47.90576],[22.77981,47.83736],[22.68436,47.78571],[22.61295,47.76679],[22.5436,47.7691],[22.45983,47.79332],[22.43374,47.73309],[22.33314,47.74856],[22.2583,47.68874],[22.18311,47.5888],[22.05608,47.52022],[22.04029,47.45131],[22.04029,47.41043],[22.01729,47.37208],[21.8858,47.26129],[21.85867,47.23705],[21.86863,47.18645],[21.79172,47.10145],[21.6671,47.03199],[21.70074,47.00695],[21.68598,46.9519],[21.60496,46.85784],[21.5332,46.7168],[21.46145,46.64826],[21.41201,46.6136],[21.33305,46.62468],[21.32584,46.57633],[21.27468,46.50028],[21.33099,46.45654],[21.29768,46.38696],[21.21597,46.35522],[21.17718,46.2931],[21.10199,46.25608],[21.06766,46.2283],[20.94372,46.25893],[20.76656,46.20193],[20.71129,46.15653],[20.68382,46.13584],[20.63885,46.11966],[20.58975,46.14702],[20.51319,46.17698],[20.47199,46.13203],[20.30823,46.14464],[20.25192,46.10133],[20.13262,46.14155],[20.09777,46.16687],[20.06773,46.13893],[20.02945,46.14333],[20.01486,46.17389],[19.94001,46.1721],[19.91186,46.15998],[19.87049,46.14785],[19.81693,46.12489],[19.79118,46.13679],[19.75651,46.14523],[19.69797,46.18149],[19.68492,46.17733],[19.66055,46.18458],[19.6324,46.16771],[19.57043,46.17496],[19.56116,46.16354],[19.51344,46.13703],[19.53369,46.11942],[19.41627,46.04131],[19.29886,45.98456],[19.14333,45.99076],[19.11861,46.03273],[19.0781,45.99911],[19.08874,45.95759],[19.03553,45.96189],[19.01424,45.91772],[18.91983,45.92751],[18.8055,45.87376],[18.75709,45.88726],[18.69856,45.91032],[18.62474,45.8361],[18.57651,45.79733],[18.44811,45.73207],[18.32897,45.74453],[18.26923,45.75219],[18.16709,45.77327],[18.12744,45.77782],[18.10221,45.75926],[18.03629,45.76692],[17.9932,45.78943],[17.92265,45.78093],[17.86737,45.76165],[17.83218,45.78033],[17.74412,45.81313],[17.64542,45.8392],[17.62877,45.89204],[17.55976,45.92966],[17.52766,45.93109],[17.44903,45.94399],[17.4365,45.91868],[17.32973,45.94041],[17.30261,45.97048],[17.2506,46.01163],[17.2221,46.06525],[17.19721,46.07752],[17.16734,46.11085],[17.15155,46.16759],[17.12219,46.16557],[17.06486,46.18744],[17.03997,46.20467],[16.96924,46.22367],[16.9356,46.24754],[16.89938,46.26487],[16.87758,46.28433],[16.8544,46.34728],[16.80479,46.37121],[16.75226,46.37666],[16.71295,46.39004],[16.65236,46.44839],[16.58592,46.47487],[16.51794,46.50406],[16.52241,46.52143],[16.5279,46.52899],[16.51503,46.53625],[16.514,46.54269],[16.5079,46.56193],[16.49305,46.56075],[16.47992,46.56588],[16.45984,46.59532],[16.45014,46.59792],[16.4219,46.61313],[16.3886,46.63347],[16.38216,46.6558],[16.391,46.66629],[16.42327,46.69355],[16.38001,46.69655],[16.36456,46.70414],[16.34371,46.72451],[16.31461,46.7548],[16.30946,46.77826],[16.30989,46.80176],[16.33796,46.80529],[16.33676,46.84235],[16.3026,46.85438],[16.28946,46.87034],[16.23453,46.87257],[16.21625,46.86688],[16.17574,46.85538],[16.15325,46.85233],[16.1251,46.85532],[16.10845,46.868],[16.14046,46.88965],[16.16346,46.907],[16.19411,46.93989],[16.2038,46.94464],[16.24303,46.94944],[16.23822,46.95747],[16.25444,46.96555],[16.27427,46.96379],[16.2735,46.98617],[16.2868,47.01736],[16.30114,47.0111],[16.30448,47.00168],[16.34869,47.01315],[16.38482,47.00338],[16.41512,47.00724],[16.45529,47.00507],[16.5049,47.00367],[16.48773,47.01034],[16.46439,47.02878],[16.44679,47.01982],[16.42902,47.03492],[16.45194,47.04568],[16.51425,47.05603],[16.46928,47.07299],[16.46885,47.08608],[16.45958,47.09175],[16.46464,47.10273],[16.51374,47.13871],[16.44482,47.1411],[16.44722,47.15412],[16.45881,47.16731],[16.42293,47.18586],[16.4146,47.20715],[16.43074,47.25448],[16.47177,47.26013],[16.46696,47.31648],[16.42748,47.35359],[16.44413,47.40904],[16.45872,47.41566],[16.49116,47.40962],[16.49872,47.39649],[16.51726,47.41427],[16.57597,47.42007],[16.65253,47.45827],[16.65939,47.47696],[16.64274,47.50665],[16.70094,47.53876],[16.65218,47.56772],[16.65459,47.60512],[16.646,47.62236],[16.62935,47.62503],[16.59365,47.61426],[16.56979,47.61831],[16.51863,47.64041],[16.50267,47.63474],[16.4122,47.6625],[16.44568,47.70006],[16.47614,47.69301],[16.48876,47.70035],[16.51975,47.71369],[16.5455,47.72322],[16.52893,47.73996],[16.5479,47.75317],[16.59451,47.76166],[16.63579,47.7605],[16.65742,47.74509],[16.72651,47.73725],[16.87225,47.72547],[16.88358,47.69313],[17.0755,47.71046],[17.04117,47.79586],[17.06486,47.81108],[17.00151,47.85717],[17.0161,47.87272],[17.07807,47.88182],[17.10623,47.92762],[17.0858,47.93383],[17.08889,47.97372],[17.15361,48.00658],[17.19429,48.02369],[17.24184,48.02644]]]]}}
