{"type":"Feature","properties":{"code":"IT","source":"geofabrik index-v1"},"geometry":{"type":"MultiPolygon","coordinates":[[[[11.59726,36.33682],[11.60037,37.85861],[9.923768,37.83806],[7.802627,38.72932],[7.718453,41.33676],[9.262847,41.3263],[9.418028,41.42728],[9.623821,41.4474],[9.653921,41.96821],[9.757779,42.48093],[9.320258,43.49438],[7.555371,43.48099],[7.52409,43.78299],[7.486001,43.87429],[7.701953,44.07916],[7.641609,44.15244],[7.522312,44.13294],[7.426414,44.10263],[7.355003,44.11076],[7.152786,44.19501],[7.01433,44.22179],[6.882662,44.35396],[6.886711,44.45535],[6.835899,44.52393],[6.957594,44.62803],[6.936906,44.6571],[7.019138,44.72564],[6.999752,44.78737],[7.002685,44.83215],[6.875123,44.83275],[6.73881,44.90562],[6.736434,45.00533],[6.669292,45.01521],[6.602696,45.12945],[6.958809,45.21034],[7.122265,45.25776],[7.102324,45.32906],[7.15353,45.38434],[6.996102,45.48573],[6.955375,45.62868],[6.838424,45.67749],[6.803627,45.72512],[6.789207,45.8288],[7.041206,45.92728],[7.069015,45.91366],[7.112274,45.87137],[7.293205,45.92608],[7.554302,45.99386],[7.845611,45.94494],[7.900543,46.00126],[7.988777,46.00555],[8.024826,46.10085],[8.159065,46.17983],[8.068771,46.26273],[8.135719,46.30686],[8.297767,46.38957],[8.276825,46.41396],[8.364715,46.45773],[8.449516,46.46861],[8.474579,46.44921],[8.477668,46.35972],[8.460846,46.25252],[8.53981,46.22427],[8.606586,46.15487],[8.694692,46.10305],[8.742885,46.1262],[8.759537,46.10335],[8.807258,46.10347],[8.866161,46.07121],[8.833351,46.02891],[8.790607,45.99517],[8.815327,45.99183],[8.832407,45.98939],[8.860302,45.96869],[8.89472,45.96028],[8.902359,45.9539],[8.897037,45.93181],[8.91489,45.91987],[8.948192,45.86766],[8.915663,45.84112],[8.956346,45.84453],[8.993425,45.83825],[9.028015,45.82264],[9.03368,45.83908],[9.07299,45.90518],[9.0166,45.92841],[8.954029,45.96523],[8.965616,45.98575],[9.021835,46.00245],[9.000721,46.03368],[9.068184,46.1193],[9.238987,46.24564],[9.274177,46.38531],[9.236755,46.44484],[9.277439,46.50205],[9.363613,46.51446],[9.466524,46.51015],[9.473991,46.37868],[9.505577,46.36659],[9.516477,46.33419],[9.584198,46.29975],[9.701614,46.30757],[9.71569,46.34977],[9.905548,46.38602],[9.959793,46.38602],[9.999962,46.35238],[10.08614,46.2321],[10.14227,46.23216],[10.1663,46.26071],[10.09918,46.32512],[10.11824,46.38057],[10.15841,46.41052],[10.03738,46.42567],[10.03515,46.54564],[10.09729,46.61631],[10.24166,46.64119],[10.26501,46.6116],[10.24836,46.584],[10.46156,46.54682],[10.48319,46.61301],[10.39616,46.63576],[10.37744,46.68466],[10.39684,46.73539],[10.41796,46.78936],[10.46362,46.85949],[10.55374,46.85327],[10.66549,46.88343],[10.76849,46.8299],[10.81621,46.78372],[11.02135,46.78196],[11.10117,46.93679],[11.15662,46.96877],[11.31884,46.99688],[11.479,47.01584],[11.62577,47.0183],[11.81923,46.99758],[11.92223,47.04088],[12.18109,47.10005],[12.24495,47.08555],[12.24838,47.06895],[12.21233,47.02427],[12.13062,47.00835],[12.17457,46.94604],[12.21542,46.89352],[12.27482,46.89375],[12.31396,46.84329],[12.29542,46.79207],[12.36065,46.77843],[12.3864,46.72127],[12.56046,46.67064],[12.78362,46.65297],[13.09296,46.60818],[13.1702,46.59214],[13.2405,46.56352],[13.28788,46.56287],[13.37156,46.58164],[13.50992,46.56783],[13.62837,46.54481],[13.64811,46.53501],[13.72845,46.53005],[13.69611,46.43597],[13.60717,46.43733],[13.58108,46.4078],[13.56709,46.39555],[13.45551,46.33223],[13.39439,46.28943],[13.43233,46.22723],[13.4737,46.2289],[13.5458,46.21952],[13.68365,46.18206],[13.65326,46.13726],[13.52074,46.05489],[13.51421,46.0313],[13.48649,46.00245],[13.53928,45.97],[13.58528,45.99303],[13.63661,45.99159],[13.64553,45.98277],[13.63451,45.94906],[13.63978,45.93557],[13.61,45.8973],[13.59678,45.87435],[13.57944,45.85272],[13.61309,45.80727],[13.66682,45.80607],[13.79831,45.7474],[13.83591,45.71133],[13.85822,45.66996],[13.92878,45.63337],[13.87247,45.60263],[13.85496,45.58269],[13.83599,45.58053],[13.80956,45.57975],[13.77823,45.58329],[13.7475,45.5968],[13.71883,45.59326],[13.70853,45.59674],[13.4456,45.56894],[13.00979,44.76851],[15.58512,42.56248],[18.02457,41.40592],[19.12499,40.148],[17.41399,38.37065],[15.50718,36.30954],[13.83638,36.34822],[13.23388,35.07638],[11.97558,35.14535],[11.59726,36.33682]]]]}}
