{"type":"Feature","properties":{"code":"LT","source":"geofabrik index-v1"},"geometry":{"type":"MultiPolygon","coordinates":[[[[21.99189,56.42669],[22.13101,56.4341],[22.32302,56.41398],[22.34339,56.40005],[22.42759,56.41186],[22.58789,56.39453],[22.62119,56.38502],[22.67853,56.35764],[22.72591,56.37647],[22.83521,56.3709],[22.89551,56.38046],[22.93121,56.41808],[23.00616,56.41515],[23.04959,56.3285],[23.16742,56.33614],[23.16021,56.37134],[23.32705,56.38717],[23.3971,56.38635],[23.46302,56.3546],[23.56739,56.34718],[23.63941,56.36596],[23.76749,56.37472],[23.78581,56.368],[23.81407,56.34443],[24.02247,56.33633],[24.10005,56.27826],[24.15095,56.2583],[24.28872,56.30267],[24.33713,56.3024],[24.3884,56.28242],[24.42579,56.26253],[24.57694,56.29649],[24.56749,56.32073],[24.61727,56.34946],[24.62208,56.37647],[24.64788,56.37887],[24.692,56.37859],[24.69349,56.40611],[24.78069,56.40687],[24.80239,56.42314],[24.81869,56.42237],[24.83187,56.41428],[24.85059,56.41701],[24.85017,56.43767],[24.87185,56.45329],[24.91996,56.44662],[24.92565,56.40449],[24.97677,56.36448],[24.97651,56.31263],[25.01861,56.29289],[25.06168,56.26492],[25.09414,56.18875],[25.23628,56.19425],[25.31428,56.14763],[25.33717,56.1569],[25.54017,56.16781],[25.68867,56.14897],[25.70444,56.12012],[25.70212,56.08706],[25.82477,56.05775],[25.8906,56.00348],[25.97822,55.98323],[26.04825,55.95529],[26.09951,55.89964],[26.22284,55.85664],[26.2726,55.76851],[26.31625,55.74447],[26.35264,55.74475],[26.39343,55.71443],[26.47551,55.70736],[26.53437,55.67942],[26.63364,55.68473],[26.64042,55.65507],[26.64042,55.59874],[26.63136,55.56404],[26.58307,55.53513],[26.53074,55.51437],[26.56646,55.45662],[26.55947,55.38998],[26.44916,55.34658],[26.55838,55.3291],[26.57104,55.32597],[26.61411,55.33393],[26.66647,55.34137],[26.73296,55.32524],[26.80119,55.32495],[26.83565,55.30775],[26.83873,55.27842],[26.728,55.23839],[26.73199,55.21608],[26.70855,55.16857],[26.67071,55.15589],[26.61713,55.14518],[26.59146,55.15318],[26.57541,55.14769],[26.53945,55.14195],[26.5167,55.15946],[26.46272,55.12688],[26.3961,55.13352],[26.35912,55.14729],[26.30779,55.12394],[26.2623,55.11952],[26.23415,55.10735],[26.27596,55.07674],[26.26522,55.06362],[26.21046,54.99601],[26.11106,54.97212],[26.05494,54.93247],[25.97752,54.95189],[25.91023,54.92961],[25.86261,54.92178],[25.8581,54.89927],[25.77599,54.82205],[25.73858,54.80394],[25.75273,54.76622],[25.75169,54.72186],[25.74035,54.69913],[25.75971,54.62071],[25.76692,54.56986],[25.68535,54.53423],[25.64106,54.46874],[25.63646,54.4227],[25.59681,54.37527],[25.56738,54.36348],[25.55582,54.33255],[25.59382,54.324],[25.68293,54.32541],[25.71429,54.30077],[25.7175,54.27956],[25.75384,54.27152],[25.79162,54.23506],[25.75901,54.22235],[25.78551,54.19583],[25.79648,54.15115],[25.73686,54.1556],[25.63728,54.12241],[25.55145,54.14213],[25.49927,54.17731],[25.52205,54.19248],[25.55111,54.1986],[25.50785,54.2991],[25.47146,54.28788],[25.3937,54.27164],[25.35353,54.26262],[25.22049,54.24457],[25.20624,54.21868],[25.16345,54.18833],[25.07286,54.13046],[24.99956,54.13649],[24.95047,54.16696],[24.83288,54.13086],[24.7855,54.10893],[24.81794,54.07923],[24.8379,54.04084],[24.87957,54.04014],[24.8695,54.02841],[24.82069,53.99536],[24.74207,53.96356],[24.67924,53.95851],[24.69836,54.01324],[24.44858,53.90079],[24.35015,53.89221],[24.17542,53.95871],[24.10469,53.93729],[23.97285,53.91809],[23.9356,53.95437],[23.87963,53.9386],[23.84308,53.95457],[23.80184,53.93168],[23.82019,53.9193],[23.82094,53.90864],[23.79707,53.89726],[23.77235,53.89706],[23.76138,53.92237],[23.71531,53.93399],[23.60619,53.92234],[23.53424,53.93995],[23.48637,53.97123],[23.47693,53.9998],[23.51744,54.03369],[23.51366,54.08689],[23.4898,54.11809],[23.4795,54.15158],[23.42096,54.176],[23.37616,54.22631],[23.36157,54.22831],[23.33479,54.25038],[23.24347,54.2558],[23.22921,54.26142],[23.19523,54.28627],[23.15111,54.29489],[23.14373,54.31342],[23.09468,54.29463],[23.03678,54.31472],[23.05441,54.34555],[22.98443,54.35776],[23.00867,54.38238],[22.98426,54.38296],[22.94203,54.3934],[22.88713,54.39978],[22.88763,54.40894],[22.8368,54.40626],[22.81277,54.37006],[22.79114,54.36126],[22.76573,54.38296],[22.73063,54.43865],[22.69827,54.45387],[22.67703,54.53769],[22.7018,54.56543],[22.67647,54.5832],[22.68617,54.5944],[22.73484,54.62986],[22.74515,54.65486],[22.72368,54.66817],[22.71904,54.68673],[22.74081,54.73309],[22.77166,54.7512],[22.85422,54.79119],[22.86976,54.79158],[22.86975,54.82379],[22.83474,54.86357],[22.8483,54.88737],[22.81443,54.9099],[22.79955,54.89892],[22.74822,54.91974],[22.72187,54.96394],[22.64779,54.96011],[22.59785,55.01464],[22.58929,55.03905],[22.58566,55.06903],[22.47082,55.04052],[22.3879,55.05183],[22.2856,55.06097],[22.14009,55.04649],[22.12072,55.02132],[22.07153,55.02329],[22.03969,55.03397],[22.02664,55.05124],[22.03818,55.0784],[22.02932,55.08378],[22.00067,55.08625],[21.96623,55.07244],[21.90777,55.08087],[21.87901,55.09193],[21.84451,55.09497],[21.81292,55.11726],[21.77636,55.11594],[21.71662,55.13243],[21.64873,55.17848],[21.54419,55.19425],[21.51638,55.17965],[21.492,55.18867],[21.4436,55.2208],[21.40858,55.26513],[21.38849,55.28782],[21.27314,55.24038],[21.08929,55.25369],[20.94492,55.2797],[20.61859,55.37599],[20.65327,56.05019],[21.05836,56.07245],[21.15687,56.08975],[21.19154,56.07974],[21.21865,56.16322],[21.33457,56.22991],[21.45019,56.25301],[21.49547,56.29998],[21.60084,56.3312],[21.69082,56.32222],[21.83741,56.37445],[21.95892,56.39034],[21.99189,56.42669]]]]}}
