{"type":"Feature","properties":{"code":"LU","source":"geofabrik index-v1"},"geometry":{"type":"MultiPolygon","coordinates":[[[[5.961753,50.17631],[6.026268,50.18496],[6.034984,50.16356],[6.060695,50.15536],[6.07668,50.15913],[6.078237,50.17255],[6.101762,50.17199],[6.122501,50.16437],[6.120101,50.15594],[6.127695,50.14993],[6.113228,50.13739],[6.123691,50.13719],[6.140929,50.1305],[6.135554,50.11899],[6.138082,50.10263],[6.131085,50.09964],[6.13616,50.09163],[6.121939,50.09059],[6.126335,50.07817],[6.131858,50.07348],[6.121171,50.064],[6.114444,50.06139],[6.115631,50.05817],[6.123611,50.06323],[6.136608,50.04178],[6.130772,50.02981],[6.148207,50.02307],[6.137135,50.01442],[6.139343,50.01116],[6.151702,50.01113],[6.150498,50.00653],[6.147923,50.00195],[6.145906,49.99717],[6.151614,49.99472],[6.156247,49.98867],[6.16333,49.98779],[6.173329,49.98559],[6.173694,49.98321],[6.170353,49.98376],[6.166506,49.97148],[6.170926,49.96353],[6.17702,49.96237],[6.179295,49.95412],[6.182814,49.95492],[6.17981,49.96422],[6.18144,49.96765],[6.19101,49.97079],[6.195216,49.96839],[6.199783,49.95352],[6.207066,49.95672],[6.212689,49.9514],[6.225023,49.95039],[6.22044,49.94369],[6.228241,49.93726],[6.22635,49.92766],[6.219133,49.92354],[6.229935,49.92183],[6.236032,49.91355],[6.231823,49.91039],[6.233067,49.90727],[6.234398,49.90049],[6.247358,49.89588],[6.257809,49.88724],[6.261907,49.88192],[6.27594,49.87768],[6.281126,49.87957],[6.284137,49.87885],[6.287613,49.87594],[6.289201,49.87605],[6.292934,49.87508],[6.293278,49.87033],[6.297699,49.86673],[6.306796,49.87069],[6.311388,49.87094],[6.315324,49.8673],[6.31495,49.86087],[6.322374,49.85381],[6.323791,49.85171],[6.322331,49.84618],[6.321577,49.8409],[6.327406,49.83673],[6.336561,49.83998],[6.339366,49.8507],[6.365762,49.85171],[6.368723,49.8485],[6.402203,49.82098],[6.427045,49.81661],[6.428204,49.81188],[6.43097,49.81129],[6.434984,49.81345],[6.442451,49.81531],[6.443868,49.81224],[6.45366,49.81275],[6.463051,49.81985],[6.47057,49.82385],[6.482191,49.81924],[6.48468,49.81539],[6.49086,49.81232],[6.495452,49.81334],[6.507511,49.80982],[6.511459,49.80315],[6.51485,49.80513],[6.517811,49.81284],[6.521072,49.81442],[6.529808,49.81048],[6.532249,49.80686],[6.530829,49.80116],[6.521459,49.79603],[6.506782,49.78933],[6.517982,49.78381],[6.517682,49.78121],[6.510687,49.77511],[6.520563,49.76818],[6.520516,49.76134],[6.516437,49.75787],[6.503906,49.75413],[6.50146,49.75068],[6.504014,49.74548],[6.503069,49.73305],[6.507266,49.72938],[6.512768,49.72782],[6.518862,49.72456],[6.517789,49.72186],[6.510558,49.71947],[6.504357,49.72485],[6.498992,49.7262],[6.496117,49.72445],[6.50749,49.71664],[6.507726,49.71313],[6.506588,49.71174],[6.502426,49.71159],[6.481762,49.69653],[6.470475,49.69259],[6.461248,49.69076],[6.455884,49.68474],[6.445241,49.6746],[6.432023,49.66802],[6.428161,49.66277],[6.436272,49.66154],[6.441336,49.65952],[6.442511,49.65591],[6.440349,49.64982],[6.433182,49.6392],[6.423526,49.62114],[6.419277,49.61574],[6.412411,49.61268],[6.404257,49.60431],[6.400266,49.60095],[6.391725,49.59869],[6.386447,49.59889],[6.376705,49.59149],[6.375976,49.58787],[6.383614,49.58203],[6.384859,49.57883],[6.382456,49.5761],[6.377735,49.57516],[6.369753,49.57783],[6.359239,49.57265],[6.384001,49.55851],[6.3837,49.55503],[6.380181,49.54849],[6.369324,49.54042],[6.359968,49.53295],[6.361127,49.52471],[6.36559,49.5151],[6.369882,49.50216],[6.368594,49.49564],[6.37104,49.48831],[6.369452,49.47939],[6.370482,49.45931],[6.364217,49.45886],[6.333489,49.46648],[6.3204,49.47551],[6.304693,49.47674],[6.293964,49.48039],[6.287098,49.48511],[6.277657,49.49461],[6.278558,49.50267],[6.262894,49.50339],[6.254697,49.50849],[6.236243,49.50768],[6.213841,49.50565],[6.194358,49.50476],[6.171527,49.50648],[6.158266,49.50164],[6.164617,49.4923],[6.140714,49.48586],[6.129367,49.48803],[6.125479,49.47175],[6.101403,49.46726],[6.104826,49.45076],[6.081667,49.45417],[6.077222,49.46139],[6.059167,49.46306],[6.052222,49.46028],[6.044213,49.44553],[6.025294,49.44703],[6.021545,49.45127],[6.01574,49.44885],[5.994123,49.45301],[5.976569,49.44885],[5.977725,49.45955],[5.971842,49.46182],[5.968237,49.47526],[5.968912,49.48202],[5.9616,49.49026],[5.915279,49.50005],[5.893693,49.49514],[5.87348,49.49748],[5.863321,49.50006],[5.848503,49.50863],[5.848031,49.51376],[5.83641,49.51817],[5.831868,49.52639],[5.84308,49.53081],[5.835622,49.54114],[5.823827,49.53749],[5.816274,49.53504],[5.807176,49.54008],[5.806789,49.54298],[5.841293,49.56197],[5.859432,49.57158],[5.868663,49.587],[5.862888,49.58525],[5.85022,49.58448],[5.847116,49.58961],[5.845652,49.5981],[5.872364,49.60854],[5.87348,49.62033],[5.882749,49.63551],[5.899978,49.63907],[5.899339,49.66239],[5.861378,49.67446],[5.857944,49.68451],[5.875703,49.71118],[5.864811,49.72331],[5.843249,49.71822],[5.821381,49.72209],[5.824894,49.73767],[5.820728,49.74878],[5.786264,49.79079],[5.765172,49.78961],[5.750937,49.79094],[5.741591,49.82126],[5.745814,49.82435],[5.737197,49.83353],[5.740531,49.84142],[5.747012,49.84048],[5.746237,49.84783],[5.753989,49.84878],[5.740663,49.85152],[5.752288,49.85922],[5.749545,49.87554],[5.775668,49.87438],[5.775053,49.88057],[5.734598,49.89341],[5.733033,49.90285],[5.757834,49.91737],[5.760393,49.93252],[5.770728,49.93711],[5.768783,49.94239],[5.768802,49.96104],[5.786724,49.96816],[5.80524,49.96677],[5.806521,49.97321],[5.831293,49.97995],[5.834616,49.98656],[5.818057,49.99936],[5.815606,50.01437],[5.847923,50.02809],[5.861889,50.04581],[5.850872,50.0563],[5.857809,50.07186],[5.880997,50.08069],[5.891965,50.12041],[5.952856,50.13384],[5.961753,50.17631]]]]}}
