{"type":"Feature","properties":{"code":"LV","source":"geofabrik index-v1"},"geometry":{"type":"MultiPolygon","coordinates":[[[[26.59394,55.66109],[26.37334,55.69487],[26.34631,55.72602],[26.25887,55.75856],[26.19564,55.84611],[26.11077,55.8693],[26.02793,55.94539],[25.85575,55.98686],[25.80478,56.04254],[25.68346,56.07379],[25.66302,56.12375],[25.5605,56.12757],[25.53747,56.14815],[25.5013,56.13003],[25.31449,56.13128],[25.22933,56.17473],[25.16705,56.15974],[25.08892,56.17295],[25.06215,56.19231],[25.04065,56.25297],[24.96233,56.30246],[24.9529,56.35335],[24.86169,56.4014],[24.64482,56.36074],[24.5819,56.27525],[24.44868,56.24443],[24.3535,56.25968],[24.12775,56.23534],[24.03926,56.26807],[24.00478,56.31422],[23.81087,56.32643],[23.76423,56.31079],[23.54301,56.32415],[23.32672,56.37324],[23.1942,56.36297],[23.18638,56.32277],[23.09555,56.29117],[23.02155,56.31842],[22.99193,56.38829],[22.96623,56.39794],[22.88864,56.36487],[22.798,56.36107],[22.74101,56.36677],[22.68333,56.34699],[22.4334,56.40022],[22.35374,56.39034],[22.23633,56.39832],[22.11685,56.4234],[22.00561,56.40858],[21.97815,56.37248],[21.83533,56.3565],[21.72615,56.31044],[21.60157,56.30933],[21.4975,56.28187],[21.45149,56.24297],[21.32446,56.20785],[21.24811,56.14829],[21.24275,56.11647],[21.20224,56.0728],[19.73348,55.85085],[20.37414,57.53647],[22.60986,57.97025],[24.20095,57.91345],[24.26183,57.93083],[24.41756,57.88412],[24.45763,57.93089],[24.52972,57.95495],[24.58603,57.96733],[24.70207,57.96515],[24.7316,57.98481],[24.80988,57.99573],[24.83597,57.98299],[25.00499,58.02874],[25.0914,58.07897],[25.21431,58.08877],[25.29465,58.0947],[25.37224,58.03501],[25.45532,58.02119],[25.49026,57.99218],[25.58235,57.97753],[25.61874,57.94219],[25.69565,57.91266],[25.73959,57.92907],[25.80276,57.90245],[25.83778,57.86813],[25.87692,57.8685],[26.06314,57.8602],[26.07109,57.83375],[26.04675,57.78313],[26.21059,57.72863],[26.21137,57.69629],[26.28282,57.61261],[26.47481,57.58769],[26.5216,57.53305],[26.58485,57.55329],[26.60571,57.53963],[26.73476,57.60079],[26.82911,57.59768],[26.91015,57.64734],[27.11713,57.57745],[27.34443,57.53585],[27.55274,57.55224],[27.58082,57.50742],[27.54363,57.43753],[27.67456,57.40058],[27.88066,57.30111],[27.88337,57.24445],[27.83117,57.1381],[27.76701,57.11303],[27.78224,57.08453],[27.74171,57.02051],[27.783,57.00441],[27.74922,56.91424],[27.69479,56.89721],[27.6763,56.85544],[27.84622,56.8865],[27.88605,56.88275],[27.91214,56.8347],[27.98059,56.84304],[27.98815,56.80499],[27.92789,56.74977],[28.02068,56.68459],[28.05664,56.60379],[28.15121,56.58357],[28.15521,56.55206],[28.12951,56.52862],[28.20727,56.44774],[28.20783,56.40068],[28.18748,56.37956],[28.25501,56.27762],[28.1895,56.17083],[28.0499,56.1065],[27.99316,56.11953],[27.91255,56.03716],[27.84622,56.03523],[27.80879,55.9701],[27.75421,55.96688],[27.67369,55.92349],[27.64681,55.88978],[27.65257,55.84371],[27.61755,55.77339],[27.36509,55.7956],[27.27893,55.77261],[27.13002,55.83579],[27.0971,55.81412],[27.01126,55.8144],[26.92761,55.77075],[26.87839,55.70273],[26.78843,55.66519],[26.66638,55.69129],[26.59394,55.66109]]]]}}
