{"type":"Feature","properties":{"code":"MC","source":"geofabrik index-v1"},"geometry":{"type":"MultiPolygon","coordinates":[[[[7.456283,43.74326],[7.595671,43.52067],[7.487181,43.48382],[7.417316,43.72397],[7.408583,43.72958],[7.409892,43.73106],[7.412432,43.73207],[7.411995,43.73475],[7.421361,43.74075],[7.422745,43.74231],[7.424507,43.74122],[7.427498,43.74386],[7.428432,43.74628],[7.430337,43.74943],[7.435657,43.75031],[7.436556,43.75096],[7.436454,43.75293],[7.438892,43.75157],[7.439429,43.7499],[7.456283,43.74326]]]]}}
