{"type":"Feature","properties":{"code":"MD","source":"geofabrik index-v1"},"geometry":{"type":"MultiPolygon","coordinates":[[[[26.69077,48.36515],[26.75892,48.32453],[26.78192,48.29987],[26.81282,48.29553],[26.82123,48.34153],[26.7948,48.34142],[26.76218,48.35294],[26.7057,48.40664],[26.72424,48.41348],[26.77437,48.41997],[26.87136,48.42282],[26.89041,48.41223],[26.90294,48.39809],[26.89728,48.38373],[26.92989,48.3737],[26.96011,48.36754],[27.04233,48.39468],[27.01057,48.41975],[27.01023,48.42601],[27.08473,48.43649],[27.12524,48.38054],[27.19374,48.39707],[27.28472,48.37666],[27.29433,48.40949],[27.31665,48.44537],[27.35544,48.45255],[27.37656,48.44264],[27.38256,48.41336],[27.44831,48.41747],[27.46307,48.4497],[27.49208,48.45972],[27.58221,48.49329],[27.59869,48.49397],[27.60847,48.48646],[27.59302,48.46302],[27.65945,48.44275],[27.73567,48.45812],[27.75404,48.46017],[27.79163,48.44674],[27.81687,48.4292],[27.82305,48.42043],[27.85858,48.41405],[27.87558,48.40642],[27.88004,48.40015],[27.88382,48.39274],[27.88639,48.37267],[27.9039,48.3575],[27.9602,48.32864],[27.97943,48.32658],[28.02097,48.32818],[28.04775,48.32818],[28.07793,48.31975],[28.09856,48.29564],[28.08394,48.24701],[28.09708,48.23491],[28.13307,48.24754],[28.14131,48.26743],[28.1904,48.25577],[28.18748,48.21998],[28.20671,48.20683],[28.26387,48.2281],[28.30301,48.24354],[28.31005,48.244],[28.31786,48.23519],[28.32344,48.23468],[28.33065,48.24257],[28.34327,48.24885],[28.3528,48.248],[28.36158,48.24377],[28.37159,48.22799],[28.37322,48.20717],[28.35854,48.18085],[28.32078,48.16506],[28.30902,48.15326],[28.30996,48.14971],[28.30739,48.14158],[28.31383,48.13711],[28.34138,48.13596],[28.3594,48.1457],[28.37339,48.17576],[28.38936,48.17896],[28.41382,48.17959],[28.43871,48.17095],[28.44266,48.14169],[28.42463,48.12846],[28.4273,48.12073],[28.47193,48.07728],[28.50403,48.15337],[28.57681,48.1852],[28.68238,48.14856],[28.72616,48.13173],[28.75362,48.14192],[28.86263,48.12932],[28.8525,48.03425],[28.90486,48.01278],[28.92374,47.9659],[28.96116,47.98153],[29.05335,47.94521],[29.08854,47.98636],[29.12544,47.99624],[29.18037,47.99659],[29.20132,47.90299],[29.28783,47.89195],[29.27513,47.87514],[29.22638,47.8498],[29.202,47.81961],[29.21934,47.79949],[29.24724,47.81338],[29.28148,47.80416],[29.25127,47.75006],[29.20887,47.71993],[29.23548,47.68538],[29.24011,47.6337],[29.18552,47.56796],[29.12235,47.55313],[29.15153,47.51094],[29.19205,47.52369],[29.19565,47.43169],[29.24114,47.46384],[29.32165,47.45096],[29.39392,47.38034],[29.40233,47.35383],[29.40027,47.3024],[29.47546,47.31322],[29.48421,47.36371],[29.57777,47.3715],[29.6018,47.2543],[29.55464,47.24996],[29.58567,47.13427],[29.52284,47.12785],[29.52644,47.09303],[29.61562,47.10221],[29.63322,47.0451],[29.60163,46.97112],[29.73415,46.9301],[29.75166,46.87099],[29.88659,46.88906],[29.958,46.84517],[29.98478,46.82003],[29.958,46.79348],[29.981,46.75445],[29.97173,46.72221],[29.9786,46.68454],[29.95251,46.64731],[29.97757,46.59072],[29.9477,46.55296],[30.19249,46.4194],[30.09687,46.3692],[30.05894,46.39407],[30.02306,46.38175],[29.89414,46.34859],[29.79561,46.38483],[29.77158,46.44661],[29.67167,46.40899],[29.683,46.35688],[29.60266,46.34954],[29.5752,46.35901],[29.48936,46.42555],[29.4492,46.49461],[29.39529,46.41632],[29.35513,46.48799],[29.31976,46.44708],[29.32972,46.41088],[29.2741,46.39454],[29.23943,46.37204],[29.20303,46.38389],[29.2202,46.51139],[29.04339,46.50383],[29.03034,46.46128],[28.94211,46.45418],[29.00974,46.31635],[28.9603,46.26131],[29.0736,46.19433],[28.95893,46.09323],[29.01112,46.05155],[28.98502,46.00054],[28.78452,45.96905],[28.79139,45.82904],[28.70109,45.81444],[28.71551,45.77662],[28.60531,45.75938],[28.59432,45.72488],[28.51776,45.71817],[28.54866,45.5768],[28.49648,45.56863],[28.52291,45.49528],[28.41648,45.48132],[28.41682,45.51044],[28.30627,45.54411],[28.25992,45.5126],[28.21478,45.46164],[28.18388,45.47012],[28.07762,45.60779],[28.15384,45.66397],[28.10612,45.79266],[28.10234,45.85953],[28.11144,45.89527],[28.11899,45.92584],[28.11092,45.93623],[28.09599,45.97907],[28.08363,46.00769],[28.08758,46.0718],[28.1262,46.16212],[28.1032,46.21393],[28.10715,46.2435],[28.14079,46.29049],[28.18319,46.30603],[28.17899,46.35238],[28.23538,46.42839],[28.20534,46.50324],[28.22405,46.56323],[28.22096,46.57999],[28.24362,46.61325],[28.20568,46.68542],[28.18577,46.71892],[28.14697,46.79301],[28.1159,46.81216],[28.10491,46.84376],[28.0953,46.87029],[28.07934,46.90079],[28.06458,46.99325],[28.04724,46.99758],[27.94682,47.04486],[27.89652,47.07117],[27.87815,47.09128],[27.85343,47.10507],[27.82665,47.11512],[27.82064,47.12329],[27.83558,47.12715],[27.8191,47.13486],[27.77601,47.14011],[27.78545,47.20196],[27.77361,47.20184],[27.77327,47.21922],[27.75301,47.22959],[27.7434,47.24113],[27.72469,47.2918],[27.70941,47.29437],[27.70838,47.28854],[27.68623,47.28226],[27.6325,47.30112],[27.61156,47.31672],[27.59684,47.31503],[27.57671,47.33021],[27.58478,47.3333],[27.60564,47.33481],[27.59422,47.34551],[27.58787,47.36173],[27.5695,47.36371],[27.56109,47.39335],[27.57259,47.41798],[27.5647,47.42089],[27.55354,47.42309],[27.54942,47.43413],[27.56075,47.45491],[27.47406,47.48345],[27.4526,47.50607],[27.45329,47.51372],[27.42059,47.55342],[27.41458,47.5716],[27.42308,47.57936],[27.40136,47.58185],[27.37029,47.59661],[27.31347,47.6418],[27.31167,47.65001],[27.29193,47.65995],[27.24798,47.719],[27.26841,47.74625],[27.21245,47.81661],[27.21691,47.83079],[27.19648,47.83863],[27.13486,47.91841],[27.16181,47.94625],[27.13503,47.96292],[27.14516,47.98797],[27.11288,47.99096],[27.08628,48.00818],[27.08851,48.02771],[27.07735,48.03746],[27.08113,48.04825],[27.06671,48.05754],[27.03478,48.06913],[27.02053,48.09127],[27.03873,48.10376],[27.02911,48.11843],[26.99976,48.11924],[26.96165,48.12829],[26.94757,48.13734],[26.94757,48.15131],[26.97384,48.15853],[26.93865,48.15922],[26.92354,48.16906],[26.94826,48.18543],[26.94397,48.19298],[26.91582,48.17708],[26.89711,48.18074],[26.85144,48.22387],[26.82466,48.2249],[26.81402,48.24571],[26.78123,48.23942],[26.7239,48.24457],[26.70587,48.25097],[26.66571,48.24554],[26.62871,48.25903],[26.61232,48.2736],[26.6379,48.29073],[26.67807,48.35956],[26.69077,48.36515]]]]}}
