{"type":"Feature","properties":{"code":"ME","source":"geofabrik index-v1"},"geometry":{"type":"MultiPolygon","coordinates":[[[[19.37663,41.87477],[19.37548,41.84397],[19.23248,41.61621],[18.17282,41.9621],[18.53725,42.39234],[18.52188,42.41879],[18.49293,42.43666],[18.46888,42.4626],[18.42948,42.48197],[18.44162,42.50875],[18.43046,42.52067],[18.43305,42.55214],[18.44142,42.56444],[18.46968,42.56799],[18.49995,42.59202],[18.54839,42.58041],[18.51475,42.61838],[18.52771,42.63586],[18.56736,42.64802],[18.54569,42.66847],[18.5407,42.69104],[18.56443,42.71679],[18.52758,42.72041],[18.49771,42.73264],[18.46996,42.75367],[18.45047,42.82383],[18.46544,42.85407],[18.47669,42.86407],[18.48673,42.88137],[18.50295,42.8881],[18.47651,42.93154],[18.48914,42.9973],[18.53354,43.037],[18.65172,43.04413],[18.64273,43.14077],[18.66255,43.20445],[18.6977,43.23482],[18.68152,43.25807],[18.72863,43.28698],[18.83747,43.35231],[18.91396,43.36369],[18.96362,43.33228],[18.96362,43.31488],[18.95658,43.29395],[18.98915,43.28052],[18.99108,43.26246],[19.00804,43.25309],[19.03548,43.29222],[19.0726,43.29978],[19.07912,43.31856],[19.0587,43.34248],[19.03805,43.36243],[19.01008,43.43352],[18.95226,43.45094],[18.95468,43.49054],[18.92017,43.48755],[18.90836,43.50436],[18.95979,43.52853],[18.9861,43.55703],[19.0059,43.56217],[19.04634,43.5269],[19.04922,43.50753],[19.14782,43.53995],[19.22902,43.53592],[19.22986,43.48227],[19.33385,43.44054],[19.36008,43.41515],[19.3832,43.41445],[19.45171,43.38992],[19.47017,43.34349],[19.5466,43.31396],[19.53197,43.28333],[19.55103,43.25196],[19.6227,43.23097],[19.64321,43.20688],[19.64476,43.19066],[19.6705,43.18853],[19.69384,43.17297],[19.7353,43.17346],[19.74743,43.16306],[19.77135,43.16907],[19.78375,43.15572],[19.78347,43.13701],[19.79345,43.12634],[19.83905,43.11844],[19.84292,43.11197],[19.83911,43.09707],[19.87016,43.11704],[19.8961,43.10054],[19.92719,43.10041],[19.98,43.11776],[19.97287,43.08502],[20.05382,43.02398],[20.12197,42.96861],[20.15065,42.99489],[20.16472,42.97677],[20.21182,42.96174],[20.23969,42.94463],[20.27954,42.93747],[20.31323,42.92468],[20.34887,42.91358],[20.3534,42.89776],[20.34725,42.86968],[20.35883,42.82993],[20.26549,42.81459],[20.26874,42.77764],[20.25415,42.75445],[20.19802,42.73945],[20.05786,42.77611],[20.02961,42.76246],[20.01928,42.73608],[20.03614,42.72104],[20.03918,42.70078],[20.08502,42.68199],[20.11919,42.65165],[20.09906,42.64047],[20.0785,42.60875],[20.09314,42.57963],[20.08158,42.55437],[20.01802,42.54063],[20.01769,42.52701],[20.00475,42.50636],[19.95289,42.50827],[19.94167,42.51536],[19.90834,42.50399],[19.90784,42.48582],[19.82928,42.46189],[19.78934,42.47993],[19.76349,42.50034],[19.73861,42.54265],[19.74695,42.58296],[19.77128,42.58836],[19.74956,42.61333],[19.73639,42.64037],[19.71827,42.65627],[19.68148,42.62561],[19.66431,42.62602],[19.61318,42.57426],[19.61996,42.54082],[19.57211,42.50691],[19.52188,42.4408],[19.49818,42.42224],[19.47454,42.38995],[19.44408,42.37833],[19.41696,42.34725],[19.42421,42.32462],[19.38915,42.28112],[19.29817,42.17689],[19.40684,42.10296],[19.38057,42.07183],[19.3812,42.0515],[19.37419,42.03953],[19.3749,42.00594],[19.38061,42.00246],[19.38485,41.99498],[19.38117,41.97787],[19.39022,41.96588],[19.38641,41.96115],[19.35482,41.95719],[19.37435,41.92855],[19.3725,41.91876],[19.35173,41.9116],[19.38409,41.8856],[19.37663,41.87477]]]]}}
