{"type":"Feature","properties":{"code":"MK","source":"geofabrik index-v1"},"geometry":{"type":"MultiPolygon","coordinates":[[[[21.12423,40.84759],[20.9705,40.84992],[20.96918,40.89799],[20.93848,40.91663],[20.89984,40.91144],[20.8508,40.92833],[20.82964,40.90032],[20.80287,40.89193],[20.73034,40.90754],[20.67025,41.06979],[20.59507,41.08944],[20.57962,41.11337],[20.58577,41.13249],[20.57447,41.15517],[20.55147,41.18402],[20.5292,41.19488],[20.50944,41.22942],[20.50545,41.28465],[20.48522,41.3344],[20.49718,41.35307],[20.5182,41.34827],[20.54077,41.37629],[20.55168,41.40923],[20.53047,41.42867],[20.50721,41.43481],[20.49167,41.48216],[20.46423,41.49283],[20.44671,41.51867],[20.45834,41.53718],[20.45316,41.56039],[20.5132,41.5658],[20.54757,41.58812],[20.51101,41.65953],[20.5223,41.6904],[20.50794,41.7273],[20.55137,41.86952],[20.56898,41.88288],[20.59224,41.88355],[20.62106,41.86615],[20.64996,41.8811],[20.6715,41.87972],[20.68899,41.86755],[20.72503,41.87335],[20.73626,41.89746],[20.76304,41.91969],[20.749,41.94528],[20.7582,41.96038],[20.74271,41.98181],[20.74227,42.02665],[20.75359,42.05719],[20.78488,42.08672],[20.82737,42.09168],[20.84859,42.10563],[20.88647,42.10398],[20.91772,42.13421],[21.02115,42.15906],[21.09607,42.20911],[21.11656,42.21307],[21.17112,42.19675],[21.21903,42.13712],[21.22592,42.10637],[21.26383,42.10065],[21.29494,42.11452],[21.31571,42.11007],[21.29974,42.13935],[21.31536,42.16009],[21.31382,42.17078],[21.33119,42.21178],[21.38331,42.25228],[21.42596,42.25019],[21.44318,42.28446],[21.51298,42.27646],[21.52915,42.2518],[21.58716,42.26881],[21.69828,42.24307],[21.72439,42.26996],[21.76101,42.26664],[21.79029,42.30248],[21.81392,42.30173],[21.84151,42.3313],[21.90075,42.3083],[21.91948,42.31313],[21.92767,42.34309],[21.94722,42.35052],[22.02898,42.30719],[22.04809,42.31377],[22.08287,42.30917],[22.11806,42.32113],[22.13109,42.31628],[22.14464,42.3276],[22.16588,42.32344],[22.19423,42.34566],[22.22775,42.34379],[22.25538,42.37091],[22.29475,42.37969],[22.30424,42.36933],[22.30267,42.35042],[22.40566,42.29486],[22.41767,42.27422],[22.45567,42.24527],[22.47573,42.20949],[22.5055,42.20022],[22.52416,42.15444],[22.57372,42.12108],[22.68068,42.07102],[22.71824,42.07416],[22.73982,42.0533],[22.78443,42.04408],[22.79941,42.05204],[22.82851,42.02887],[22.87218,42.02567],[22.8844,41.97784],[22.88384,41.93612],[22.9007,41.91592],[22.90805,41.88709],[22.93187,41.8673],[22.94939,41.81737],[22.97431,41.77929],[23.01452,41.77095],[23.03658,41.73231],[23.04012,41.70847],[22.99766,41.66568],[22.98761,41.64249],[22.95795,41.63439],[22.95777,41.59469],[22.97921,41.56256],[22.96758,41.53454],[22.97724,41.51375],[22.96707,41.4903],[22.9857,41.44785],[22.96252,41.41734],[22.97255,41.39558],[22.97049,41.3498],[22.92915,41.33256],[22.8078,41.33228],[22.77026,41.31635],[22.75513,41.16838],[22.73434,41.14046],[22.70782,41.13442],[22.66296,41.1763],[22.62226,41.12926],[22.58603,41.11068],[22.55248,41.12421],[22.46611,41.11117],[22.41672,41.11326],[22.3726,41.12912],[22.33169,41.1147],[22.31476,41.13907],[22.26378,41.15787],[22.21666,41.16052],[22.17856,41.1521],[22.15265,41.12344],[22.12998,41.11718],[22.08342,41.13323],[22.06765,41.1482],[22.03044,41.12693],[21.9747,41.12038],[21.9197,41.08685],[21.91348,41.07035],[21.91926,41.04717],[21.8602,41.01033],[21.84973,40.99168],[21.81023,40.97346],[21.81018,40.94274],[21.78954,40.9247],[21.75457,40.91889],[21.69127,40.93373],[21.67613,40.91957],[21.67454,40.89399],[21.64245,40.89187],[21.5963,40.86066],[21.56334,40.86104],[21.52446,40.90187],[21.4652,40.90019],[21.42542,40.91074],[21.36684,40.8744],[21.31731,40.85812],[21.25718,40.85419],[21.20779,40.87605],[21.15636,40.85109],[21.12423,40.84759]]]]}}
