{"type":"Feature","properties":{"code":"RO","source":"geofabrik index-v1"},"geometry":{"type":"MultiPolygon","coordinates":[[[[24.41849,43.7138],[24.34742,43.69146],[24.16992,43.67632],[24.07928,43.70015],[23.96015,43.74084],[23.8496,43.75076],[23.69717,43.79786],[23.62198,43.78374],[23.54851,43.79662],[23.508,43.82363],[23.40637,43.84567],[23.32226,43.84369],[23.23334,43.83255],[23.13721,43.79786],[23.04073,43.78745],[22.924,43.81372],[22.85396,43.83973],[22.82684,43.86869],[22.82513,43.88478],[22.87182,43.98244],[22.88315,43.99578],[22.99679,44.02121],[23.03009,44.04392],[23.03352,44.07427],[22.96829,44.09474],[22.91405,44.09572],[22.85293,44.13491],[22.79526,44.15265],[22.74788,44.19058],[22.66994,44.20731],[22.66239,44.22921],[22.67956,44.26364],[22.67475,44.27716],[22.58205,44.29707],[22.54257,44.30444],[22.44507,44.47079],[22.46155,44.48426],[22.52369,44.4823],[22.54189,44.48671],[22.56248,44.54546],[22.60265,44.56112],[22.64282,44.55574],[22.70428,44.52123],[22.71629,44.52417],[22.74994,44.56283],[22.67578,44.60782],[22.60815,44.61271],[22.55802,44.63983],[22.46189,44.70917],[22.28165,44.60929],[22.1917,44.46687],[22.14981,44.46295],[22.10621,44.46295],[22.01643,44.53127],[21.97098,44.60786],[21.62468,44.64168],[21.55963,44.74062],[21.37531,44.7629],[21.33091,44.82545],[21.34305,44.88102],[21.52109,44.91526],[21.40287,44.94591],[21.33685,45.02011],[21.42308,45.06431],[21.47964,45.15302],[21.40782,45.19306],[21.21735,45.22494],[21.16377,45.28307],[21.09219,45.27179],[21.0085,45.30121],[20.84007,45.44454],[20.75564,45.46149],[20.74865,45.51272],[20.78976,45.54685],[20.74209,45.6041],[20.77378,45.72915],[20.68751,45.72937],[20.61069,45.83095],[20.33611,45.97762],[20.24181,46.13678],[20.3543,46.19388],[20.44933,46.17108],[20.49992,46.21488],[20.634,46.16629],[20.69141,46.18759],[20.76677,46.29887],[20.87934,46.31148],[21.06155,46.27683],[21.14717,46.33047],[21.19041,46.42192],[21.27709,46.44801],[21.23572,46.50185],[21.29597,46.63322],[21.39492,46.65777],[21.4194,46.71534],[21.48801,46.72403],[21.46247,46.77857],[21.50625,46.85714],[21.57461,46.88788],[21.58044,46.94446],[21.64403,46.98077],[21.63267,47.05752],[21.82722,47.2057],[21.92181,47.39122],[22.00225,47.41318],[21.98397,47.49413],[22.02109,47.55269],[22.15911,47.62203],[22.30687,47.78764],[22.40286,47.77376],[22.47901,47.83535],[22.57393,47.7982],[22.65721,47.80994],[22.73553,47.8651],[22.74466,47.91368],[22.90126,47.9857],[22.91374,48.03919],[23.0676,48.03576],[23.09438,48.10136],[23.15137,48.14049],[23.27812,48.12222],[23.31847,48.06995],[23.47724,48.00003],[23.53314,48.04445],[23.81056,48.00979],[23.86076,47.9367],[23.87844,47.94544],[23.93732,47.95108],[23.94281,47.962],[23.97251,47.97062],[24.00959,47.96935],[24.06263,47.95521],[24.10109,47.93791],[24.11241,47.91801],[24.15979,47.91738],[24.16443,47.92175],[24.19876,47.91761],[24.31446,47.92785],[24.42947,47.97407],[24.57058,47.97636],[24.63203,47.95452],[24.70962,47.85786],[24.83047,47.83044],[24.89811,47.73471],[25.09964,47.76102],[25.23079,47.89977],[25.30907,47.91749],[25.62904,47.95314],[25.86559,47.97384],[26.18351,48.00807],[26.20892,48.0533],[26.26213,48.0868],[26.32702,48.18646],[26.37543,48.20271],[26.43791,48.20683],[26.45954,48.21735],[26.55052,48.22879],[26.58863,48.25006],[26.62914,48.26446],[26.70021,48.26948],[26.80733,48.25943],[26.85367,48.23725],[26.90311,48.20637],[26.94706,48.19836],[26.99512,48.15418],[27.04388,48.13654],[27.06345,48.06477],[27.11426,48.03218],[27.17503,47.99819],[27.25399,47.83436],[27.25468,47.79517],[27.30583,47.75064],[27.32403,47.64342],[27.43423,47.58579],[27.48951,47.50422],[27.54032,47.49285],[27.57843,47.46779],[27.62375,47.32789],[27.73773,47.30065],[27.76348,47.25826],[27.75799,47.24271],[27.77541,47.23257],[27.78794,47.2205],[27.79275,47.20773],[27.78829,47.1921],[27.80236,47.19275],[27.80657,47.18907],[27.80013,47.17023],[27.81232,47.16719],[27.81421,47.14542],[27.84845,47.13667],[27.90493,47.07971],[27.94132,47.06837],[27.96003,47.0596],[27.97531,47.04486],[28.0481,47.02977],[28.07316,46.99852],[28.09925,46.98002],[28.09444,46.96175],[28.11521,46.92225],[28.10388,46.9036],[28.11556,46.89551],[28.12174,46.87721],[28.11281,46.87146],[28.12998,46.85315],[28.17925,46.77961],[28.24585,46.67347],[28.25048,46.64413],[28.25563,46.61207],[28.2431,46.57928],[28.23246,46.52651],[28.23538,46.48445],[28.24362,46.48149],[28.26284,46.4621],[28.26473,46.42922],[28.24465,46.40733],[28.24654,46.39431],[28.21409,46.37027],[28.21186,46.32061],[28.20688,46.31113],[28.18285,46.28385],[28.1329,46.22783],[28.15041,46.17936],[28.10509,46.01509],[28.14766,45.8881],[28.12775,45.83024],[28.16311,45.78045],[28.17495,45.70882],[28.17873,45.64045],[28.14045,45.60527],[28.16225,45.57632],[28.17101,45.51296],[28.19452,45.47434],[28.2383,45.46808],[28.28156,45.45182],[28.291,45.43339],[28.29597,45.39893],[28.34816,45.32753],[28.69938,45.23549],[28.77731,45.33429],[28.81302,45.34249],[28.84495,45.32198],[28.87138,45.32053],[28.93009,45.28697],[28.95412,45.33115],[29.24355,45.44159],[29.28097,45.4305],[29.32217,45.45242],[29.4334,45.44929],[29.55425,45.41291],[29.61021,45.38736],[29.67304,45.33767],[29.70992,45.22089],[29.96098,45.19214],[30.27896,45.00665],[28.87619,43.72546],[28.44463,43.73042],[28.2328,43.75423],[27.99007,43.83799],[27.93789,43.97775],[27.71027,43.94611],[27.65671,44.03553],[27.61311,44.00911],[27.39716,44.00862],[27.34634,44.05749],[27.2897,44.07458],[27.27442,44.09702],[27.27485,44.10713],[27.28266,44.11008],[27.27442,44.11575],[27.27476,44.12253],[27.26446,44.1237],[27.24043,44.11125],[27.05924,44.12124],[26.92886,44.12727],[26.70296,44.05552],[26.61747,44.05182],[26.24119,43.99306],[26.10008,43.94512],[26.07468,43.91743],[26.05717,43.90136],[25.99022,43.87315],[25.95383,43.85483],[25.92705,43.82189],[25.90714,43.78869],[25.79624,43.71181],[25.68157,43.66663],[25.47833,43.61247],[25.38288,43.61296],[25.33516,43.62539],[25.30289,43.64701],[25.09861,43.68004],[24.97913,43.70884],[24.89365,43.70486],[24.78069,43.69295],[24.73915,43.67482],[24.55513,43.75101],[24.41849,43.7138]]]]}}
