{"type":"Feature","properties":{"code":"RS","source":"geofabrik index-v1"},"geometry":{"type":"MultiPolygon","coordinates":[[[[21.89009,42.29648],[21.84992,42.31502],[21.76495,42.2547],[21.73199,42.25698],[21.69765,42.22979],[21.59912,42.25279],[21.58402,42.26003],[21.52093,42.3279],[21.53123,42.37047],[21.54007,42.37529],[21.55234,42.36698],[21.57784,42.38023],[21.59346,42.38518],[21.61955,42.39075],[21.63998,42.41231],[21.61921,42.45184],[21.62659,42.45994],[21.69542,42.52323],[21.68907,42.5417],[21.70521,42.55257],[21.73233,42.55409],[21.74091,42.56573],[21.72787,42.60314],[21.7543,42.64002],[21.78108,42.65366],[21.74675,42.6948],[21.68323,42.68471],[21.6671,42.66552],[21.65337,42.66439],[21.62865,42.69304],[21.58058,42.69859],[21.58539,42.7218],[21.53904,42.72129],[21.46763,42.73466],[21.38832,42.7426],[21.38506,42.75848],[21.41321,42.82134],[21.42591,42.87206],[21.39175,42.86364],[21.35828,42.86967],[21.32137,42.89923],[21.27159,42.89206],[21.24172,42.9333],[21.23039,42.95466],[21.23297,43.00741],[21.2067,43.01996],[21.1964,43.00615],[21.16962,42.99561],[21.15005,43.03],[21.13461,43.09597],[21.0989,43.11427],[21.05083,43.10524],[20.9626,43.12204],[20.82493,43.17464],[20.83969,43.21018],[20.87643,43.21018],[20.82218,43.26296],[20.79334,43.23745],[20.72983,43.2422],[20.7112,43.22657],[20.6882,43.21262],[20.67352,43.20493],[20.60657,43.20242],[20.62168,43.17814],[20.66151,43.15636],[20.69927,43.11602],[20.69893,43.09045],[20.67387,43.03377],[20.644,43.0049],[20.61825,42.99862],[20.5925,43.01092],[20.55757,42.97401],[20.5507,42.95737],[20.53825,42.96208],[20.53345,42.97282],[20.51731,42.96867],[20.49328,42.93205],[20.54787,42.88376],[20.48856,42.86206],[20.44418,42.82965],[20.3496,42.83016],[20.33964,42.86842],[20.34531,42.90414],[20.33449,42.9059],[20.23819,42.94009],[20.19692,42.95669],[20.14466,42.97568],[20.12336,42.96113],[20.0923,42.97065],[20.05701,42.99426],[20.04357,43.02455],[19.98651,43.05048],[19.96491,43.08444],[19.966,43.10915],[19.91718,43.08143],[19.86723,43.10487],[19.842,43.09171],[19.83376,43.09258],[19.81007,43.11326],[19.78329,43.12467],[19.77264,43.13832],[19.76973,43.16112],[19.74106,43.15636],[19.73059,43.169],[19.68407,43.1655],[19.63823,43.18753],[19.61506,43.22694],[19.5409,43.24295],[19.52236,43.28146],[19.52888,43.30844],[19.48254,43.32268],[19.44889,43.3499],[19.44237,43.38484],[19.38658,43.39519],[19.25062,43.4599],[19.21907,43.47855],[19.21937,43.52989],[19.24307,43.53237],[19.24229,43.61544],[19.29379,43.60104],[19.33559,43.59059],[19.35637,43.60892],[19.36943,43.61241],[19.41507,43.58064],[19.44357,43.58313],[19.48004,43.5786],[19.50296,43.58586],[19.48906,43.59643],[19.49009,43.60115],[19.49721,43.61567],[19.49073,43.61896],[19.48554,43.63179],[19.46932,43.6819],[19.5147,43.70858],[19.47757,43.73278],[19.45896,43.76279],[19.42842,43.77562],[19.39201,43.79743],[19.31167,43.88295],[19.24075,43.95484],[19.22397,44.02792],[19.35928,43.98256],[19.36323,43.97528],[19.39151,43.96197],[19.40055,43.97067],[19.45447,43.96036],[19.48618,43.95631],[19.52537,43.95674],[19.53652,43.97305],[19.54665,43.98003],[19.56352,43.98577],[19.56176,44.00066],[19.59034,44.00448],[19.59523,44.01026],[19.61819,44.0147],[19.62094,44.02118],[19.61163,44.03488],[19.6221,44.04953],[19.61034,44.04781],[19.60347,44.04929],[19.59789,44.06958],[19.58519,44.06835],[19.58356,44.0442],[19.57262,44.04531],[19.54983,44.07069],[19.50829,44.08056],[19.49266,44.10102],[19.48906,44.11446],[19.47086,44.1168],[19.46597,44.12647],[19.48039,44.13966],[19.47953,44.14489],[19.47043,44.14871],[19.44906,44.12912],[19.42941,44.13467],[19.41885,44.14341],[19.40074,44.16842],[19.35422,44.18399],[19.35362,44.20177],[19.358,44.20873],[19.35388,44.2118],[19.34426,44.21568],[19.3398,44.2222],[19.34572,44.23278],[19.33783,44.24434],[19.32838,44.24975],[19.32504,44.26991],[19.2992,44.26831],[19.27852,44.27354],[19.25672,44.26241],[19.24187,44.26002],[19.22719,44.26321],[19.22024,44.26764],[19.21337,44.28687],[19.19603,44.28706],[19.1799,44.27575],[19.16393,44.28208],[19.14943,44.30131],[19.12874,44.31814],[19.129,44.33717],[19.11535,44.33907],[19.10076,44.37234],[19.10634,44.39558],[19.11827,44.40405],[19.14316,44.41282],[19.14496,44.43819],[19.13415,44.45553],[19.13252,44.47654],[19.1175,44.50287],[19.12685,44.52331],[19.13398,44.52815],[19.16402,44.52711],[19.17715,44.54106],[19.18582,44.54803],[19.1799,44.5632],[19.1817,44.57628],[19.2168,44.60972],[19.20951,44.61882],[19.25843,44.66316],[19.28916,44.69416],[19.29851,44.71362],[19.29937,44.73119],[19.30804,44.74295],[19.29199,44.78415],[19.31568,44.82471],[19.35997,44.8774],[19.31036,44.90124],[19.2762,44.90161],[19.21869,44.89285],[19.20582,44.8965],[19.19569,44.91522],[19.17784,44.91908],[19.11991,44.88326],[19.06471,44.85794],[19.0163,44.85185],[18.97739,44.90997],[19.03006,44.92903],[19.06849,44.90525],[19.10351,44.9648],[19.03965,44.97548],[19.09012,45.00462],[19.09183,45.05388],[19.07227,45.11496],[19.0805,45.15202],[19.1423,45.13652],[19.18728,45.1772],[19.15123,45.19414],[19.17423,45.20913],[19.26762,45.18301],[19.27654,45.21228],[19.32255,45.21059],[19.34418,45.17841],[19.41078,45.17647],[19.4379,45.19801],[19.41559,45.228],[19.33147,45.228],[19.25148,45.2396],[19.15569,45.26861],[19.09671,45.29394],[19.02214,45.34225],[18.96618,45.3753],[18.96515,45.38977],[18.98952,45.40616],[18.98197,45.45218],[18.98901,45.48698],[19.0024,45.49889],[19.08514,45.496],[19.08651,45.51862],[19.06128,45.5286],[18.93871,45.53124],[18.87966,45.56406],[18.89511,45.61908],[18.95107,45.6738],[18.90575,45.69611],[18.83915,45.77471],[18.83469,45.81205],[18.85408,45.84315],[18.85391,45.85391],[18.8261,45.86587],[18.80894,45.91533],[18.90438,45.9385],[18.99261,45.93516],[18.99914,45.96237],[19.06746,45.97263],[19.05888,46.00173],[19.10042,46.04274],[19.13441,46.04035],[19.22916,46.00269],[19.3634,46.0556],[19.41044,46.05322],[19.47032,46.10399],[19.51447,46.11799],[19.50005,46.14369],[19.56648,46.18185],[19.63085,46.17103],[19.66021,46.19207],[19.69969,46.19017],[19.74157,46.16866],[19.81865,46.13096],[19.85264,46.15189],[19.93469,46.17876],[20.01675,46.17793],[20.06207,46.15047],[20.09884,46.18291],[20.14437,46.14556],[20.18103,46.16062],[20.26446,46.1283],[20.2849,46.11892],[20.34767,46.04836],[20.40642,45.96786],[20.44933,45.97335],[20.48538,45.95592],[20.5125,45.90315],[20.5719,45.91271],[20.58598,45.87639],[20.61413,45.86706],[20.66391,45.83024],[20.68368,45.79973],[20.70433,45.75733],[20.77164,45.75703],[20.78236,45.78812],[20.82458,45.77638],[20.81909,45.7492],[20.80166,45.58765],[20.84024,45.53552],[20.77636,45.48504],[20.83596,45.48251],[20.86784,45.46735],[20.88201,45.45363],[20.88235,45.44598],[20.86965,45.4308],[20.92192,45.41821],[20.99491,45.34824],[21.068,45.33429],[21.09985,45.30133],[21.1837,45.33718],[21.19434,45.29421],[21.23805,45.25196],[21.405,45.23261],[21.48445,45.19583],[21.53458,45.16195],[21.53458,45.13677],[21.48651,45.09219],[21.46042,45.03763],[21.36662,45.02009],[21.42056,44.98553],[21.5516,44.93448],[21.56926,44.88523],[21.48823,44.86609],[21.4381,44.86487],[21.36772,44.86268],[21.37313,44.82587],[21.40056,44.78468],[21.55689,44.77526],[21.59225,44.76307],[21.61285,44.73478],[21.6263,44.67466],[21.78829,44.66621],[21.9972,44.63617],[22.03377,44.58729],[22.08745,44.50402],[22.13476,44.477],[22.17625,44.48328],[22.22362,44.56259],[22.27238,44.6286],[22.3292,44.67952],[22.38377,44.68037],[22.42853,44.71335],[22.47028,44.71969],[22.5079,44.69441],[22.60094,44.62481],[22.62978,44.61626],[22.6811,44.62298],[22.75953,44.56616],[22.7713,44.54147],[22.76019,44.5355],[22.69356,44.51118],[22.63383,44.54405],[22.60574,44.55023],[22.58017,44.5451],[22.56602,44.53142],[22.56231,44.49859],[22.55922,44.48328],[22.52472,44.46907],[22.46927,44.47826],[22.46344,44.46258],[22.49554,44.42716],[22.50395,44.42054],[22.50807,44.37884],[22.5297,44.34104],[22.56111,44.31415],[22.5745,44.30493],[22.65329,44.29658],[22.69121,44.27774],[22.69106,44.25073],[22.67681,44.2329],[22.67921,44.21556],[22.67046,44.20768],[22.63887,44.1902],[22.64419,44.18885],[22.64368,44.18503],[22.62986,44.15893],[22.62875,44.14717],[22.61287,44.10602],[22.62205,44.09831],[22.62692,44.06282],[22.58223,44.05293],[22.5505,44.05273],[22.53942,44.01801],[22.41348,44.00356],[22.42052,43.99244],[22.41074,43.93783],[22.39082,43.92634],[22.39941,43.9136],[22.38275,43.84691],[22.36113,43.81248],[22.4049,43.76018],[22.41073,43.70025],[22.48292,43.65755],[22.49594,43.63773],[22.50061,43.58088],[22.51192,43.51631],[22.55422,43.46375],[22.57666,43.4654],[22.61025,43.43402],[22.65692,43.43525],[22.67761,43.3996],[22.73946,43.39911],[22.83183,43.3338],[22.85424,43.28665],[22.94218,43.20867],[22.99038,43.20743],[23.01035,43.19254],[22.99542,43.12792],[22.98512,43.109],[22.95053,43.08904],[22.92486,43.07955],[22.89997,43.03464],[22.86392,43.01984],[22.84899,43.00088],[22.79032,42.98153],[22.78602,42.95199],[22.77831,42.918],[22.74986,42.88609],[22.70591,42.87733],[22.67719,42.86328],[22.63811,42.8772],[22.61683,42.89293],[22.57656,42.86011],[22.53646,42.8777],[22.51536,42.85464],[22.47683,42.83154],[22.44267,42.82216],[22.44927,42.80261],[22.45039,42.79688],[22.45601,42.79409],[22.46447,42.77739],[22.50927,42.74336],[22.49828,42.72173],[22.46884,42.6883],[22.4818,42.6765],[22.4495,42.57169],[22.47615,42.56361],[22.57016,42.49507],[22.55093,42.45049],[22.52479,42.38891],[22.49018,42.39212],[22.4568,42.32594],[22.43211,42.31954],[22.41434,42.32708],[22.35718,42.30499],[22.2765,42.35017],[22.17384,42.30905],[22.03102,42.28874],[21.95412,42.33038],[21.92493,42.29661],[21.89009,42.29648]]]]}}
