{"type":"Feature","properties":{"code":"SI","source":"geofabrik index-v1"},"geometry":{"type":"MultiPolygon","coordinates":[[[[15.16336,45.42099],[15.14766,45.42845],[15.13581,45.44387],[15.12242,45.4464],[15.10182,45.46164],[15.08423,45.46627],[15.07204,45.48607],[15.05917,45.48655],[15.05204,45.49263],[15.04423,45.48734],[15.0287,45.48439],[14.98415,45.49612],[14.97522,45.49955],[14.93171,45.52698],[14.91591,45.51687],[14.91858,45.50442],[14.91815,45.49149],[14.90836,45.47488],[14.86965,45.46549],[14.81755,45.45814],[14.80708,45.47638],[14.80322,45.47927],[14.77979,45.50526],[14.76829,45.50472],[14.73001,45.52704],[14.71404,45.53239],[14.70033,45.52522],[14.69018,45.5263],[14.68559,45.53097],[14.68387,45.53694],[14.6864,45.55535],[14.69516,45.56346],[14.68632,45.57944],[14.67559,45.58774],[14.65138,45.59056],[14.64272,45.59861],[14.6289,45.60401],[14.59379,45.6261],[14.5998,45.66145],[14.57422,45.66181],[14.54246,45.61488],[14.51345,45.60191],[14.5047,45.547],[14.43501,45.50743],[14.37235,45.48397],[14.32222,45.4682],[14.2812,45.48721],[14.26643,45.47999],[14.23759,45.50226],[14.20807,45.46615],[14.07143,45.48084],[14.01186,45.51405],[14.0007,45.50611],[13.96723,45.50478],[14.0019,45.47987],[13.98525,45.45387],[13.97152,45.44604],[13.92019,45.4511],[13.88672,45.42303],[13.85342,45.42352],[13.81445,45.43207],[13.77926,45.46338],[13.71351,45.45134],[13.67575,45.44038],[13.64227,45.45616],[13.60588,45.46374],[13.59352,45.47085],[13.56194,45.48926],[13.30509,45.57884],[13.63399,45.64695],[13.71986,45.59819],[13.74802,45.60011],[13.78235,45.58713],[13.80741,45.58377],[13.839,45.58449],[13.84998,45.5929],[13.86372,45.60059],[13.86612,45.6114],[13.9135,45.63253],[13.8929,45.64333],[13.86166,45.66013],[13.82973,45.68604],[13.83076,45.70618],[13.80501,45.72464],[13.78613,45.74333],[13.74218,45.75267],[13.65738,45.79554],[13.62511,45.7941],[13.59146,45.80511],[13.56949,45.84219],[13.58185,45.88356],[13.61,45.90984],[13.6203,45.92345],[13.63541,45.93659],[13.62923,45.95091],[13.63472,45.97621],[13.59043,45.98408],[13.56674,45.9638],[13.53447,45.96141],[13.49773,45.97859],[13.46815,46.00319],[13.50288,46.03678],[13.4919,46.04679],[13.49499,46.06275],[13.56983,46.09823],[13.62408,46.1306],[13.64948,46.15487],[13.65635,46.18197],[13.63472,46.18696],[13.61446,46.18245],[13.56812,46.18197],[13.54533,46.20169],[13.46889,46.22023],[13.42083,46.20146],[13.40163,46.21092],[13.4033,46.23295],[13.37002,46.29927],[13.40298,46.30781],[13.43253,46.33298],[13.43319,46.36233],[13.49739,46.37749],[13.56331,46.40449],[13.57361,46.42934],[13.59558,46.44212],[13.65154,46.44921],[13.68279,46.4459],[13.69858,46.49816],[13.71197,46.52509],[13.78097,46.52037],[13.80432,46.51044],[13.83213,46.52202],[13.91247,46.52533],[14.00723,46.48752],[14.04842,46.49674],[14.12395,46.48114],[14.15966,46.43715],[14.18953,46.44661],[14.238,46.44334],[14.28497,46.44756],[14.3169,46.43454],[14.42539,46.4511],[14.44153,46.44401],[14.44942,46.42579],[14.48719,46.42058],[14.52255,46.43076],[14.57371,46.37891],[14.58023,46.39502],[14.57843,46.43282],[14.59225,46.4388],[14.66778,46.45394],[14.71344,46.50241],[14.74056,46.50714],[14.80751,46.51068],[14.81918,46.54588],[14.83601,46.57184],[14.8669,46.60889],[14.8875,46.6162],[14.91497,46.60865],[14.91669,46.62044],[14.95514,46.63482],[14.97402,46.62681],[14.98089,46.60393],[14.99084,46.62256],[15.02655,46.6525],[15.08148,46.65391],[15.10929,46.66358],[15.18585,46.65863],[15.23323,46.64449],[15.29365,46.65533],[15.41451,46.65839],[15.45605,46.64237],[15.47356,46.61572],[15.48489,46.6228],[15.51064,46.62468],[15.53879,46.64001],[15.54153,46.67111],[15.59578,46.69302],[15.6229,46.68454],[15.64281,46.69632],[15.64693,46.70856],[15.68264,46.7088],[15.76504,46.70055],[15.79937,46.71727],[15.84709,46.72833],[15.90992,46.71515],[15.95146,46.69231],[15.99438,46.68548],[16.02871,46.66263],[16.03592,46.68854],[15.99575,46.71444],[15.97858,46.74974],[15.98923,46.80969],[15.98099,46.82802],[15.99403,46.83929],[16.00451,46.83377],[16.02734,46.84317],[16.05703,46.84199],[16.06442,46.85197],[16.08999,46.86712],[16.11145,46.87111],[16.14681,46.85702],[16.23384,46.87956],[16.29169,46.8751],[16.34422,46.8481],[16.35401,46.83084],[16.34216,46.803],[16.31865,46.79653],[16.31487,46.78161],[16.33307,46.77808],[16.32431,46.75539],[16.36133,46.73033],[16.37941,46.71974],[16.38559,46.7022],[16.43229,46.69514],[16.42353,46.65792],[16.39795,46.65698],[16.3892,46.64602],[16.42233,46.62563],[16.44928,46.61266],[16.4982,46.56653],[16.51194,46.56594],[16.53425,46.53525],[16.53442,46.51541],[16.5394,46.50406],[16.59622,46.48031],[16.60034,46.47133],[16.57288,46.46943],[16.51743,46.47724],[16.50267,46.49225],[16.47795,46.50465],[16.44001,46.51269],[16.42765,46.52497],[16.40705,46.52521],[16.388,46.53312],[16.36585,46.5421],[16.33787,46.5258],[16.31727,46.51919],[16.30474,46.51021],[16.27178,46.51233],[16.26852,46.50241],[16.24844,46.49402],[16.26732,46.45761],[16.28225,46.41632],[16.31092,46.40188],[16.30337,46.37453],[16.1875,46.37654],[16.14492,46.40247],[16.0881,46.38661],[16.06133,46.39016],[16.08416,46.34337],[16.02699,46.32334],[16.02013,46.30876],[15.97893,46.30283],[15.93944,46.28658],[15.9161,46.28326],[15.90374,46.28444],[15.86855,46.26855],[15.84658,46.26309],[15.8016,46.25585],[15.80366,46.24184],[15.79147,46.2169],[15.76263,46.20407],[15.7271,46.21548],[15.70375,46.22023],[15.67766,46.2251],[15.64745,46.21061],[15.65174,46.1872],[15.6332,46.17353],[15.61449,46.16485],[15.61895,46.1551],[15.609,46.14702],[15.61552,46.13643],[15.61432,46.11145],[15.63063,46.09883],[15.63303,46.08942],[15.64728,46.09061],[15.66788,46.07692],[15.70084,46.06561],[15.72281,46.05739],[15.73517,46.04488],[15.70839,45.99291],[15.71457,45.92548],[15.68504,45.90303],[15.69483,45.88415],[15.68693,45.86826],[15.70101,45.85858],[15.71388,45.84327],[15.66719,45.83873],[15.64333,45.81851],[15.60368,45.83825],[15.57518,45.84722],[15.56179,45.83382],[15.51922,45.81923],[15.48712,45.82294],[15.47253,45.80966],[15.47819,45.79817],[15.4636,45.79099],[15.39682,45.78345],[15.28095,45.7389],[15.26327,45.72248],[15.27426,45.71181],[15.28404,45.71277],[15.29451,45.69815],[15.31031,45.70126],[15.31494,45.69407],[15.34,45.71601],[15.3582,45.71541],[15.37451,45.69287],[15.39219,45.66889],[15.40953,45.64861],[15.39013,45.63445],[15.36661,45.64237],[15.34944,45.64465],[15.35631,45.63733],[15.34052,45.63193],[15.30825,45.63049],[15.30945,45.61236],[15.28078,45.60395],[15.28971,45.59422],[15.30207,45.58389],[15.30413,45.54026],[15.34069,45.50935],[15.37176,45.49901],[15.38961,45.48794],[15.38567,45.48397],[15.36009,45.47337],[15.3467,45.45447],[15.32713,45.45134],[15.27357,45.46422],[15.24095,45.44652],[15.22654,45.42562],[15.22036,45.42442],[15.20319,45.42412],[15.19323,45.43327],[15.19152,45.42749],[15.17796,45.42081],[15.16336,45.42099]]]]}}
