{"type":"Feature","properties":{"code":"SK","source":"geofabrik index-v1"},"geometry":{"type":"MultiPolygon","coordinates":[[[[17.94961,47.7405],[17.78227,47.7342],[17.76177,47.7445],[17.70966,47.75087],[17.60624,47.81728],[17.56419,47.81132],[17.52297,47.86195],[17.49633,47.86274],[17.45137,47.88096],[17.42868,47.91761],[17.32578,47.98303],[17.26175,47.99142],[17.22158,48.01347],[17.16107,48.00388],[17.09018,48.01795],[17.06486,48.03057],[17.0682,48.08204],[17.08511,48.0962],[17.05799,48.12199],[17.05537,48.13722],[17.0252,48.13837],[16.97353,48.17187],[16.95834,48.21936],[16.94221,48.23491],[16.95105,48.26308],[16.92006,48.27108],[16.89955,48.29513],[16.89079,48.31254],[16.90358,48.32419],[16.84101,48.34821],[16.83071,48.38424],[16.84546,48.38678],[16.84813,48.40875],[16.85268,48.41741],[16.84719,48.44879],[16.86264,48.46604],[16.8947,48.49886],[16.90908,48.50259],[16.91474,48.52138],[16.93336,48.52291],[16.94496,48.53713],[16.93093,48.56972],[16.93139,48.60108],[16.9368,48.61787],[16.96456,48.64713],[16.9616,48.66495],[16.99422,48.70954],[17.01259,48.72964],[17.04055,48.76856],[17.07819,48.78548],[17.1076,48.83201],[17.14846,48.84664],[17.19841,48.88047],[17.2445,48.86906],[17.27703,48.86217],[17.32102,48.84773],[17.39593,48.81878],[17.45101,48.85088],[17.47968,48.8445],[17.50774,48.82444],[17.52036,48.8319],[17.52371,48.81472],[17.54386,48.82982],[17.59946,48.84529],[17.61556,48.84674],[17.63172,48.85972],[17.70179,48.86575],[17.77948,48.92831],[17.88137,48.93208],[17.90162,48.98455],[17.90814,49.00815],[17.92334,49.02442],[17.99106,49.03349],[18.02264,49.02622],[18.06609,49.04103],[18.08632,49.06014],[18.08819,49.07117],[18.11054,49.09254],[18.10527,49.11375],[18.11174,49.12305],[18.1019,49.13538],[18.12827,49.16289],[18.12615,49.19052],[18.14925,49.22436],[18.13948,49.22837],[18.14254,49.25026],[18.17959,49.27333],[18.18069,49.29064],[18.29616,49.30935],[18.37568,49.33463],[18.40956,49.36989],[18.40034,49.40044],[18.44448,49.3983],[18.47261,49.41283],[18.48656,49.43684],[18.53965,49.46979],[18.52773,49.49106],[18.56326,49.51155],[18.5979,49.51519],[18.60747,49.50149],[18.61792,49.50015],[18.67857,49.51257],[18.74441,49.49369],[18.81109,49.52121],[18.94251,49.52383],[18.97758,49.50397],[18.96823,49.48511],[18.9752,49.47689],[18.99402,49.43147],[18.98031,49.40163],[19.03426,49.40068],[19.051,49.41921],[19.07231,49.42295],[19.09358,49.42051],[19.15707,49.40969],[19.19649,49.4527],[19.22106,49.45739],[19.21549,49.47394],[19.23094,49.49885],[19.22876,49.51258],[19.25824,49.53557],[19.36044,49.5408],[19.36863,49.57163],[19.39806,49.579],[19.40793,49.59673],[19.43756,49.60235],[19.44441,49.61796],[19.46846,49.6186],[19.48168,49.59196],[19.53309,49.57624],[19.53422,49.5397],[19.57778,49.46858],[19.61367,49.45243],[19.64488,49.46085],[19.65359,49.43546],[19.64178,49.41572],[19.7013,49.40444],[19.72092,49.39351],[19.74464,49.41266],[19.79462,49.41364],[19.79724,49.3812],[19.80865,49.36662],[19.80062,49.34647],[19.80996,49.32305],[19.81319,49.29914],[19.82773,49.27593],[19.79707,49.2644],[19.76663,49.21176],[19.89684,49.21708],[19.90077,49.23525],[19.93302,49.24139],[19.98306,49.23655],[20.01128,49.22429],[20.02261,49.20634],[20.07708,49.18359],[20.08244,49.20922],[20.09646,49.25262],[20.12064,49.27438],[20.13021,49.30515],[20.14438,49.32009],[20.22043,49.35677],[20.31878,49.35509],[20.31249,49.3916],[20.3223,49.40581],[20.35994,49.40109],[20.37822,49.41301],[20.38792,49.39383],[20.40899,49.39536],[20.41509,49.40662],[20.43102,49.42242],[20.4744,49.41818],[20.50727,49.40539],[20.51465,49.39556],[20.57304,49.38201],[20.59642,49.39203],[20.61374,49.4227],[20.64684,49.40578],[20.69076,49.42468],[20.72412,49.42451],[20.7456,49.41948],[20.76347,49.40142],[20.75146,49.39025],[20.76347,49.38561],[20.76373,49.3741],[20.78922,49.37846],[20.79326,49.36499],[20.80991,49.36315],[20.83248,49.33894],[20.86475,49.35398],[20.88695,49.32792],[20.90811,49.32687],[20.91528,49.31008],[20.92943,49.30176],[20.96194,49.31355],[20.98718,49.31349],[20.98538,49.33183],[21.04017,49.36928],[21.09179,49.37009],[21.0963,49.37587],[21.05079,49.40068],[21.04318,49.42079],[21.0953,49.4344],[21.11051,49.42948],[21.12338,49.44154],[21.154,49.43164],[21.19082,49.4063],[21.20602,49.40841],[21.22119,49.41947],[21.22107,49.43239],[21.27732,49.46594],[21.3074,49.45346],[21.34597,49.45526],[21.37525,49.43792],[21.40208,49.43862],[21.43429,49.41759],[21.47256,49.4187],[21.49205,49.43445],[21.51355,49.42432],[21.52897,49.43991],[21.63125,49.4523],[21.6817,49.4159],[21.69995,49.42348],[21.72446,49.41645],[21.76716,49.38675],[21.77969,49.36088],[21.8008,49.38667],[21.83841,49.39667],[21.8776,49.37815],[21.90422,49.35722],[21.96431,49.35296],[22.03858,49.2806],[22.04685,49.25773],[22.0402,49.22584],[22.14698,49.20167],[22.19133,49.17935],[22.20951,49.18771],[22.22796,49.18541],[22.23929,49.17163],[22.23196,49.15893],[22.2831,49.14717],[22.31817,49.141],[22.33404,49.15144],[22.36872,49.15138],[22.4164,49.11229],[22.53921,49.09969],[22.57051,49.08936],[22.54964,49.00396],[22.49099,48.98554],[22.43653,48.91881],[22.42493,48.88135],[22.38819,48.86298],[22.39241,48.79852],[22.35369,48.68469],[22.25466,48.64311],[22.24378,48.62393],[22.19363,48.60431],[22.1659,48.56596],[22.14271,48.41727],[22.16508,48.40332],[22.13717,48.37568],[22.08629,48.36659],[22.05181,48.37608],[22.02782,48.38605],[21.93509,48.36006],[21.8429,48.34645],[21.83773,48.32556],[21.76374,48.3364],[21.71914,48.3492],[21.66289,48.39166],[21.66289,48.40946],[21.62358,48.45368],[21.60891,48.50363],[21.52562,48.50119],[21.5124,48.54577],[21.43873,48.57965],[21.42643,48.56169],[21.41693,48.55418],[21.33186,48.5543],[21.3067,48.5174],[21.22246,48.53193],[21.13495,48.48714],[21.09289,48.48817],[21.08757,48.51251],[21.01505,48.52691],[20.98193,48.51278],[20.95488,48.51684],[20.93195,48.53412],[20.91877,48.55464],[20.86669,48.54704],[20.83039,48.57644],[20.72607,48.56097],[20.6621,48.55502],[20.58725,48.5308],[20.51423,48.52255],[20.51148,48.48998],[20.47309,48.44858],[20.45457,48.444],[20.414,48.36309],[20.36888,48.31278],[20.3412,48.2967],[20.32867,48.26877],[20.28654,48.25665],[20.24086,48.27517],[20.21693,48.24373],[20.15099,48.24718],[20.13813,48.22223],[20.07595,48.17558],[20.04993,48.16222],[20.0284,48.17218],[19.95635,48.14849],[19.93888,48.12635],[19.89589,48.12052],[19.89881,48.15922],[19.85303,48.1673],[19.8444,48.15647],[19.81813,48.16677],[19.8089,48.14977],[19.79275,48.14897],[19.77742,48.16528],[19.77859,48.19957],[19.68947,48.19921],[19.62862,48.24468],[19.57974,48.21155],[19.53288,48.2004],[19.53319,48.18769],[19.51367,48.17205],[19.51777,48.15376],[19.50114,48.13701],[19.49764,48.11007],[19.46417,48.0751],[19.4458,48.09356],[19.40048,48.08026],[19.2992,48.08519],[19.28083,48.07223],[19.2581,48.06712],[19.242,48.04869],[19.1353,48.06898],[19.10685,48.06259],[19.08543,48.06788],[19.05831,48.05236],[19.01568,48.06928],[18.98215,48.04863],[18.93859,48.05367],[18.83544,48.04225],[18.82158,48.01971],[18.82625,48.00581],[18.81924,47.98987],[18.76046,47.97448],[18.78173,47.95548],[18.77865,47.9304],[18.7637,47.91829],[18.7644,47.89876],[18.76863,47.8771],[18.81602,47.85991],[18.83349,47.83709],[18.86129,47.82952],[18.8503,47.81204],[18.79226,47.81809],[18.73856,47.80854],[18.72997,47.78433],[18.6461,47.75409],[18.55042,47.76194],[18.51625,47.75237],[18.48707,47.74971],[18.45446,47.7631],[18.4366,47.7556],[18.29591,47.72646],[18.17791,47.73725],[18.0883,47.75341],[18.03472,47.75227],[18.00276,47.74133],[17.97174,47.75285],[17.94961,47.7405]]]]}}
