{"type":"Feature","properties":{"code":"TR","source":"geofabrik index-v1"},"geometry":{"type":"MultiPolygon","coordinates":[[[[44.8295,39.61401],[44.82072,39.60943],[44.58973,39.75498],[44.50664,39.6879],[44.45536,39.41875],[44.41366,39.39698],[44.30099,39.36403],[44.07715,39.36509],[44.2337,39.13645],[44.34082,38.81189],[44.35318,38.40948],[44.55093,38.37181],[44.28177,37.91929],[44.65805,37.78808],[44.6347,37.46723],[44.85992,37.31338],[44.80087,37.12638],[44.32297,36.94441],[44.22546,36.97952],[44.16092,37.09572],[44.22546,37.2522],[44.03046,37.30355],[43.93845,37.19861],[43.84369,37.17892],[42.79312,37.32867],[42.58696,37.14267],[42.34955,37.09983],[42.30698,37.18384],[42.30972,37.24181],[42.19162,37.28061],[42.10098,37.20244],[41.94992,37.14445],[41.5242,37.0623],[41.26946,37.07353],[41.2183,37.05874],[41.16852,37.06394],[40.78399,37.10558],[40.39123,36.96306],[40.18387,36.86314],[39.8323,36.74659],[39.52194,36.69045],[39.2157,36.65961],[39.06292,36.70063],[38.89641,36.6965],[38.72372,36.70366],[38.58707,36.80324],[38.54931,36.84061],[38.39001,36.8972],[38.33233,36.89843],[38.21354,36.90433],[38.02128,36.82358],[37.9921,36.8266],[37.90901,36.78922],[37.78404,36.74576],[37.78095,36.74191],[37.65942,36.73723],[37.47059,36.62848],[37.16228,36.65355],[37.10976,36.66622],[37.08881,36.62958],[37.05242,36.64418],[37.01157,36.66429],[36.97243,36.74769],[36.68404,36.81808],[36.56628,36.48148],[36.69571,36.29742],[36.71287,36.24095],[36.63116,36.20661],[36.40594,36.18167],[36.40457,36.01412],[36.17592,35.80835],[36.14639,35.79888],[35.98846,35.88015],[35.90126,35.92687],[34.65377,36.01597],[32.79914,35.717],[29.74462,35.823],[29.61708,36.06298],[29.6097,36.16671],[29.58567,36.16768],[29.30466,36.04355],[28.43674,36.61994],[27.92038,36.4025],[27.88742,36.68274],[27.81703,36.68298],[27.73825,36.5777],[27.53311,36.54054],[27.27768,36.57584],[27.20215,36.75099],[27.38205,36.84886],[27.37106,36.90928],[27.19871,36.93398],[27.09503,37.00749],[27.11975,37.12748],[27.14893,37.27897],[27.05589,37.38598],[27.03323,37.48303],[26.91994,37.58649],[26.92268,37.64197],[26.9941,37.69876],[27.07718,37.70691],[27.13486,37.80327],[26.24044,38.09057],[26.1561,38.25388],[26.20926,38.44714],[26.32324,38.49444],[26.1307,38.62862],[26.23209,38.76408],[26.58495,38.82807],[26.68579,39.06185],[26.48666,39.2631],[26.41836,39.41412],[26.08566,39.37996],[25.87967,39.3343],[25.52398,40.17258],[25.8371,40.38735],[25.91263,40.69522],[26.02936,40.73893],[26.22557,40.89652],[26.32462,40.99363],[26.30436,41.07573],[26.29887,41.11557],[26.30264,41.18021],[26.31123,41.24297],[26.31981,41.25613],[26.34384,41.26568],[26.40049,41.2649],[26.45954,41.30128],[26.51653,41.34511],[26.61678,41.33944],[26.62674,41.38505],[26.59996,41.42651],[26.58726,41.48466],[26.58073,41.59722],[26.51619,41.62109],[26.44718,41.67445],[26.38126,41.68702],[26.32187,41.73494],[26.33388,41.7813],[26.36581,41.82506],[26.5313,41.8289],[26.55464,41.93038],[26.62262,41.98859],[26.94809,42.00977],[27.02396,42.09415],[27.2715,42.12344],[27.3896,42.05057],[27.45071,41.98119],[27.56847,41.94621],[27.6907,41.9845],[27.86133,42.01283],[28.03265,41.9847],[28.37219,42.009],[34.79984,43.07481],[41.30585,41.62982],[41.55922,41.5276],[41.71509,41.50498],[41.82495,41.4592],[41.95061,41.53274],[42.06528,41.50909],[42.17771,41.5195],[42.28003,41.49739],[42.40036,41.46897],[42.48688,41.44826],[42.57099,41.56743],[42.61356,41.59927],[42.69321,41.60928],[42.83947,41.59722],[42.91191,41.50704],[43.21472,41.31495],[43.25935,41.22308],[43.4626,41.20087],[43.49007,41.1223],[43.69537,40.93323],[43.73108,40.81329],[43.76335,40.72593],[43.75339,40.67491],[43.65864,40.52737],[43.55839,40.4749],[43.62327,40.43859],[43.63495,40.3133],[43.694,40.26067],[43.72181,40.16051],[43.65623,40.14581],[43.66001,40.11353],[43.77022,40.0891],[43.92746,40.03261],[44.07921,40.03892],[44.244,40.05495],[44.31885,40.04785],[44.46167,39.98843],[44.54784,39.92606],[44.59385,39.8668],[44.70371,39.79535],[44.83555,39.6628],[44.8295,39.61401]]]]}}
