{"type":"Feature","properties":{"code":"UA","source":"geofabrik index-v1"},"geometry":{"type":"MultiPolygon","coordinates":[[[[30.19592,44.9648],[29.84539,45.17381],[29.63768,45.19147],[29.65622,45.31256],[29.55769,45.39917],[29.54361,45.40689],[29.42551,45.42785],[29.29024,45.42496],[29.19788,45.41219],[29.17308,45.39309],[28.99249,45.33127],[28.96434,45.32608],[28.95198,45.30852],[28.95945,45.29385],[28.95378,45.2828],[28.94142,45.27368],[28.91773,45.27923],[28.8446,45.31136],[28.82452,45.32988],[28.81817,45.33284],[28.80881,45.31407],[28.80598,45.30242],[28.79225,45.2901],[28.7556,45.2796],[28.76607,45.26552],[28.798,45.25942],[28.79688,45.24202],[28.78744,45.2361],[28.74332,45.23054],[28.70415,45.21873],[28.55072,45.24419],[28.50437,45.26691],[28.45425,45.28189],[28.33786,45.31208],[28.2062,45.46507],[28.21907,45.47975],[28.25169,45.51609],[28.30387,45.55048],[28.44669,45.50839],[28.48909,45.57248],[28.53922,45.58281],[28.48308,45.65929],[28.47811,45.68088],[28.51707,45.74261],[28.58479,45.77447],[28.62479,45.76752],[28.6956,45.81923],[28.75912,45.97048],[28.97919,46.01604],[28.94382,46.09419],[29.05403,46.19528],[28.94897,46.25727],[28.98262,46.31955],[28.99644,46.32061],[28.99249,46.33555],[28.9852,46.34254],[28.96202,46.37808],[28.92563,46.45773],[28.96314,46.46843],[28.98022,46.49059],[29.03798,46.50678],[29.15943,46.54824],[29.23874,46.56169],[29.25934,46.48657],[29.26346,46.4149],[29.2923,46.41845],[29.30981,46.48847],[29.35124,46.50887],[29.38573,46.45121],[29.44835,46.50143],[29.50413,46.46411],[29.50584,46.43857],[29.61948,46.40093],[29.65819,46.43673],[29.68008,46.44359],[29.69012,46.43301],[29.72497,46.46748],[29.74136,46.4757],[29.77878,46.45536],[29.86977,46.36612],[29.93431,46.40236],[30.06271,46.40259],[30.09533,46.38791],[30.13206,46.40827],[30.05559,46.42407],[30.05147,46.43951],[30.0219,46.44117],[30.01087,46.4485],[29.93534,46.49189],[29.91526,46.50808],[29.89551,46.51848],[29.87234,46.54765],[29.9398,46.55626],[29.93362,46.58282],[29.9544,46.5998],[29.94221,46.64755],[29.97259,46.75315],[29.96366,46.75668],[29.96384,46.77009],[29.93088,46.80664],[29.96933,46.82438],[29.95645,46.83659],[29.90547,46.81851],[29.86324,46.87568],[29.74737,46.85855],[29.71355,46.92096],[29.64592,46.91674],[29.56833,46.93807],[29.55116,46.9601],[29.59167,46.96549],[29.59408,47.06849],[29.52644,47.07269],[29.4952,47.10776],[29.48696,47.13439],[29.56936,47.14163],[29.54739,47.2529],[29.59476,47.25896],[29.57005,47.3665],[29.49898,47.35464],[29.48971,47.30112],[29.42825,47.28971],[29.39564,47.29809],[29.3716,47.37022],[29.33384,47.36766],[29.31358,47.4455],[29.29058,47.43552],[29.25041,47.4131],[29.18827,47.42042],[29.15428,47.45874],[29.11411,47.55475],[29.1851,47.58243],[29.21539,47.6989],[29.19994,47.71762],[29.2341,47.78813],[29.21677,47.79794],[29.19445,47.81869],[29.21968,47.86247],[29.26432,47.87687],[29.27762,47.88855],[29.19874,47.88239],[29.17248,47.99176],[29.1069,47.97062],[29.08836,47.94395],[29.02279,47.93981],[28.96271,47.97476],[28.92494,47.95728],[28.83259,48.03356],[28.83568,48.12141],[28.68565,48.12279],[28.64513,48.14227],[28.56377,48.16929],[28.50986,48.12714],[28.50231,48.06432],[28.48884,48.063],[28.47922,48.06982],[28.46266,48.0724],[28.45013,48.07842],[28.43571,48.09482],[28.41957,48.12096],[28.41768,48.12898],[28.42841,48.1374],[28.43193,48.15463],[28.38387,48.17296],[28.37288,48.16082],[28.36601,48.14181],[28.32378,48.12531],[28.30215,48.13814],[28.30404,48.1607],[28.31091,48.16528],[28.36,48.1963],[28.36739,48.21095],[28.29803,48.23656],[28.28722,48.23016],[28.21958,48.2042],[28.188,48.20294],[28.17719,48.23634],[28.18508,48.25051],[28.17513,48.25657],[28.1044,48.2265],[28.07728,48.23622],[28.07676,48.25703],[28.08826,48.28445],[28.06011,48.32133],[28.04415,48.32373],[27.96209,48.32156],[27.87523,48.36902],[27.87695,48.39547],[27.86356,48.40687],[27.8179,48.41826],[27.79129,48.44048],[27.74769,48.45573],[27.70838,48.44879],[27.68606,48.43934],[27.65448,48.43843],[27.62135,48.44458],[27.58547,48.46256],[27.5865,48.46996],[27.59079,48.47543],[27.60057,48.48567],[27.59903,48.48908],[27.5865,48.49079],[27.57689,48.48692],[27.50341,48.45334],[27.47852,48.45118],[27.44814,48.40812],[27.37501,48.40835],[27.37089,48.44002],[27.32489,48.44036],[27.28455,48.36047],[27.20266,48.37917],[27.13829,48.37256],[27.11838,48.37872],[27.07443,48.42556],[27.048,48.37176],[26.99581,48.35842],[26.93127,48.36081],[26.83342,48.41166],[26.77231,48.40664],[26.73901,48.38521],[26.78913,48.34963],[26.80767,48.35397],[26.82827,48.34598],[26.84132,48.29279],[26.79394,48.28936],[26.69815,48.3243],[26.63635,48.26034],[26.63532,48.24205],[26.57387,48.21781],[26.40427,48.18646],[26.33114,48.17914],[26.33903,48.16219],[26.29612,48.12141],[26.27071,48.07601],[26.21716,48.04366],[26.19999,47.99567],[26.14849,47.98372],[26.10214,47.9759],[26.06232,47.98682],[25.94971,47.96878],[25.92087,47.97476],[25.91023,47.96188],[25.77701,47.93705],[25.63282,47.94671],[25.59265,47.9359],[25.30872,47.90783],[25.22633,47.85694],[25.17208,47.79171],[25.11646,47.75202],[25.04024,47.72339],[24.88026,47.72016],[24.66396,47.86086],[24.55856,47.94211],[24.22039,47.89218],[24.10812,47.91358],[23.97114,47.96004],[23.94264,47.94625],[23.88762,47.94113],[23.86634,47.93049],[23.84857,47.93337],[23.81561,47.97705],[23.76995,47.99107],[23.65768,47.98073],[23.6352,47.99739],[23.56584,48.00129],[23.53168,48.00991],[23.5001,47.95705],[23.41083,47.9851],[23.31333,48.02254],[23.20209,48.09276],[23.15918,48.10881],[23.09361,48.00279],[23.01121,47.98671],[22.95662,48.00623],[22.95113,47.96441],[22.89345,47.94809],[22.82513,47.98694],[22.87251,48.04366],[22.83268,48.07946],[22.81311,48.10514],[22.7108,48.10858],[22.66857,48.08542],[22.5848,48.10445],[22.54086,48.20408],[22.43683,48.24502],[22.38396,48.23085],[22.36679,48.24343],[22.33246,48.2784],[22.23633,48.38727],[22.22088,48.41462],[22.1735,48.41166],[22.15427,48.40026],[22.13402,48.40345],[22.13264,48.43034],[22.15565,48.57002],[22.18552,48.61135],[22.30705,48.68393],[22.33658,48.68892],[22.33692,48.76253],[22.38327,48.87239],[22.41795,48.92498],[22.47356,48.99261],[22.51579,49.01085],[22.55905,49.10287],[22.61433,49.09478],[22.65656,49.05835],[22.76745,49.057],[22.83714,49.02729],[22.85293,49.005],[22.87422,49.00793],[22.8574,49.048],[22.86976,49.0941],[22.82856,49.10961],[22.70428,49.16779],[22.72522,49.38952],[22.62703,49.52744],[22.79388,49.69118],[22.94598,49.80653],[22.96657,49.83998],[22.99438,49.84374],[23.11214,49.95785],[23.21239,50.04854],[23.27557,50.10098],[23.42594,50.18657],[23.46748,50.22019],[23.508,50.23381],[23.57906,50.26718],[23.58784,50.27409],[23.61099,50.30009],[23.63708,50.32135],[23.70283,50.37755],[23.72292,50.38882],[23.78574,50.40589],[23.94058,50.41618],[23.99414,50.41486],[24.00169,50.43652],[24.0295,50.44614],[24.08443,50.55903],[24.08581,50.63248],[24.05937,50.67732],[24.06178,50.71103],[24.01817,50.71646],[23.94917,50.78792],[23.95844,50.81461],[23.9883,50.8415],[24.02813,50.84389],[24.09302,50.83847],[24.12752,50.85082],[24.14125,50.86394],[24.11533,50.86903],[24.09714,50.87585],[24.05147,50.89015],[23.995,50.92674],[23.96702,50.95096],[23.91243,51.00555],[23.9035,51.06772],[23.87157,51.07635],[23.85406,51.1018],[23.83587,51.15523],[23.81905,51.15975],[23.80325,51.1802],[23.73322,51.21183],[23.69202,51.28339],[23.64601,51.28576],[23.63228,51.31967],[23.63193,51.32782],[23.68618,51.41698],[23.64206,51.4478],[23.64464,51.46107],[23.66747,51.47433],[23.63846,51.48384],[23.61185,51.49688],[23.64086,51.57963],[23.59983,51.62015],[23.67725,51.65595],[23.783,51.67],[24.02641,51.6048],[24.11705,51.66915],[24.30931,51.75041],[24.28631,51.80373],[24.3433,51.88031],[24.61349,51.90615],[25.03235,51.93283],[25.13191,51.97219],[25.26169,51.97473],[25.4361,51.92606],[25.52536,51.94384],[25.76706,51.95611],[25.99708,51.9358],[26.0994,51.91547],[26.19621,51.87013],[26.3974,51.88243],[26.5107,51.80734],[26.60545,51.83917],[26.70021,51.82729],[26.95015,51.74829],[26.99066,51.77251],[27.2097,51.77804],[27.7446,51.60778],[27.71851,51.50447],[27.77824,51.50789],[27.8524,51.63677],[28.26919,51.68533],[28.66264,51.57878],[28.69903,51.45743],[28.74229,51.47326],[28.8137,51.56299],[29.11857,51.66617],[29.17831,51.65424],[29.26346,51.57451],[29.34173,51.39664],[29.4207,51.41848],[29.49417,51.41206],[29.55047,51.55018],[30.18905,51.519],[30.35797,51.4754],[30.42046,51.31152],[30.46783,51.3083],[30.57461,51.27802],[30.59006,51.31216],[30.62679,51.3497],[30.5722,51.44973],[30.50011,51.59883],[30.55847,51.71086],[30.61203,51.77379],[30.6546,51.82644],[30.74249,51.90743],[30.79657,51.92225],[30.8103,51.93421],[30.80292,51.94892],[30.92445,52.0508],[30.93269,52.09005],[31.14143,52.10693],[31.25404,52.05629],[31.28426,52.05122],[31.31927,52.1103],[31.40236,52.14571],[31.43703,52.14508],[31.53729,52.12674],[31.85863,52.11389],[31.90601,52.10461],[32.07012,52.03792],[32.30942,52.1613],[32.32315,52.28664],[32.35199,52.33786],[32.4052,52.34142],[32.55077,52.32863],[32.72346,52.2648],[32.83195,52.28244],[32.97272,52.28202],[33.13957,52.3865],[33.19691,52.38126],[33.30677,52.35757],[33.37578,52.37392],[33.51894,52.36072],[33.83267,52.3752],[33.92647,52.30932],[34.05212,52.2055],[34.12216,52.13939],[34.10637,52.02504],[34.43046,51.82984],[34.44832,51.72745],[34.40231,51.71044],[34.12628,51.67639],[34.24782,51.58347],[34.3206,51.52455],[34.27631,51.39835],[34.35596,51.36192],[34.24507,51.26535],[34.26361,51.2574],[34.38171,51.27631],[34.66495,51.25332],[34.71027,51.18171],[34.97841,51.23849],[35.1178,51.23613],[35.15406,51.22413],[35.20741,51.0524],[35.30971,51.08455],[35.37872,51.07053],[35.41649,51.04355],[35.41202,51.02607],[35.3389,50.95302],[35.39589,50.92576],[35.40653,50.91169],[35.43606,50.79617],[35.49271,50.78185],[35.49854,50.6784],[35.49236,50.64968],[35.41202,50.59043],[35.48653,50.49115],[35.58231,50.46275],[35.59193,50.44548],[35.62179,50.36123],[35.73578,50.35992],[35.78831,50.41946],[35.83225,50.43673],[35.89096,50.44176],[36.08494,50.45444],[36.16768,50.43324],[36.24252,50.36518],[36.28681,50.33889],[36.30947,50.30118],[36.43169,50.33363],[36.58482,50.28912],[36.62258,50.22942],[36.68884,50.27135],[36.86119,50.34064],[36.93535,50.35291],[37.15473,50.36605],[37.32708,50.44002],[37.47745,50.46297],[37.49874,50.46078],[37.47745,50.37853],[37.64397,50.31763],[37.63813,50.19822],[37.64637,50.19207],[37.64259,50.17888],[37.77031,50.09724],[37.92583,50.04391],[37.96841,49.98346],[38.00789,49.97021],[38.05355,49.9278],[38.21148,49.97927],[38.17989,50.02208],[38.17303,50.08248],[38.3023,50.09246],[38.33358,50.08701],[38.37635,50.0029],[38.43376,50.00417],[38.64338,49.97353],[38.68149,50.01127],[38.70209,50.00752],[38.72337,49.98324],[38.74329,49.90171],[38.90636,49.87406],[38.92181,49.85923],[38.93349,49.80631],[39.02618,49.82625],[39.1872,49.89751],[39.23218,49.84197],[39.28917,49.75909],[39.46804,49.76441],[39.61498,49.73624],[39.63249,49.67163],[39.6912,49.61182],[39.75197,49.6007],[39.88964,49.5633],[39.94663,49.59914],[40.13752,49.62116],[40.1746,49.56887],[40.04791,49.52187],[40.03761,49.45585],[40.12653,49.3855],[40.14645,49.38036],[40.2,49.34951],[40.23811,49.24965],[39.9408,49.0543],[39.69069,49.03213],[39.72279,48.98039],[39.7524,48.99007],[39.78252,48.95249],[39.7887,48.92002],[39.92912,48.89836],[40.03933,48.92092],[40.06714,48.91054],[40.08568,48.86946],[39.9789,48.78764],[39.80347,48.83037],[39.76913,48.76275],[39.74133,48.74578],[39.72425,48.6832],[39.71214,48.65457],[39.66648,48.60829],[39.69566,48.58887],[39.7887,48.59534],[39.84501,48.58433],[39.8687,48.50478],[39.94766,48.38863],[39.95041,48.35237],[39.89788,48.33046],[39.85016,48.32727],[39.84741,48.31197],[39.88792,48.30969],[39.92397,48.28548],[39.94972,48.30581],[39.98611,48.32065],[39.99538,48.31699],[40.02697,48.25211],[40.00946,48.21941],[39.94732,48.22467],[39.9408,48.17936],[39.88655,48.11133],[39.88483,48.03976],[39.78285,48.03617],[39.82063,48.00164],[39.82647,47.98142],[39.8275,47.9497],[39.81033,47.93613],[39.79866,47.86961],[39.73858,47.82583],[39.5192,47.82307],[39.40933,47.82791],[39.38324,47.86639],[39.14909,47.84012],[39.10686,47.83989],[39.04129,47.86731],[38.88611,47.8703],[38.83015,47.81431],[38.80302,47.77717],[38.77831,47.68411],[38.73333,47.67764],[38.68355,47.69752],[38.66741,47.69763],[38.66698,47.66868],[38.61797,47.64272],[38.4621,47.64018],[38.46005,47.61658],[38.35396,47.57491],[38.30349,47.53969],[38.30709,47.36813],[38.25886,47.36557],[38.22401,47.30764],[38.33885,47.30775],[38.33302,47.24521],[38.24547,47.2268],[38.23998,47.13929],[38.23414,47.12084],[38.34778,46.98119],[38.14659,46.85409],[37.63367,46.82356],[37.40676,46.65744],[36.66616,45.35222],[36.61184,45.30599],[36.59666,45.25193],[36.56387,45.22123],[36.66137,44.85587],[33.81591,44.00862],[30.19592,44.9648]]]]}}
